number,name,contact,website_link,latitude,longitude,address,ownership,type_of_hospital,specialized_hospital,medical_college,avaleabale_bed,cost_ratings,service_ratings,icu_iccu,nicu,online_survice,emergency_suppory,ambulence_support,basic_ambulence,motorcycle-ambulance,neonatology_ambulence,life_support_ambulance,advanced_life_support_ambulance,source
1,Bangabandhu Sheikh Mujib Medical College,01866-637482,bsmmu.ac.bd,23.73841,90.3954,Shahbag0 Dhaka,Government hospital,Medical college hospital,all,1,1900,2,3,1,1,0,1,1,1,1,1,1,1,bd-info.com/dhaka-hospital-list
2,Doctors Point,,,23.76014,90.4402,Doctors Point TAS 7304 Australia,Private hospital,Clinic,all,0,,,,,,,,,,,,,,
3,Supply Chain Management Department Asgar Ali Hospital,,,23.70832,90.4229,PC5F+65C,Private hospital,Hospital,all,0,,,,,,,,,,,,,,
4,Lab One Research Institute of Haematology & Hospital,,http://www.lorihh.labone.org.bd/,23.87131,90.3902,165-166 Paril Green Apartment Green Rd,Private hospital,Hospital,all,0,,,5,,,,,,,,,,,
5,National Institute of Mental Health and Hospital,,https://nimh.gov.bd/,23.77258,90.3682,Q9C9+X74,Government hospital,Hospital,all,0,,,4.3,,,,,,,,,,,
6,Lab Aid Limited,,,23.76484,90.3648,50 Royalt Castle Rd Accra Ghana,Private hospital,Diagnostic,all,0,,,,,,,,,,,,,,
7,TAKE CARE HOSPITAL & DIGITAL DIAGNOSTIC CENTER,,,23.77612,90.3647,No 4 Church Rd Paneer Nagar Mogappair East Chennai Tamil Nadu 600037 India,Private hospital,Diagnostic,Diagnostic,0,,,,,,,,,,,,,,
8,Royal Multispeciality Hospital Unit-2,,,23.77041,90.3663,Sundaraiah Bhavan Rd Brundavan Nagar Pandaripuram Ongole Andhra Pradesh 523002 India,Private hospital,Hospital,all,0,,,,,,,,,,,,,,
9,Habib Hospital,,,23.82439,90.3654,Plot No. 345 345/1 & 238 AH Wadia Marg Old Agra Road Off Lal Bahadur Shastri Rd opp. Shalimar Hotel Friends Colony Kurla West Kurla Mumbai Maharashtra 400070 India,Private hospital,Hospital,all,0,,,,,,,,,,,,,,
10,Al Mutmainnah Maa O shishu Hospital,,,23.74286,90.4166,Agrabad Commercial Area Chattogram 4100 Bangladesh,Private hospital,Hospital,all,0,,,,,,,,,,,,,,
11,Sheba Diagnostic Center,,,23.77451,90.3647,9R6H+35J O.R. Nizam Rd Chittagong Bangladesh,Private hospital,Diagnostic,Diagnostic,0,,,,,,,,,,,,,,
12,HUMAN DIAGNOSTIC & MEDICAL CENTRE,,,23.73251,90.4139,1002 CDA Ave Chittagong 4000 Bangladesh,Private hospital,Diagnostic,Diagnostic,0,,,,,,,,,,,,,,
13,REMEDY DIAGNOSTIC CENTRE & GENERAL HOSPITAL,,,23.77798,90.3686,Tribeni Apartment Garia Main Rd opposite Sitala Mandir Purbapara Kamdahari Kolkata West Bengal 700084 India,Private hospital,Diagnostic,Diagnostic,0,,,,,,,,,,,,,,
14,Homeopathic Charitable Hospital,,https://www.facebook.com/Homoeopathic-Charitable-Hospital-456289795151959/,23.808,90.383,Section 14,Private hospital,Hospital,all,0,,,5,,,,,,,,,,,
15,Shurakkha General Hospital & Institute Of Medical Science,,,23.83004,90.3566,368 Sher-E-Bangla Rd Khulna Bangladesh,Private hospital,Hospital,all,0,,,,,,,,,,,,,,
16,Green Lab Diagnostic Centre,,,23.72034,90.3882,R9XR+M2Q ???????? Bazar Bangladesh,Private hospital,Diagnostic,Diagnostic,0,,,,,,,,,,,,,,
17,Al Razi Hospital Pvt. Ltd.,,,23.76548,90.4397,House No. 459 2 Hospital Rd Maijdi 3800 Bangladesh,Private hospital,Hospital,all,0,,,,,,,,,,,,,,
18,Rx Medical Center,,,23.7921,90.4146,CWN(B)6 Rd 36,Private hospital,Clinic,all,0,,,4.3,,,,,,,,,,,
19,SRS Clinic,,https://maps.gstatic.com/consumer/images/icons/1x/ic_directions_gm_blue_24px.png,23.55957,90.5203,QCJH+8M5 Adarsh Nagar Rd,Private hospital,Clinic,all,0,,,5,,,,,,,,,,,
20,Cancers Clinic,,http://www.cancersclinic.com/,23.55957,90.5203,House # 12 & 13 Rd 22 Block#K,Private hospital,Clinic,all,0,,,,,,,,,,,,,,
21,Pushpo Clinic,,http://www.pushpomedicalbd.com/,23.55957,90.5203,H/101 Kakoli Dhaka - Mymensingh Hwy Mymensingh Hwy Dhaka 1212,Private hospital,Clinic,all,0,,,2.8,,,,,,,,,,,
22,shosti clinic,,http://www.eminence-bd.org/,23.55957,90.5203,10 Road No. 03,Private hospital,Clinic,all,0,,,4,,,,,,,,,,,
23,New Popular Medical Services,,_,23.60499,90.457,Narayangan JF34+XQX ??????? Bangladesh,Private hospital,Diagnostic,all,0,,_,_,0,0,0,0,1,1,1,0,0,0,
24,Bashundhara Ad-din Medical College Hospital,1800 1020 320,www.rmcedu.com/bashundhara-ad-din-medical-college.html,23.66865,90.4259,MCCH+7HF Bashundhara Riverview Bangladesh,Private hospital,Medical college hospital,all,1,500,3,4.2,1,1,1,1,1,1,1,1,1,1,www.rmcedu.com/bashundhara-ad-din-medical-college.html
25,Gulshan Health Care Center,,,23.66965,90.4592,Sheba House Plot 34 Road: 46,Private hospital,Clinic,all,0,,,,,,,,,,,,,,
26,Cure Health Center,,,23.66965,90.4592,House 1 Road 17,Private hospital,Clinic,all,0,,,4,,,,,,,,,,,
27,Ruhitpur general hospital (pvt). Ltd.,_,facebook.com/profile.php?id=685922348121113,23.67371,90.3137,Ruhitpur Bangladesh,Private hospital,Hospital,all,0,,3,3,0,0,0,0,1,1,1,0,0,0,
28,Bangladesh Premium Hospital Ltd.,01730-599266,_,23.68499,90.3563,P8PQ+7MX Laboni Point Basilla Road Ghatarchar Rd Dhaka,Private hospital,Hospital,all,0,,_,_,0,0,0,0,1,1,1,0,0,0,
29,Dr Lal Pathlabs Bangladesh Private Limited,01885-998000,_,23.68499,90.3563,QCJF+6CF Bir Uttam AK Khandakar Rd Dhaka 1212,Private hospital,Diagnostic,all,0,,_,3,0,0,0,0,1,1,1,0,0,0,
30,Bangladesh Molecular Laboratory,,_,23.68499,90.3563,Bangladesh,Private hospital,Diagnostic,all,0,,_,_,0,0,0,0,1,1,1,0,0,0,
31,Bangladesh Assisted Conception Centre (BACC) Women’s,,,23.68499,90.3563,Bangladesh,Private hospital,Hospital,all,0,,,,,,,,,,,,,,
32,icddrb OST Centre Jatrabari Dhaka,,https://maps.gstatic.com/consumer/images/icons/1x/ic_directions_gm_blue_24px.png,23.68846,90.4285,PC6M+6XW Dholpur Madrasar Goli New Road,Private hospital,Clinic,all,0,,,,,,,,,,,,,,
33,Siamak Pet Clinic,,,23.692,90.4419,House-56 Road-9/B,Private hospital,Clinic,all,0,,,4.1,,,,,,,,,,,
34,Doctors' General Hospital,,https://ssl.gstatic.com/local/servicebusiness/default_user.png,23.69213,90.4327,31-32 Dhaka - Mawa Hwy,Government hospital,Hospital,all,0,,,4.3,,,,,,,,,,,
35,RASEL PHARMACY,,,23.69248,90.4449,QCG3+GRH,Private hospital,Clinic,all,0,,,,,,,,,,,,,,
36,Cure Consultation & Diagnostic,,_,23.69398,90.4767,Middle Point of Saddam Market and Signboard MFVG+HMV N1 Dhaka 1361 Bangladesh,Private hospital,Diagnostic,Diagnostic,0,,_,_,0,0,0,0,1,1,1,0,0,0,
37,Ad-din Barrister Rafique-ul Huq Hospital,01713-488425,ad-din.org,23.69477,90.4329,23/1 Balurmath postogola Baru miya's road ???? 1204 Bangladesh,Private hospital,Hospital,all,0,,3.2,4,0,0,0,0,1,1,1,0,0,0,ad-din.org
38,Medica Diagnostic & Hospital Management Software,,https://maps.gstatic.com/consumer/images/icons/1x/ic_directions_gm_blue_24px.png,23.69794,90.5093,QCV4+GV6 Kemal Ataturk Ave,Private hospital,Diagnostic,Diagnostic,0,,,5,,,,,,,,,,,
39,Ashiya general Hospital,,https://maps.gstatic.com/consumer/images/icons/1x/ic_directions_gm_blue_24px.png,23.69833,90.4548,School Building-3 C O Rd,Private hospital,Hospital,all,0,,,,,,,,,,,,,,
40,Delta Health Care Jatrabari Limited,,https://www.gstatic.com/images/icons/material/system_gm/1x/public_gm_blue_24dp.png,23.6989,90.4359,MCXM+QJJ Building B 169/1,Private hospital,Clinic,all,0,,,3.5,,,,,,,,,,,
41,Physiotherapy & Rehabilitation Center,,,23.699,90.4358,IPH Rd,Private hospital,Clinic,all,0,,,5,,,,,,,,,,,
42,Delta Health Care Jatrabari Ltd.,88022772856,_,23.69913,90.4355,169/1 MCXM+QJJ Building B Dhaka 1204 Bangladesh,Private hospital,Diagnostic,all,0,,3,3.2,0,0,0,0,1,1,1,0,0,0,
43,Dr. Sharif's Homeopathic Center,,,23.69923,90.4944,House # 19 (Ground Floor Rd -19,Private hospital,Clinic,all,0,,,5,,,,,,,,,,,
44,Holy care diagnostic center,,,23.69979,90.4915,VCH4+RQ8,Private hospital,Diagnostic,Diagnostic,0,,,,,,,,,,,,,,
45,Relife Medical Center,,https://relife-medical-center.business.site/?utm_source=gmb&utm_medium=referral,23.69997,90.4586,4th Floor Sayed Ashraf Bhavan H- 42/1 Rd No. 5,Private hospital,Clinic,all,0,,,4.8,,,,,,,,,,,
46,Fatima General Hospital,,,23.70066,90.4298,VCV3+42F R301,Private hospital,Hospital,all,0,,,3.9,,,,,,,,,,,
47,Al-Madina Nursing Home & Diagonstic Center,01712-204375,_,23.70099,90.4568,1726 North Rayerbag 1st Floor Hazi Wadud Market Dhaka 1362 Bangladesh,Private hospital,Diagnostic,all,0,,3,3,0,0,0,0,1,1,1,0,0,0,
48,SAJIDA HOSPITAL,,_,23.70114,90.5142,Sajida Hospital N1 Siddhirganj Bangladesh,Private hospital,Hospital,all,0,,_,_,0,0,0,0,1,1,1,0,0,0,
50,Eastern Care Hospital Limited,,,23.70185,90.4354,7/3Gate 2 Block # A,Private hospital,Hospital,all,0,,,3.4,,,,,,,,,,,
51,Bangladesh Critical Care and General Hospital Ltd,,,23.70185,90.4354,2/8-A Road 3 Block # A,Private hospital,Hospital,all,0,,,4.6,,,,,,,,,,,
52,Health Care Urology & General Hospital Ltd.,,,23.70185,90.4354,1086/B Habibullah Rd,Private hospital,Hospital,all,0,,,3,,,,,,,,,,,
53,Safe Care General Hospital,,https://maps.gstatic.com/consumer/images/icons/1x/ic_directions_gm_blue_24px.png,23.70185,90.4354,106 West Dholaipar Jatrabari Dhaka,Private hospital,Hospital,all,0,,,3.5,,,,,,,,,,,
54,Chowdhury General Hospital,,,23.70185,90.4354,73 Nazimuddin Rd,Private hospital,Hospital,all,0,,,4,,,,,,,,,,,
55,National Health Care General Hospital,,,23.70185,90.4354,22 14 B Khilji Rd,Private hospital,Hospital,all,0,,,4.2,,,,,,,,,,,
56,Deshbangla Hospital & Diagnostic Centre,01919-546690,dbgh.webs.com,23.70254,90.4486,26 Shonir Akhra - Dania Rd Dhaka 1236 Bangladesh,Private hospital,Diagnostic,Diagnostic,0,,3,4.1,0,0,0,0,1,1,1,0,0,0,https://dbgh.webs.com/
57,Sheba General Hospital & Diagnostic Center,,,23.70328,90.4506,Q9F8+2J8 Khilji Rd,Private hospital,Diagnostic,Diagnostic,0,,,3.7,,,,,,,,,,,
58,ABDUL HAMID FOUNDATION HOSPITAL,01959-923452,_,23.70332,90.3801,P93J+82G Kalindi Rd Keraniganj Bangladesh,Private hospital,Hospital,all,0,,_,3,0,0,0,0,1,1,1,0,0,0,
59,Mary Orthopedic General Hospital and Diagnosis Center,,,23.70384,90.4507,Q9H9+7VP,Private hospital,Hospital,Orthopedic,0,,,3.5,,,,,,,,,,,
60,Popular Consultation Centre 2,,https://www.populardiagnostic.com/,23.70388,90.4508,House -2 5 Road No. 2,Private hospital,Hospital,all,0,,,3.3,,,,,,,,,,,
61,Al Biruni Hospital And Diagnostic Service,,,23.70603,90.4451,3 Mirpur Rd,Private hospital,Diagnostic,Diagnostic,0,,,5,,,,,,,,,,,
62,Uttara Modern Hospital,,https://umhlbd.business.site/,23.70767,90.4345,V99W+4Q5 Rabindra Sarani,Private hospital,Hospital,all,0,,,3.9,,,,,,,,,,,
63,Modern Hospital,,https://ssl.gstatic.com/local/servicebusiness/default_user.png,23.70767,90.4345,PC76+CMG,Private hospital,Hospital,all,0,,,4.8,,,,,,,,,,,
64,Sumona Hospital,,https://ssl.gstatic.com/local/servicebusiness/default_user.png,23.70769,90.4101,PC55+5X5,Private hospital,Hospital,all,0,,,3.8,,,,,,,,,,,
65,ASGAR ALI HOSPITAL,10602,https://www.asgaralihospital.com/,23.7077,90.4237,???/?/ A ?????????? ??? ?????????? ??????? ????? ??????? ???? ????? ???? Dhaka 1204 Bangladesh,Private hospital,Hospital,all,0,200,3.4,4,1,0,1,1,1,1,1,0,0,0,https://www.asgaralihospital.com/
66,Wari Golden Hospital & Diagnostic Center,,https://hospital-2785.business.site/,23.70814,90.4385,06 Wyer St,Private hospital,Hospital,Dental,0,,,4,,,,,,,,,,,
67,Islami General Hospital and Diagnostic Center,,,23.70814,90.4385,62 63 manipur shekh Kamal road Kamal Soroni Rd,Private hospital,Diagnostic,Diagnostic,0,,,4.3,,,,,,,,,,,
68,Arafat General Hospital & Diagnostic Center,,,23.70814,90.4385,81/B-2 Hosni Dalal Road Chankharpool,Private hospital,Diagnostic,Diagnostic,0,,,5,,,,,,,,,,,
69,People's Life Digonistic Center,,,23.70872,90.4972,PCMH+4MV,Private hospital,Diagnostic,all,0,,,3,,,,,,,,,,,
70,South Asia Eye Hospital,,https://maps.gstatic.com/consumer/images/icons/1x/ic_directions_gm_blue_24px.png,23.70894,90.4345,PC5M+GM5 Dhaka - Mawa Hwy,Private hospital,Hospital,Eye,0,,,5,,,,,,,,,,,
71,Al Baraka Diagnostic Complex ltd,,https://maps.gstatic.com/consumer/images/icons/1x/ic_directions_gm_blue_24px.png,23.70905,90.4301,PC5M+W68 Dhaka - Sylhet Hwy,Private hospital,Diagnostic,Diagnostic,0,,,3.6,,,,,,,,,,,
72,Bismillah Dental Home,,,23.70918,90.429,161 Lake Circus (Abed Dhali Road),Private hospital,Clinic,Dental,0,,,5,,,,,,,,,,,
73,New Padma Lab,,_,23.70918,90.4344,Kazi Tower 123/1/2 South Jatrabari Dhaka 1204 Dhaka Bangladesh ???? 1204 Bangladesh,Private hospital,Diagnostic,all,0,,_,_,0,0,0,0,1,1,1,0,0,0,
74,Medicine Pius,,https://maps.gstatic.com/consumer/images/icons/1x/ic_directions_gm_blue_24px.png,23.70931,90.3867,QCRG+X3M,Private hospital,Clinic,all,0,,,,,,,,,,,,,,
75,Supreme Medical Services Limited,,https://maps.gstatic.com/consumer/images/icons/1x/ic_directions_gm_blue_24px.png,23.70933,90.432,38 Shahid Faroque Rd,Private hospital,Clinic,all,0,,,3,,,,,,,,,,,
76,Medicom General Hospital,,https://maps.gstatic.com/consumer/images/icons/1x/ic_directions_gm_blue_24px.png,23.70944,90.4294,Mona Tower Shahid Faroque Rd,Government hospital,Hospital,all,0,,,3.6,,,,,,,,,,,
77,Medi Hope General Hospital,,https://ssl.gstatic.com/local/servicebusiness/default_user.png,23.70944,90.4294,PF79+2W3,Private hospital,Hospital,all,0,,,3.9,,,,,,,,,,,
78,SAMAKAL DIAGNOSTIC COMPLEX,01727-427045,_,23.70957,90.4324,36/A Shahid Faruqe Road Dhaka 1204 Bangladesh,Private hospital,Diagnostic,Diagnostic,0,,3,_,0,0,0,0,1,1,0,0,0,0,
79,BIHS General Hospital,,http://www.bihsh.org.bd/,23.70957,90.4328,125 1 Darus Salam Rd,Private hospital,Hospital,all,0,,,4.1,,,,,,,,,,,
80,Prime General Hospital,,,23.70957,90.4328,W97W+68C Dhaka - Mymensingh Hwy,Private hospital,Hospital,all,0,,,3.3,,,,,,,,,,,
81,Ibrahim General Hospital,,http://www.agbf.webs.com/,23.70957,90.4328,House 42 Rd 10/A,Government hospital,Hospital,all,0,,,4.8,,,,,,,,,,,
82,Jatrabari General Hospital Ltd,,https://maps.gstatic.com/consumer/images/icons/1x/ic_directions_gm_blue_24px.png,23.70957,90.4328,PC5Q+698,Private hospital,Hospital,all,0,,,4.5,,,,,,,,,,,
83,Al-Karim General Hospital Ltd,,https://maps.gstatic.com/consumer/images/icons/1x/ic_directions_gm_blue_24px.png,23.70957,90.4328,PC7J+68Q,Private hospital,Hospital,all,0,,,3.9,,,,,,,,,,,
84,BIRDEM General Hospital,,https://www.gstatic.com/images/icons/material/system_gm/1x/public_gm_blue_24dp.png,23.70957,90.4328,122 Kazi Nazrul Islam Ave,Government hospital,Hospital,Diabetice,0,,,4.3,,,,,,,,,,,
85,Shaheed Khalek-Ibrahim General Hospital,,https://ssl.gstatic.com/local/servicebusiness/default_user.png,23.70957,90.4328,4 1 Rankin St,Private hospital,Hospital,all,0,,,4.1,,,,,,,,,,,
86,Al-Karim General Hospital Limited,,https://ssl.gstatic.com/local/servicebusiness/default_user.png,23.70957,90.4328,Haji Borhanuddin tower 17/A Uttar,Government hospital,Hospital,all,0,,,4.3,,,,,,,,,,,
87,Arimo General Hospital,,,23.70957,90.4328,Plot A/8 Demra Road Basherpul,Government hospital,Hospital,all,0,,,4,,,,,,,,,,,
88,BIRDEM General Hospital 2 (Child and Mother),,https://ssl.gstatic.com/local/servicebusiness/default_user.png,23.70957,90.4328,1/A Segun Bagicha Rd,Government hospital,Hospital,mother and chield,0,,,4.1,,,,,,,,,,,
89,M. Rahman Medical & Diagnostic Center,,https://www.gstatic.com/images/icons/material/system_gm/1x/public_gm_blue_24dp.png,23.70962,90.4264,Closed,Private hospital,Diagnostic,Diagnostic,0,,,,,,,,,,,,,,
90,MADINA MEDICAL AND DIAGNOSTIC CENTER,01711-661806,_,23.70964,90.4265,34 Doyagonj New Rd Dhaka 1204 Bangladesh,Private hospital,Diagnostic,Diagnostic,0,,3.3,3.6,0,0,0,0,1,1,1,0,0,0,
91,Safwan General Hospital & Diagnostic Center,,_,23.70968,90.3673,P958+VWG Dhaka Bangladesh,Private hospital,Diagnostic,Diagnostic,0,,_,_,0,0,0,0,1,1,1,0,0,0,
92,Cardio Care Specialized and General Hospital,,http://cardiocarebd.com/,23.71019,90.4242,House no: 88 38 Road Sonargaon Janapath,Government hospital,Hospital,all,0,,,,,,,,,,,,,,
93,Meccaa Medina General Hospital,,,23.71019,90.4242,Block-B 21/14 Babar roadhaka,Government hospital,Hospital,all,0,,,5,,,,,,,,,,,
94,Medi Bangla General Hospital,,https://maps.gstatic.com/consumer/images/icons/1x/ic_directions_gm_blue_24px.png,23.71019,90.4242,PC4J+7W5 New Road,Private hospital,Hospital,all,0,,,4,,,,,,,,,,,
95,SUSPharma,,,23.71041,90.3809,·,Private hospital,Clinic,all,0,,,,,,,,,,,,,,
96,Jatrabari Eye Hospital,,https://maps.gstatic.com/consumer/images/icons/1x/ic_directions_gm_blue_24px.png,23.7106,90.4271,Mona Tower 16/A Sahid Muktijoddha Faruk Iqbal And Taslim Rd,Private hospital,Hospital,Eye,0,,,4,,,,,,,,,,,
97,BRAC TB office,,,23.71068,90.4242,26-1 Mirpur Rd,Private hospital,Hospital,tb,0,,,,,,,,,,,,,,
98,DR. AZMAL HOSPITAL LTD.,,http://azmalhospital.com/,23.71102,90.4017,Plot 5 Rd No. 4,Private hospital,Hospital,all,0,,,3.8,,,,,,,,,,,
99,Alpha Hospital LTD.,,,23.71102,90.4017,17 D.C RAY Rd,Private hospital,Hospital,all,0,,,4.3,,,,,,,,,,,
100,BRB Hospitals Limited,,http://www.brbhospital.com/,23.71109,90.4841,77/A Panthapath,Private hospital,Hospital,all,0,,,3.8,,,,,,,,,,,
101,Uttara Mother and Child Hospital limited,,,23.71109,90.4841,Opposite of Shin shin japan Hospital House 36 Gareeb-e-Nawaz Ave,Private hospital,Hospital,all,0,,,3.4,,,,,,,,,,,
102,Dhaka Paediatric-Neonatal & General Hospital Limited,,,23.71109,90.4841,Rangs Nilu Square House# 75 Road no# 5/A Satmasjid Road,Private hospital,Hospital,all,0,,,4,,,,,,,,,,,
103,Long life Hospital Limited,,http://www.longlifehospital.org/,23.71109,90.4841,Q92H+3P7 Mirpur Rd,Private hospital,Hospital,all,0,,,3.8,,,,,,,,,,,
104,New Life Hospital Limited,,https://new-life-hospital-limited.business.site/?utm_source=gmb&utm_medium=referral,23.71109,90.4841,25/A Green Rd,Private hospital,Hospital,all,0,,,3.4,,,,,,,,,,,
105,Baridhara General Hospital Limited,,https://www.gstatic.com/images/icons/material/system_gm/1x/public_gm_blue_24dp.png,23.71109,90.4841,Yes,Private hospital,Hospital,all,0,,,5,,,,,,,,,,,
106,Dr. Fazlul Haque Colorectal Hospital Limited,,https://www.gstatic.com/images/icons/material/system_gm/1x/public_gm_blue_24dp.png,23.71109,90.4841,726/A Satmasjid Road,Private hospital,Hospital,all,0,,,4,,,,,,,,,,,
107,Remedy Care Hospital Limited,,,23.71109,90.4841,Muktijuddha Tower,Private hospital,Hospital,all,0,,,3.5,,,,,,,,,,,
108,Ahmed Medical Center Limited,,,23.71178,90.402,71/1 Satmasjid Road Sankar Bus Stand er Kache,Private hospital,Diagnostic,all,0,,,3.8,,,,,,,,,,,
109,Delta Medical Center Ltd,,,23.71178,90.402,27 Road 01,Private hospital,Clinic,all,0,,,4.7,,,,,,,,,,,
110,Bgmea Medical Center,,,23.71178,90.402,House-16/A Road-16 Sector-4 Uttara,Private hospital,Clinic,all,0,,,3.1,,,,,,,,,,,
111,M/S Jakir Medical center,,,23.71178,90.402,V9MC+8C7 Unnamed Road,Private hospital,Clinic,all,0,,,,,,,,,,,,,,
112,Tulip Medical Center,,https://maps.gstatic.com/consumer/images/icons/1x/ic_directions_gm_blue_24px.png,23.71178,90.402,90/A premier plaza north,Private hospital,Clinic,all,0,,,3.7,,,,,,,,,,,
113,Quest Medical Centre,,https://maps.gstatic.com/consumer/images/icons/1x/ic_directions_gm_blue_24px.png,23.71178,90.402,GA-2 1 Bir Uttam Rafiqul Islam Ave,Private hospital,Clinic,all,0,,,5,,,,,,,,,,,
114,ANAS MEDICAL CENTER,,https://www.gstatic.com/images/icons/material/system_gm/1x/public_gm_blue_24dp.png,23.71178,90.402,Closed,Private hospital,Clinic,all,0,,,5,,,,,,,,,,,
115,Rainbow Hearts Madical Centre,,https://www.rhmcbd.com/,23.71178,90.402,House No # 79 (2nd floor Block # J Airport Road Banani,Private hospital,Diagnostic,Heart,0,,,3.9,,,,,,,,,,,
116,PULSE MEDICAL CENTRE LTD.,,http://pulsemedicalbd.com/,23.71178,90.402,Block B House 111 Rd Number 4,Private hospital,Clinic,all,0,,,2.5,,,,,,,,,,,
117,GREENLAND MEDICAL CENTRE LTD,,http://greenlandmedicalltd.com/,23.71178,90.402,1 Gulshan Ave,Private hospital,Clinic,all,0,,,4,,,,,,,,,,,
118,Makkha Medical Centre,,http://www.makkhamedicalbd.com/,23.71178,90.402,28 & 30 Ahmed Tower level 3 Kamal Ataturk Ave,Private hospital,Clinic,all,0,,,4,,,,,,,,,,,
119,Star Cure Medical Centre,,,23.71178,90.402,10 Dhaka - Mymensingh Hwy,Private hospital,Clinic,all,0,,,3.7,,,,,,,,,,,
120,Dynamic Medical Centre,,,23.71178,90.402,Tower Flat 12/B Rupsha Plot 07 Rd No 17,Private hospital,Clinic,all,0,,,,,,,,,,,,,,
121,MUSCAT MEDICAL CENTER,,,23.71178,90.402,H/101 Kakoli Dhaka - Mymensingh Hwy,Private hospital,Clinic,all,0,,,1.8,,,,,,,,,,,
122,CONFIDENCE MEDICAL CENTRE,,https://confidencemedicalcenter.com/,23.71178,90.402,191/1 1208 Bir Uttam Mir Shawkat Sarak,Private hospital,Clinic,Dental,0,,,,,,,,,,,,,,
123,BUET Medical Center,,,23.71178,90.402,BUET Campus Health Complex Fuller Road,Private hospital,Clinic,all,0,,,4.4,,,,,,,,,,,
124,Al-Arafat Hospital,01723-904035,_,23.71203,90.4014,39 Mitford Rd Dhaka Bangladesh,Private hospital,Hospital,all,0,,3,3.2,0,0,0,0,1,1,1,0,0,0,
125,Sir Salimullah Medical College,,,23.71223,90.4009,Mitford Rd,Government hospital,Medical college hospital,all,1,,,4.2,,,,,,,,,,,
126,DOCTORS CLINIC & HOSPITAL,01977-373888,_,23.71225,90.4011,35 No Mitford Rd Dhaka 1100 Bangladesh,Private hospital,Hospital,all,0,,_,3,0,0,0,0,1,1,1,0,0,0,
127,Doctors Lab & Hospital,,https://maps.gstatic.com/consumer/images/icons/1x/ic_directions_gm_blue_24px.png,23.7123,90.4009,Dhaka - Demra Hwy,Private hospital,Hospital,all,0,,,4.2,,,,,,,,,,,
128,Fair Health Medical Center,,,23.71231,90.4895,P9CX+XWQ Nazimuddin Rd,Private hospital,Diagnostic,all,0,,,4,,,,,,,,,,,
129,Royal Care & Surgical Hospital,,,23.71232,90.4007,P9FX+CV5 Hussaini Dalan Rd,Private hospital,Hospital,all,0,,,3.5,,,,,,,,,,,
130,Hossainia Dental care,,,23.71255,90.4187,RC47+3MJ কিশোরগঞ্জ - করিমগঞ্জ সড়ক,Private hospital,Clinic,Dental,0,,,,,,,,,,,,,,
131,Dr.kulsom,,,23.71302,90.416,IBN Sina Medical College and Hospital,Private hospital,Clinic,all,0,,,,,,,,,,,,,,
132,CREDIT DIABETES & CARDIAC CENTER,,,23.71323,90.3996,VCC3+CQ7 Isakha Ave,Private hospital,Clinic,Diabetice,0,,,5,,,,,,,,,,,
133,Prarthona Rehabilitation center,,,23.71323,90.3996,330/4/ka/0 ঢাকা,Private hospital,Hospital,all,0,,,5,,,,,,,,,,,
134,Senior Citizen Hospital - Baridhara,,http://seniorcitizenhospital.com/,23.71325,90.3996,Senior Citizen Hospital House# 8 Road# 8 Baridhara Block# J Dhaka,Private hospital,Hospital,all,0,,,4.5,,,,,,,,,,,
135,Monowara Hospital Private Limited,,https://www.monowarahospital.com.bd/,23.71325,90.3996,54 Siddheswari Rd,Private hospital,Hospital,all,0,,,3.9,,,,,,,,,,,
136,CCU CMH Dhaka,,,23.71325,90.3996,R97X+985 C.M.H,Private hospital,Hospital,all,0,,,5,,,,,,,,,,,
137,UTPS,,,23.71325,90.3996,House 11 Road No 11,Private hospital,Hospital,all,0,,,3.9,,,,,,,,,,,
138,A.R.S,,,23.71325,90.3996,8 Road-04,Private hospital,Clinic,all,0,,,2,,,,,,,,,,,
139,Sunayana,,,23.71325,90.3996,23 Sonargaon Janapath,Private hospital,Clinic,all,0,,,3,,,,,,,,,,,
140,Dr. Khurshid Jahan,,,23.71325,90.3996,20 Rd 13,Private hospital,Clinic,all,0,,,,,,,,,,,,,,
142,HHRIDS,,http://www.hhrids.com/,23.71325,90.3996,V9CX+X8Q Road-32,Private hospital,Hospital,all,0,,,4.5,,,,,,,,,,,
143,QuickMed,,http://quicktelemed.com/,23.71325,90.3996,House-38 Gareeb-e-Nawaz Ave,Private hospital,Clinic,all,0,,,,,,,,,,,,,,
144,The liver centre,,,23.71325,90.3996,Dhanmondi 8/A Dhaka,Private hospital,Clinic,all,0,,,3.6,,,,,,,,,,,
145,American Center of Regenerative Health,,http://acrhbd.com/,23.71325,90.3996,House 8/A 12 Razzaque Villa Ka 14 Dhanmondi 13,Private hospital,Clinic,all,0,,,4.2,,,,,,,,,,,
146,SsHealthcarebd,,,23.71325,90.3996,Concept Tower Green Rd,Private hospital,Clinic,all,0,,,,,,,,,,,,,,
147,Ashiq spelalista Hospital,,,23.71325,90.3996,Q9F8+6R3,Private hospital,Hospital,all,0,,,,,,,,,,,,,,
148,Hia,,https://maps.gstatic.com/consumer/images/icons/1x/ic_directions_gm_blue_24px.png,23.71325,90.3996,Baridhara J Block,Private hospital,Clinic,all,0,,,,,,,,,,,,,,
149,Asarunnesa Memorial Hospital,,https://maps.gstatic.com/consumer/images/icons/1x/ic_directions_gm_blue_24px.png,23.71325,90.3996,QFW7+Q3H Mogardia Satarkul road Uttar Badda,Private hospital,Hospital,all,0,,,5,,,,,,,,,,,
150,Upazila Health Complex,,https://maps.gstatic.com/consumer/images/icons/1x/ic_directions_gm_blue_24px.png,23.71325,90.3996,RC66+4XQ,Government hospital,Clinic,all,0,,,,,,,,,,,,,,
151,NIDCH,,https://www.gstatic.com/images/icons/material/system_gm/1x/public_gm_blue_24dp.png,23.71325,90.3996,Yes,Government hospital,Clinic,all,0,,,4.2,,,,,,,,,,,
152,RAHETID,,,23.71325,90.3996,C/A Zahed Plaza 3rd Floor 30 Gulshan North Ave,Government hospital,Hospital,all,0,,,4.3,,,,,,,,,,,
153,Dhaka Infectious Diseases Hospital,,http://facilityregistry.dghs.gov.bd/org_profile.php?org_code=10000070,23.71325,90.3996,,Private hospital,Hospital,all,0,,,4.2,,,,,,,,,,,
154,SA ATIF,,,23.71325,90.3996,Mohakhali Dhaka 7TALA,Private hospital,Clinic,all,0,,,,,,,,,,,,,,
155,Kustho Niyontron Institute & Hospital,,,23.71325,90.3996,QCH5+RJX TB Gate Rd,Government hospital,Hospital,tb,0,,,3.7,,,,,,,,,,,
156,ICVB,,,23.71325,90.3996,Q9GX+GV9 icddr'b,Private hospital,Clinic,all,0,,,,,,,,,,,,,,
157,7 TALA,,,23.71325,90.3996,QCH4+9GW,Private hospital,Clinic,all,0,,,5,,,,,,,,,,,
158,C/A,,,23.71325,90.3996,QCH3+PRR,Private hospital,Clinic,all,0,,,5,,,,,,,,,,,
159,Briddhi,,http://briddhi.xyz/,23.71325,90.3996,4th Floor house 429 Rd 30,Government hospital,Clinic,mother and chield,0,,,,,,,,,,,,,,
160,DNCC Dedicated Covid-19 Hospital,,http://dncc-dch.gov.bd/,23.71325,90.3996,Shaheed Tajuddin Ahmed Ave,Private hospital,Hospital,all,0,,,,,,,,,,,,,,
161,Ad akher ali,,,23.71325,90.3996,80 Shaheed Tajuddin Ahmed Avenue Dhaka 1208 Bangladesh,Private hospital,Clinic,all,0,,,,,,,,,,,,,,
162,Dr. Nurul Islam Hospital,,,23.71325,90.3996,Mirpur 2 no Road Dhaka,Private hospital,Hospital,all,0,,,5,,,,,,,,,,,
163,CKD & Urology Hospital ( ICU & NEPHROLOGY UNIT),,https://maps.gstatic.com/consumer/images/icons/1x/ic_directions_gm_blue_24px.png,23.71325,90.3996,29 Road No. 3,Private hospital,Hospital,all,0,,,3.9,,,,,,,,,,,
164,Government Employee Hospital,,https://ssl.gstatic.com/local/servicebusiness/default_user.png,23.71325,90.3996,Government Staff Hospital College Rd,Government hospital,Hospital,all,0,,,4.3,,,,,,,,,,,
165,Zadie,,,23.71325,90.3996,234 Nawabpur Rd,Private hospital,Clinic,all,0,,,,,,,,,,,,,,
166,F.A. Memorial Hospital,,,23.71325,90.3996,41/3 B Block Rd No. 1,Private hospital,Hospital,all,0,,,4.8,,,,,,,,,,,
167,Rojob House,,,23.71325,90.3996,Keari Zannat House # 713 Rd No. 10,Private hospital,Clinic,all,0,,,,,,,,,,,,,,
168,NEW DHAKA MODERN CLINIC,02-57313359,https://www.newdhakamodernclinic.com/,23.71337,90.4012,4D.C.Roy Road Mitford Rd ???? Bangladesh,Private hospital,Clinic,all,0,,3,4.1,0,0,0,0,1,1,1,0,0,0,https://www.newdhakamodernclinic.com/
169,Popular Diagnostic Center Ltd. (English Road),09666 78780910636,www.populardiagnostic.com,23.71358,90.411,2 ????? ??? Dhaka Bangladesh,Private hospital,Diagnostic,Diagnostic,0,,3.2,3.6,0,0,0,0,1,1,1,0,0,0,www.populardiagnostic.com
170,Dolfin Hospital & Infertility Centre (DHIC) Kamrangirchar,,https://www.dolfinhospitalbd.com/,23.71365,90.3713,Kathpotti কা� পট্টি Kamrangirchar,Private hospital,Hospital,all,0,,,5,,,,,,,,,,,
171,Lab Asia Diagnostic Centre,,,23.71365,90.4122,QCF4+V5H,Private hospital,Diagnostic,Diagnostic,0,,,,,,,,,,,,,,
172,Dhaka Unique Hospital,,,23.71378,90.4056,31 Nawab Eusuf Rd,Private hospital,Hospital,all,0,,,,,,,,,,,,,,
173,KC Hospital & Diagnostic Center,,,23.71405,90.4693,2620 KC Plaza Noapara Shahid Latif Rd,Private hospital,Diagnostic,Diagnostic,0,,,3.6,,,,,,,,,,,
174,Shefa Hospital & Diagnostic Center,,,23.71405,90.4693,Q9F7+GWX Khilji Rd,Private hospital,Diagnostic,Diagnostic,0,,,4.3,,,,,,,,,,,
175,Safa Marwa Hospital & Diagonstic Centre,,https://www.gstatic.com/images/icons/material/system_gm/1x/public_gm_blue_24dp.png,23.71405,90.4693,·,Private hospital,Hospital,all,0,,,4.6,,,,,,,,,,,
176,Hi-Care General Hospital Ltd.,,http://www.hicarebd.com/,23.71491,90.4651,House # 24 & 26 Rd N- 17 Lake Dr Rd,Government hospital,Hospital,all,0,,,3.1,,,,,,,,,,,
177,Medi Fair General Hospital,,,23.71491,90.4651,21/14 johori mohollah Babar Rd,Private hospital,Hospital,all,0,,,5,,,,,,,,,,,
178,Salman Group Ltd.,,,23.71521,90.4013,PCJJ+R22 Form Mugda Main Road Mugda Manda Road,Private hospital,Clinic,all,0,,,,,,,,,,,,,,
179,Royal General Hospital Ltd.,,https://ssl.gstatic.com/local/servicebusiness/default_user.png,23.71521,90.4969,PF22+957,Private hospital,Hospital,all,0,,,3.9,,,,,,,,,,,
180,DAKTER SEBA,,,23.71574,90.4698,1 Rd No. 1,Private hospital,Clinic,all,0,,,,,,,,,,,,,,
181,Baridhara physiotherapy center (B.G.H),,https://baridhara-physiotherapy-center-bgh.business.site/?utm_source=gmb&utm_medium=referral,23.71591,90.4689,Ka 51/1 Progoti Sharoni Nadda Dhaka 1212 Bangladesh Dhaka,Private hospital,Hospital,all,0,,,5,,,,,,,,,,,
182,Salauddin Specialized Hospital Ltd.,#ERROR!,www.sshlbd.com,23.71693,90.4201,44/A Hatkhola Rd Dhaka 1203 Bangladesh,Private hospital,Hospital,all,0,120,3.4,4.3,1,1,1,1,1,1,1,0,0,0,www.sshlbd.com
183,DESH DIAGNOSTIC & MEDICAL CENTRE,,_,23.71706,90.3896,34 Shaista Khan Rd Dhaka Bangladesh,Private hospital,Diagnostic,Diagnostic,0,,_,_,0,0,0,0,1,1,1,0,0,0,
184,Asia Medical Services,01610-552470,_,23.7175,90.49,32 Sheikh BhabanHaji Nagar68 no wordStaff quaterDemraDhaka Dhaka City Dhaka 1361 Bangladesh,Private hospital,Clinic,all,0,,3,3,0,0,0,0,1,1,1,0,0,0,
185,Medi Health Central Hospital & Digital Diagnostic Center,,https://ssl.gstatic.com/local/servicebusiness/default_user.png,23.71761,90.4747,PF9F+3Q9 Basherpul Bus Stand Dhaka - Demra Hwy,Private hospital,Diagnostic,Diagnostic,0,,,3.8,,,,,,,,,,,
186,Ar-Raha Hospital & Diagnostics Ltd.,,,23.71762,90.4913,1230 Hajj Camp Ashiyan City Rd,Private hospital,Diagnostic,Diagnostic,0,,,4.2,,,,,,,,,,,
187,Noble Care Hospital & Diagnostic Ltd.,,,23.71762,90.4913,246 246 W Agargaon,Private hospital,Diagnostic,Diagnostic,0,,,4.5,,,,,,,,,,,
188,IBN SINA DIAGNOSTIC CENTER LALBAGH LTD,10615 +88 09610010615,ibnsinatrust.com,23.71818,90.3866,Lalbagh Dhaka Bangladesh,Private hospital,Diagnostic,Diagnostic,0,,3.2,4.2,1,1,1,1,1,1,1,1,1,1,ibnsinatrust.com
189,Holy Aid Hospital Limited,02-750 11 44 01955 99 00 55 01955 99 77 55,https://www.holyaidhospitalltd.com/,23.71897,90.4906,Lake View Sarker Plaza Hazinagar Sarulia Demra ???? 1361 Bangladesh,Private hospital,Hospital,all,0,,3,3.5,0,0,0,0,1,1,1,0,0,0,https://www.holyaidhospitalltd.com/
190,Digital Fast Aid Diagnostic Center,01780-888444,_,23.71928,90.373,Munshihati Dhaka Bangladesh,Private hospital,Diagnostic,Diagnostic,0,,3.4,3.8,0,0,0,0,1,1,1,0,0,0,
191,Dhaka Healthcare Systems Ltd.,,,23.71939,90.4164,House # 07 Road # 08  Madani Avenue baridhara j block Rd,Private hospital,Hospital,all,0,,,4,,,,,,,,,,,
192,Euro Healthcare Ltd,,http://eurohealthcareltd.com/,23.71939,90.4164,House-7 Road-14/C,Private hospital,Clinic,all,0,,,,,,,,,,,,,,
193,Active Healthcare,,https://quicktelemed.com/,23.71939,90.4164,38 Gareeb-e-Nawaz Ave,Private hospital,Clinic,all,0,,,,,,,,,,,,,,
194,supermax healthcare limited,,,23.71939,90.4164,Genetic Plaza(5th Floor) House No. 16 Road: 16 27 Old,Private hospital,Clinic,all,0,,,5,,,,,,,,,,,
195,Shurjer Hashi Clinic Shahjadpur Dhaka,,https://maps.gstatic.com/consumer/images/icons/1x/ic_directions_gm_blue_24px.png,23.71973,90.4282,Ayasa General Store (1st Floor) Gha-1076Sahajadpur Vatara 1212,Private hospital,Clinic,all,0,,,4.7,,,,,,,,,,,
196,MONOWARA ORTHOPEDIC AND GENERAL HOSPITAL,01713-143152,_,23.71981,90.4288,35/7 1 Kamalapur Rd Dhaka 1203 Bangladesh,Private hospital,Hospital,Orthopedic,0,,3,3.8,0,0,0,0,1,1,1,0,0,0,
197,Md Rezaya Rabbi Reza,,,23.71984,90.3731,Shankar Bus Stand,Private hospital,Clinic,all,0,,,,,,,,,,,,,,
198,Metro Degital Diagnostic and Medical Center,01634-046559,https://www.bizsouthasia.com/BD/metro-digital-diagnostic-medical-center-01634-046559,23.71993,90.3738,Iqbal Tower East Rasulpur Main Road Adjacent Rony Market Kamrangirchar P99F+XGG Dhaka 1211 Bangladesh,Private hospital,Diagnostic,Diagnostic,0,,3,3,0,0,0,0,1,1,1,0,0,0,https://www.bizsouthasia.com/BD/metro-digital-diagnostic-medical-center-01634-046559
199,Trauma Center & AO Orthopaedic Hospital (Pvt.) Ltd.,,http://www.traumacenter.com.bd/,23.71996,90.4288,22 8/A Mirpur Rd,Private hospital,Hospital,Orthopedic,0,,,3.9,,,,,,,,,,,
200,Nurjahan orthopedics and General Hospital,,,23.71996,90.4288,Rupayan Shelford 23/6 Mirpur Rd,Private hospital,Hospital,Orthopedic,0,,,3.6,,,,,,,,,,,
201,SMB Pharma,,,23.72023,90.3812,House-14Block-BTarartech mosjid,Private hospital,Clinic,all,0,,,,,,,,,,,,,,
202,Our Health Aid Hospital Limited,01978-804888,https://health-aid-hospital.business.site/,23.72143,90.3881,50 Dhakeshwari Rd Lalbagh Rd Dhaka 1205 Bangladesh,Private hospital,Hospital,all,0,,3,3.1,0,0,0,0,1,1,1,0,0,0,https://health-aid-hospital.business.site/
203,Dhaka Health Care Hospital,,,23.72144,90.3881,Muktijoddha Tower-1(4th Floor) College Gate,Private hospital,Hospital,all,0,,,,,,,,,,,,,,
204,Holy Health Hospital,,https://maps.gstatic.com/consumer/images/icons/1x/ic_directions_gm_blue_24px.png,23.72144,90.3881,R9CW+263,Private hospital,Hospital,all,0,,,3.2,,,,,,,,,,,
205,Health Aid Hospital Limited,,,23.72144,90.3881,50 Dhakeshwari Rd Lalbagh Rd,Private hospital,Hospital,all,0,,,3.1,,,,,,,,,,,
206,Ever Health Hospital Ltd,,,23.72144,90.3881,45 Mitford Road Mitford Tower Dhaka-1100 Dhaka,Private hospital,Hospital,all,0,,,5,,,,,,,,,,,
207,Pure Scientific Diagnostic Services Ltd.,01884-698443,_,23.72251,90.3982,P9FX+275 Hussaini Dalan Rd Dhaka Bangladesh,Private hospital,Diagnostic,Diagnostic,0,,_,_,0,0,0,0,0,0,0,0,0,0,
208,Chankharpul General Hospital,,https://ssl.gstatic.com/local/servicebusiness/default_user.png,23.72332,90.4012,PCF2+C8M Nawab Katra Rd,Government hospital,Hospital,all,0,,,3.3,,,,,,,,,,,
209,Chankharpul CDIC,,,23.72383,90.4003,P9FW+Q8J,Private hospital,Clinic,all,0,,,3.7,,,,,,,,,,,
210,Safa Diagnostic Center,,,23.72408,90.3872,QCV2+F7C,Private hospital,Diagnostic,Diagnostic,0,,,,,,,,,,,,,,
211,Patowary Diagnostic Centre,,,23.72408,90.3872,Niketon Bazar Gate Outside of Niketon 5th Gate Bir Uttam Mir Shawkat Sarak,Private hospital,Diagnostic,Diagnostic,0,,,4,,,,,,,,,,,
212,Mirpur General Hospital And Diagnostic Centre Mirpur-12,,,23.72408,90.3872,14/11 Mity Plaza Mirpur-12 Dhaka,Private hospital,Diagnostic,Diagnostic,0,,,4.5,,,,,,,,,,,
213,Modern Health Care Ltd,,_,23.72436,90.3959,18/1 (1st floor) Medical moor 1211 ???? Bangladesh,Private hospital,Clinic,all,0,,_,_,0,0,0,0,1,1,1,0,0,0,
214,Matador Diagnostic & Wellness Center Ltd.,01713-556868,_,23.72489,90.3759,75 Nawabganj Rd Dhaka 1205 Bangladesh,Private hospital,Diagnostic,Diagnostic,0,,3.5,4,0,0,0,0,1,1,1,0,0,0,
215,Confirm Diagnostic Ltd.,01720-372323,_,23.72589,90.3767,23/B MC Roy Lane Pilkhan Road BGB No1 Gate Dhaka 1211 Bangladesh,Private hospital,Diagnostic,Diagnostic,0,,3,3,0,0,0,0,1,1,1,0,0,0,
216,Dhaka Medical College Hospital,,http://www.dmc.gov.bd/,23.7277,90.3992,Secretariat Rd,Government hospital,Medical college hospital,all,1,,,4.3,,,,,,,,,,,
217,Dhaka Imperial Hospital,,http://imperialhospitalbd.org/,23.7277,90.3992,Auchpara,Private hospital,Hospital,all,0,,,3.6,,,,,,,,,,,
218,AZIMPUR DIAGNOSTIC & CONSULTATION CENTRE,01826-660777,_,23.72859,90.3854,Azimpur Dhaka Bangladesh,Private hospital,Diagnostic,Diagnostic,0,,_,_,0,0,0,0,0,0,0,0,0,0,
219,Ever Green,,http://evergreenmedicalbd.com/,23.7287,90.3897,2nd & 3rd floor The Flamenco 32 Dhaka - Mymensingh Hwy,Private hospital,Clinic,all,0,,,,,,,,,,,,,,
220,Ibn Sina medical college Dhaka,,,23.72883,90.4344,·,Private hospital,Medical college hospital,all,1,,,4.4,,,,,,,,,,,
221,Islami Bank Central Hospital Kakrail,,https://www.gstatic.com/images/icons/material/system_gm/1x/public_gm_blue_24dp.png,23.72904,90.4152,30 Islami Bank Hospital Bhaban VIP Rd,Private hospital,Hospital,all,0,,,4,,,,,,,,,,,
222,Islami Bank Hospital Motijheel,,https://ssl.gstatic.com/local/servicebusiness/default_user.png,23.72919,90.417,24/B Outer Circular Rd,Private hospital,Hospital,all,0,,,4,,,,,,,,,,,
223,Dhaka Mohanagar General Hospital,,http://www.dhakasouthcity.gov.bd/,23.72931,90.4304,PC74+J45,Private hospital,Hospital,all,0,,,3.8,,,,,,,,,,,
224,Monira General Hospital NICU PICU,,,23.72931,90.4304,105/F W Agargaon,Private hospital,Hospital,all,0,,,4.1,,,,,,,,,,,
225,Infertility Solution By Dr. Md Rafiqul Islam Bhuiyan,,https://maps.gstatic.com/consumer/images/icons/1x/ic_directions_gm_blue_24px.png,23.72933,90.4301,level 3-4 Plot 10 Block E,Private hospital,Clinic,Fertility ,0,,,4.5,,,,,,,,,,,
226,Kalatiya central hospital (pvt) Ltd.,01718-489749,_,23.73024,90.278,1 Kholamora Hazratpur Road Kalatiya 1313 Bangladesh,Private hospital,Hospital,all,0,,3,3.6,0,0,0,0,1,1,1,0,0,0,
227,EUREKA DIAGNOSTIC AND MEDICAL CENTRE,,_,23.73121,90.416,37/2 1st Floor Zaman Tower Kamalapur Box Culvert Rd ???? 1000 Bangladesh,Private hospital,Diagnostic,Diagnostic,0,,_,_,0,0,0,0,1,1,1,0,0,0,
228,Modern Diagonistic Center - Dhanmondi,,http://www.akmmc.edu.bd/,23.73174,90.4152,House # 17 Rd No. 8,Private hospital,Diagnostic,Diagnostic,0,,,3.8,,,,,,,,,,,
229,Al-Ghofily Medical Centre,,,23.73194,90.4205,17/A Rd No 17A,Private hospital,Clinic,all,0,,,4.3,,,,,,,,,,,
230,ASIA DIAGNOSTIC & MEDICAL CENTRE LTD.,#ERROR!,www.asiadiagnosticcentre.com,23.73214,90.4204,PCJC+V52 Toyenbee Circular Road Dhaka Bangladesh,Private hospital,Diagnostic,Diagnostic,0,,_,_,0,0,0,0,0,0,0,0,0,0,
231,Arabian Medical Center,,https://www.gstatic.com/images/icons/material/system_gm/1x/public_gm_blue_24dp.png,23.73269,90.4154,Closed,Private hospital,Clinic,all,0,,,3.8,,,,,,,,,,,
232,Bangladesh Bank Medical Center Motijheel Dhaka,,,23.73269,90.4155,PCGF+J55 Kamalapur Box Culvert Rd,Private hospital,Clinic,all,0,,,5,,,,,,,,,,,
233,Sunlight Diagnostic Center,01712-205935,_,23.73272,90.4136,111 Naya Paltan Dhaka 1000 Bangladesh,Private hospital,Diagnostic,Diagnostic,0,,3,4.4,0,0,0,0,0,0,0,0,0,0,
234,MODERN DIAGNOSTIC CENTRE LTD.,,_,23.73288,90.4153,PCM8+542 DIT Ave Dhaka Bangladesh,Private hospital,Diagnostic,Diagnostic,0,,_,_,0,0,0,0,1,1,1,0,0,0,
235,MODERN DIAGNOSTIC CENTRE LTD,,_,23.73288,90.4153,PCM8+542 DIT Ave Dhaka Bangladesh,Private hospital,Diagnostic,Diagnostic,0,,_,_,0,0,0,0,1,1,1,0,0,0,
236,MEDINET MEDICAL SERVICES PVT. LIMITED,#ERROR!,https://www.medinetmedical.com/,23.73296,90.4191,2nd Floor Jomidar Place 291 Inner Circular Road Dhaka 1205 Bangladesh,Private hospital,Diagnostic,all,0,,3.2,4,0,0,0,0,1,1,1,0,0,0,https://www.medinetmedical.com/
237,PRIME DIAGNOSTIC LIMITED,01774-814004,https://www.primediagnosticltd.com/,23.733,90.4128,2 Rupayan FPAB Tower Culvert Road Dhaka 1000 Bangladesh,Private hospital,Diagnostic,Diagnostic,0,,3.2,4.2,0,0,1,1,1,1,1,0,0,0,https://www.primediagnosticltd.com/
238,Prime diagnosticlimited,,_,23.733,90.4128,2 Rupayan FPAB Tower Culvert Road Dhaka 1000 Bangladesh,Private hospital,Diagnostic,Diagnostic,0,,_,_,0,0,0,0,1,1,1,0,0,0,
239,Al Jami Diagnostic Centre,#ERROR!,https://www.al-jamidiagnosticcenterbd.com/,23.73322,90.4118,87 Purana Paltan Lane Culvert Road Patan 3rd Floor Tower Dhaka 1000 Bangladesh,Private hospital,Diagnostic,Diagnostic,0,,3,3,0,0,0,0,1,1,1,0,0,0,https://www.al-jamidiagnosticcenterbd.com/
240,Al-Maha Diagnostic Center & Medical Services,,_,23.73378,90.4157,53 3 DIT Ave Dhaka Bangladesh,Private hospital,Diagnostic,Diagnostic,0,,_,_,0,0,0,0,1,1,1,0,0,0,
241,Ship Aichi Medical Service Ltd.,,,23.73462,90.4157,V9VG+PGG,Private hospital,Clinic,all,0,,,4.3,,,,,,,,,,,
242,Malancha Medical Services Ltd.,,https://www.gstatic.com/images/icons/material/system_gm/1x/public_gm_blue_24dp.png,23.73462,90.4157,Closed,Private hospital,Clinic,all,0,,,5,,,,,,,,,,,
243,Medison Medical Services Limited,,https://www.medisonbd.com/,23.73462,90.4157,Rangs Paramount 2 1st Floor House - 11 Road - 17 Block - K,Private hospital,Clinic,all,0,,,4,,,,,,,,,,,
244,Saadiq Medical Services Ltd.,,http://saadiqmedical.com/,23.73462,90.4157,82 2nd floor Mohakhali Tower opposite of Titumir college Dhaka,Private hospital,Clinic,all,0,,,3,,,,,,,,,,,
245,SILMUN DIAGNOSTIC CENTRE,01921-685634,https://silmundiagnosticcenter.com/,23.73494,90.4104,??????? ??????? Naya Paltan Dhaka 1205 Bangladesh,Private hospital,Diagnostic,Diagnostic,0,,_,3,0,0,0,0,1,1,1,0,0,0,https://silmundiagnosticcenter.com/
246,Central Police Hospital,,https://www.gstatic.com/images/icons/material/system_gm/1x/public_gm_blue_24dp.png,23.73537,90.4172,,Private hospital,Hospital,all,0,,,4.5,,,,,,,,,,,
247,Al -Falah Genarel Hospital & Diagnostic Center,,https://ssl.gstatic.com/local/servicebusiness/default_user.png,23.73543,90.4123,109 Maniknagar Rd,Private hospital,Diagnostic,Diagnostic,0,,,2.3,,,,,,,,,,,
248,Uddipan Sastho Sheba Kendro,,https://maps.gstatic.com/consumer/images/icons/1x/ic_directions_gm_blue_24px.png,23.73597,90.4198,9-10 Vhatara Rd,Private hospital,Clinic,all,0,,,5,,,,,,,,,,,
249,ISLAMI BANK SPECIALISED GENERAL HOSPITAL NAYAPALTAN,,_,23.73598,90.4145,71 72 VIP Rd Dhaka 1000 Bangladesh,Private hospital,Hospital,all,0,,_,_,0,0,0,0,1,1,1,0,0,0,
250,THE CLASSIC MEDICAL CENTRE LIMITED.,02-9360479,https://theclassicmedicalcentreltd.com/,23.73613,90.4116,73puraton palton lane Dhaka 106 2 ??????? ??? ???? 1000 Bangladesh,Private hospital,Diagnostic,all,0,,3,3.2,0,0,0,0,1,1,1,0,0,0,https://theclassicmedicalcentreltd.com/
251,PERFECT MEDICARE LTD.,01708-528821,https://perfectmedicare.com.bd/,23.73651,90.4106,40 Bijoy Nagar Ally's Center (7th floor) Dhaka-1000 ???? 1205 Bangladesh,Private hospital,Diagnostic,all,0,,_,_,0,0,0,0,1,1,1,0,0,0,https://perfectmedicare.com.bd/
252,National Ashtma Center,,https://www.gstatic.com/images/icons/material/system_gm/1x/public_gm_blue_24dp.png,23.73663,90.413,Yes,Private hospital,Clinic,all,0,,,4.3,,,,,,,,,,,
253,Medicine Reviewer,,https://maps.gstatic.com/consumer/images/icons/1x/ic_directions_gm_blue_24px.png,23.73674,90.4296,QCFQ+RW7 Shahabuddin morBadda Post office road Dhaka,Private hospital,Clinic,all,0,,,,,,,,,,,,,,
254,Dr A G Khan Diagnostic center,01711-054037,_,23.73712,90.3867,P9PP+RMX ??? Dhaka 1205 Bangladesh,Private hospital,Diagnostic,Diagnostic,0,,3,3,0,0,0,0,0,0,0,0,0,0,
255,Saudi Bangladesh Services Company Medical Check-Up Clinic,01819-237588,https://www.saudibanglamedicalbd.com/index.php?page=9,23.73713,90.4119,Purana Paltan Line Dhaka 1205 Bangladesh,Private hospital,Clinic,all,0,,3.2,3.7,0,0,0,0,1,1,1,0,0,0,https://www.saudibanglamedicalbd.com/index.php?page=9
256,Ifthi Diagnostic & Medical Center,,_,23.73727,90.4113,69/1 ORIANTAL Trade center Purana Paltan Line Dhaka 1205 Bangladesh,Private hospital,Diagnostic,Diagnostic,0,,_,_,0,0,0,0,1,1,1,0,0,0,
257,SKN HEALTH SERVICES,1796436212,https://sknhealthservices.com/,23.73746,90.4075,80 Kakrail Footover Bridge Dhaka 1205 Bangladesh,Private hospital,Diagnostic,all,0,,3,2.8,0,0,0,0,1,1,1,0,0,0,https://sknhealthservices.com/
258,Md Jahir Uddin Akanda,,,23.73749,90.4284,14 Rd -16,Private hospital,Clinic,all,0,,,,,,,,,,,,,,
259,ULTRA CARE HEALTH CENTRE,,_,23.73756,90.4096,28 29 VIP Rd Dhaka 1000 Bangladesh,Private hospital,Diagnostic,all,0,,_,_,0,0,0,0,1,1,1,0,0,0,
260,Islami Bank Central Hospital,01810-000116,ibfbd.org/ibch,23.73757,90.4097,30 Islami Bank Hospital Bhaban ?????? ??? ???? 1205 Bangladesh,Private hospital,Hospital,all,0,,3,4,0,0,0,0,1,1,1,0,0,0,ibfbd.org/ibch
261,Islami Bank Central Hospital.,01810-000116,ibfbd.org/ibch,23.73757,90.4097,30 Islami Bank Hospital Bhaban ?????? ??? ???? 1205 Bangladesh,Private hospital,Hospital,all,0,,3.2,4,0,0,0,0,1,1,1,0,0,0,
262,Islami Bank Hospital Mirpur,,http://www.ibf-bd.org/,23.738,90.422,Plot No 31 Main Road 3 Near Purobi Bus Stop Begum Rokeya sarani Block-D,Private hospital,Hospital,all,0,,,4,,,,,,,,,,,
263,Islami Bank Hospital Mugda Dhaka,,https://maps.gstatic.com/consumer/images/icons/1x/ic_directions_gm_blue_24px.png,23.738,90.422,1 24/B Kamalapur Manda Rd,Private hospital,Hospital,all,0,,,3.7,,,,,,,,,,,
264,jasim medecal center,,,23.73804,90.372,11 Road No 6,Private hospital,Clinic,all,0,,,,,,,,,,,,,,
265,LASER MEDICAL CENTER LTD. - DHANMONDI,9612662244,https://lasermedicalbd.com/,23.73807,90.3772,P9QG+6VC Dhaka 1205 Bangladesh,Private hospital,Hospital,eye,0,,4,3.7,0,0,0,0,1,1,1,0,0,0,https://lasermedicalbd.com/
266,Medicine Admission Room SshmcH,,https://maps.gstatic.com/consumer/images/icons/1x/ic_directions_gm_blue_24px.png,23.73841,90.4428,Q99C+P9Q Unnamed Road,Private hospital,Clinic,all,0,,,,,,,,,,,,,,
267,Panjegana Masjid,,,23.73863,90.3915,V996+J65,Private hospital,Clinic,all,0,,,4.3,,,,,,,,,,,
268,Bangladesh Eye Care Hospital Ltd,,http://www.zigatola.bdeyehospital.com/,23.73877,90.3744,21/3 Zigatola,Private hospital,Hospital,Eye,0,,,4,,,,,,,,,,,
269,Bangladesh Multicare Hospital,,https://maps.gstatic.com/consumer/images/icons/1x/ic_directions_gm_blue_24px.png,23.73877,90.3744,382 DIT Rd,Private hospital,Hospital,all,0,,,4.1,,,,,,,,,,,
270,Bangladesh eye care hospital,,,23.73877,90.3744,PCP7+M24,Private hospital,Hospital,Eye,0,,,,,,,,,,,,,,
271,Dhaka Eye Hospital,,https://bdeyehospital.com/,23.7388,90.4159,5 Mirpur Rd,Private hospital,Hospital,Eye,0,,,4.1,,,,,,,,,,,
272,Organic Health,,,23.73887,90.3801,9 Road-1,Private hospital,Clinic,all,0,,,,,,,,,,,,,,
273,Anowara Medical Services 1,,_,23.73903,90.3814,House 22/B Road No. 2 Dhaka 1205 Bangladesh,Private hospital,Hospital,all,0,,_,_,0,0,0,0,1,1,1,0,0,0,
274,Ibn Sina Medical Imaging Center Zigatola.,,http://www.ibnsinatrust.com/,23.73922,90.3756,House #58 Road 2#A Zigatola Bus Stand,Private hospital,Diagnostic,Diagnostic,0,,,4.2,,,,,,,,,,,
275,Physiotherapy Center,,,23.7395,90.4204,QCH5+QG8 TB Gate Rd,Private hospital,Hospital,all,0,,,5,,,,,,,,,,,
276,Life line physiotherapy Center,,,23.7395,90.4204,QCJ4+667,Private hospital,Hospital,all,0,,,,,,,,,,,,,,
277,Popular Diagnostic Centre Ltd. (Badda),09666 78780910636,https://www.populardiagnostic.com/our-branches/18/Badda,23.73954,90.3822,House # 16 Road No. 2 Dhaka 1205 Bangladesh,Private hospital,Diagnostic,Diagnostic,0,,3.2,3.6,0,0,0,0,1,1,1,0,0,0,https://www.populardiagnostic.com/our-branches/18/Badda
278,Popular Diagnostic Centre Ltd. (Dhanmondi),09666 78780910636,https://www.populardiagnostic.com/our-branches/1/DHANMONDI,23.73954,90.3822,House # 16 Road No. 2 Dhaka 1205 Bangladesh,Private hospital,Diagnostic,Diagnostic,0,,3.2,3.6,0,0,0,0,1,1,1,0,0,0,https://www.populardiagnostic.com/our-branches/1/DHANMONDI
279,Popular Diagnostic Centre Ltd. (Shantinogor-Unit-2),09666 78780910636,www.populardiagnostic.com,23.73954,90.3822,House # 16 Road No. 2 Dhaka 1205 Bangladesh,Private hospital,Diagnostic,Diagnostic,0,,3,3.2,0,0,0,0,1,1,1,0,0,0,www.populardiagnostic.com
280,Popular Diagnostic Centre Ltd.,09666 78780910636,www.populardiagnostic.com,23.73954,90.3822,House # 16 Road No. 2 Dhaka 1205 Bangladesh,Private hospital,Diagnostic,Diagnostic,0,,3.2,3.6,0,0,0,0,1,1,1,0,0,0,www.populardiagnostic.com
281,Islami Bank Hospital Motijheel Bhabon-4,01727-666741,https://specialistdoctorsbd.com/islami-bank-hospital-motijheel/,23.73957,90.4206,24/B Outer Circular Rd Dhaka 1217 Bangladesh,Private hospital,Hospital,all,0,140,3.1,4.2,1,1,1,1,1,1,1,1,1,1,https://specialistdoctorsbd.com/islami-bank-hospital-motijheel/
282,Japan Bangladesh Friendship Hospital Ltd.,,_,23.73961,90.3751,Bus Stand 55 Satmasjid Road Dhaka 1209 Bangladesh,Private hospital,Hospital,all,0,,_,_,0,0,0,0,1,1,1,0,0,0,
283,Kuwait Bangladesh Friendship Government Hospital.,,,23.73963,90.3753,V9GH+8QG,Private hospital,Hospital,all,0,,,,,,,,,,,,,,
284,Japan Bangladesh Friendship Hospital,,https://www.facebook.com/JBFH.org.bd/,23.73963,90.3753,Bus Stand 55 Satmasjid Road,Private hospital,Hospital,all,0,,,3.9,,,,,,,,,,,
285,Dhanmondi AKI laboratory,,,23.73964,90.3872,P9WF+FP6,Private hospital,Hospital,all,0,,,,,,,,,,,,,,
286,Upasham Health Point-Pvt Ltd.,,http://upashamdhaka.com/,23.73996,90.3671,H-14 R-2/B J Block Baridhara Vatara Dhaka-1212 Dhaka,Private hospital,Hospital,all,0,,,3.8,,,,,,,,,,,
287,Thyrocare Consultation Center (Wellness & Aesthetics),,http://www.thyrocarebd.com/,23.74027,90.4333,Tower House 72 Level Rupsha 3 Road No. 11,Private hospital,Clinic,all,0,,,5,,,,,,,,,,,
288,NEW ANAMICA DIAGNOSTIC CENTRE,,_,23.74028,90.434,N Basabo Road# 10 Dhaka Bangladesh,Private hospital,Diagnostic,Diagnostic,0,,_,_,0,0,0,0,1,1,1,0,0,0,
289,Health and Hope Hospital Unit - 2,,,23.74046,90.3742,56/8 West Panthapath,Private hospital,Hospital,all,0,,,3.8,,,,,,,,,,,
290,Delta Hospital Limited,01301254924+8802-58050661,delta-hospital.com,23.74062,90.3745,26/2 Principal Abul Kashem Rd Dhaka 1216 Bangladesh,Private hospital,Hospital,all,0,400,3.4,3.7,1,1,1,1,1,1,1,1,0,0,delta-hospital.com
291,The Barakah General Hospital Limited,,http://www.barakahospital.com/,23.74063,90.4193,No 2 Opposite Police line Gate 937 Outer Circular Rd,Government hospital,Hospital,all,0,,,3.7,,,,,,,,,,,
292,Insaf Barakah Kidney & General Hospital,,http://insafbarakahospital.com/,23.74063,90.4193,11 শহীদ তাজউদ্দিন আহমেদ সরণি,Government hospital,Hospital,Kidny,0,,,4.1,,,,,,,,,,,
293,Al-Baraka Model Hospital,,,23.74063,90.4193,P92W+WVG,Private hospital,Hospital,all,0,,,3.8,,,,,,,,,,,
294,The Barakah General Hospital Ltd.,01720-045769,http://ww12.barakahospital.com/,23.74079,90.4192,Opposite Police line Gate No 2 937 Outer Circular Rd Dhaka 1000 Bangladesh,Private hospital,Hospital,all,0,,3,3.7,1,0,0,0,1,1,1,0,0,0,http://ww12.barakahospital.com/
295,Renaissance hospital & research institute Ltd,,_,23.74086,90.374,4/A Road No. 4A Dhaka 1209 Bangladesh,Private hospital,Hospital,all,0,,_,_,0,0,0,0,1,1,1,0,0,0,
296,Popular Diagnostic Centre (Santinagar Branch),09666 78780910636,www.populardiagnostic.com,23.74114,90.4124,Popular Diagnostic Center Shantinagar Rd Dhaka 1205 Bangladesh,Private hospital,Diagnostic,Diagnostic,0,,3.2,3.6,0,0,0,0,1,1,1,0,0,0,www.populardiagnostic.com
297,Jamuna Bank Foundation Dialysis Center,01710-650370,_,23.74122,90.4127,41 Shantinagar Rd Dhaka 1217 Bangladesh,Private hospital,Clinic,kidny,0,,3,3.5,0,0,0,0,1,1,1,0,0,0,
298,DMFR MOLECULAR LAB BD LTD.,,_,23.74122,90.383,1207 Mirpur Rd Dhaka 1205 Bangladesh,Private hospital,Diagnostic,all,0,,_,_,0,0,0,0,1,1,1,0,0,0,
299,LABAID Cardiac Hospital,,http://www.labaidgroup.com/cardiac,23.74165,90.383,House-01 & 03 রোড-০৪,Private hospital,Hospital,all,0,,,4,,,,,,,,,,,
300,Saimon Medical Centre Limited,02-8417800,_,23.74182,90.3823,Ishaque Tower( 1st & 2nd Floor Plot: KA 96/B Progati Sharoni Kuri Bhatara Dhaka 1229 Bangladesh,Private hospital,Diagnostic,all,0,,3,3,0,0,0,0,1,1,1,0,0,0,
301,Uposom clinic,,https://maps.gstatic.com/consumer/images/icons/1x/ic_directions_gm_blue_24px.png,23.7419,90.3916,,Private hospital,Clinic,all,0,,,4.8,,,,,,,,,,,
302,LABAID Specialized Hospital,,http://www.labaidgroup.com/specialized,23.74196,90.3828,House- -1 and 6 Road No. 4,Private hospital,Hospital,all,0,,,3.8,,,,,,,,,,,
303,Life Aid Specialized Hospital Pvt. Ltd.,,,23.74196,90.3828,Begam Rokeya Sarani Avenue,Private hospital,Hospital,all,0,,,3.7,,,,,,,,,,,
304,Global Specialized Hospital,,,23.74196,90.3828,282 Almas tower 1 Mazar Rd,Private hospital,Hospital,all,0,,,3.7,,,,,,,,,,,
305,Nanavati Max,,http://nanavatimaxcarebd.com/,23.74223,90.4377,House #21 Bashati Horizon Level 9 Block # C Rd No 17,Private hospital,Clinic,all,0,,,2.8,,,,,,,,,,,
306,VARD Primary Eye Care Center Chhatak,,http://www.vardbd.org/,23.74288,90.3843,Q9FX+XVG MondalivogDakbanglu Road,Private hospital,Hospital,Eye,0,,,,,,,,,,,,,,
307,Central Hospital Limited,,http://www.centralhospitalltdbd.com/,23.74291,90.384,House # 2 সড়ক নং ৫ Green Rd,Government hospital,Hospital,all,0,,,4,,,,,,,,,,,
308,Farabi General Hospital,,,23.74322,90.4157,8 Rd No 14,Government hospital,Hospital,all,0,,,3.3,,,,,,,,,,,
309,Crescent Gastroliver & General Hospital,,http://crescentgastroliver.com/,23.74322,90.4157,25/i Green Road [Eastern end of Dhanmondi Rd 7,Government hospital,Hospital,all,0,,,3.8,,,,,,,,,,,
310,Khalekunnessa General Hospital,,,23.74322,90.4157,61 Becharam Dewri,Private hospital,Hospital,all,0,,,4.2,,,,,,,,,,,
311,MedPark Hospital Bangladesh Office,,https://maps.gstatic.com/consumer/images/icons/1x/ic_directions_gm_blue_24px.png,23.74322,90.4157,Plot 2 Rd 21,Private hospital,Hospital,all,0,,,,,,,,,,,,,,
312,KIDZ genearl hospital,,,23.74322,90.4157,R9C8+83Q Unnamed Road,Private hospital,Hospital,Kidny,0,,,,,,,,,,,,,,
313,Majar General Hospital,,,23.74322,90.4157,Q9W2+F23,Private hospital,Hospital,all,0,,,2.6,,,,,,,,,,,
314,Abeer General Hospital,,https://www.gstatic.com/images/icons/material/system_gm/1x/public_gm_blue_24dp.png,23.74322,90.4157,18 New Eskaton Road,Government hospital,Hospital,all,0,,,3.6,,,,,,,,,,,
315,Railway General Hospital,,https://ssl.gstatic.com/local/servicebusiness/default_user.png,23.74322,90.4157,PCPF+GFV,Private hospital,Hospital,all,0,,,4,,,,,,,,,,,
316,Monowara Hospital diagnostic center,01715-839400,_,23.74324,90.4077,54 Siddheswari Rd Dhaka 1217 Bangladesh,Private hospital,Diagnostic,Diagnostic,0,,3,3.2,0,0,0,0,1,1,1,0,0,0,
317,SB diagnostic center,,https://maps.gstatic.com/consumer/images/icons/1x/ic_directions_gm_blue_24px.png,23.74332,90.4268,189/B Bir Uttam Mir Shawkat Sarak,Private hospital,Diagnostic,Diagnostic,0,,,5,,,,,,,,,,,
319,Nahar Skin & Dental Care,,,23.74345,90.4133,Road 5House 25,Private hospital,Clinic,Dental,0,,,5,,,,,,,,,,,
320,Chowa Physio & Dental Care,,https://chowa.com.bd/,23.74345,90.4133,house 7a Road No. 41,Private hospital,Clinic,Dental,0,,,4.8,,,,,,,,,,,
321,Evergreen Hospital,,,23.74355,90.3845,Rayerbag Bus Stand Kadamtali,Private hospital,Hospital,all,0,,,,,,,,,,,,,,
322,Marie Stopes Premium Maternity Dhanmondi,,https://mariestopes.org.bd/,23.74364,90.3704,House-320 Road-8/A Keari Plaza are 300 yards ahead West House-320 Rd 8/A,Private hospital,Hospital,mother and chield,0,,,3.9,,,,,,,,,,,
323,Marie Stopes Premium Maternity Clinic Mirpur-10,,https://www.mariestopes.org.bd/,23.74364,90.3704,Block-A House-02 Rd No. 4,Private hospital,Clinic,mother and chield,0,,,3.9,,,,,,,,,,,
324,Gonoshasthaya Nagar Hospital,,http://www.gonoshasthayakendra.org/,23.74368,90.3825,House No 14/E Rd No. 6,Private hospital,Hospital,all,0,,,4.1,,,,,,,,,,,
325,The Medical Center,,,23.7437,90.3731,shatmasjid road (near kfc) CONSULTATION OF GASTROENTEROLOGY,Private hospital,Diagnostic,all,0,,,3.9,,,,,,,,,,,
326,Call A Doctor BD,,https://maps.gstatic.com/consumer/images/icons/1x/ic_directions_gm_blue_24px.png,23.74385,90.3673,House #14/A (5th floor Rd No. 1/A,Private hospital,Clinic,all,0,,,4.5,,,,,,,,,,,
327,Infertility Care & Research Centre Ltd (ICRC),,http://www.icrc-bd.org/,23.7441,90.3846,Q998+6WC রিং রোড,Private hospital,Hospital,Fertility ,0,,,4.1,,,,,,,,,,,
328,Z H sikdar Cardiac Care And Research Center,,,23.7441,90.3846,19 Rd 105,Private hospital,Diagnostic,all,0,,,5,,,,,,,,,,,
329,Prime Bank Eye Hospital,01721068282 0248113422,https://www.primebankeyehospital.org/,23.74423,90.3723,House # 82 Road No. 8A(New) Prime Bank Eye Hospital Satmosjid Road Dhanmondi West Rd 8/A Dhaka 1209 Bangladesh,Private hospital,Hospital,Eye,0,,3,4,0,0,0,0,1,1,1,0,0,0,https://www.primebankeyehospital.org/
330,Best Doctor Organization,,,23.7443,90.3848,A 10 Dhanmondi Lake Rd,Private hospital,Clinic,all,0,,,,,,,,,,,,,,
331,Famous General Hospital,,,23.74432,90.3939,·,Private hospital,Hospital,all,0,,,3,,,,,,,,,,,
332,Medinova Medical Services Ltd. (Malibagh Branch),01790-118855,https://medinovamalibagh.com/,23.74447,90.4143,Hosaf Tower 6/9 Outer Circular Rd Dhaka 1217 Bangladesh,Private hospital,Diagnostic,all,0,,3,3.4,0,0,0,0,1,1,1,0,0,0,https://medinovamalibagh.com/
333,Ahmad Sharif,,,23.74456,90.3635,QCJ4+8W4 Toll Booth Jatrabari Gulistan Flyover,Private hospital,Clinic,all,0,,,,,,,,,,,,,,
334,Bangladesh Eye Hospital Uttara,,http://uttara.bdeyehospital.com/,23.74465,90.3818,House No: 27 1230 Sonargaon Janapath,Private hospital,Hospital,Eye,0,,,4.2,,,,,,,,,,,
335,Bangladesh Eye Hospital & Institute,,https://bdeyehospital.com/,23.74465,90.3818,78 Satmasjid Road,Private hospital,Hospital,Eye,0,,,4.1,,,,,,,,,,,
336,Labid besthospital Dhanmondi,,http://labaidgroup.com/,23.7447,90.377,P9RM+RRV Green Square Road,Private hospital,Hospital,all,0,,,5,,,,,,,,,,,
337,AL SHIFA MEDICAL SERVICES LTD.,01701-665701,_,23.74476,90.4422,21 1 Dakhin Banasree Project Road Dhaka Bangladesh,Private hospital,Hospital,all,0,,_,3,0,0,0,0,0,0,0,0,0,0,www.dhakadiv.gov.bd
338,Green View Clinc,,_,23.74488,90.3851,25/3 Green Rd Dhaka 1205 Bangladesh,Private hospital,Clinic,all,0,,_,_,0,0,0,0,1,1,1,0,0,0,
339,Dr. Ratan Clinic,,,23.74493,90.444,69 P-Q Ground Floor Green Road Panthapath,Private hospital,Clinic,all,0,,,,,,,,,,,,,,
340,Padma Diagnostic Centre Ltd.,,_,23.7451,90.4133,245/2 New Circular Road W Malibagh Dhaka 1217 Bangladesh,Private hospital,Diagnostic,Diagnostic,0,,_,_,0,0,0,0,1,1,1,0,0,0,
341,Anwer Khan Modern Cancer Hospital,,,23.74511,90.3819,House 20 Road 7 7 Mirpur Rd,Private hospital,Hospital,all,0,,,4,,,,,,,,,,,
342,Anower Khan Modern Medical College Hospital Limited,,https://ssl.gstatic.com/local/servicebusiness/default_user.png,23.74511,90.3819,193 Kamalapur Box Culvert Rd,Private hospital,Medical college hospital,all,1,,,4.3,,,,,,,,,,,
343,Ibn Sina Diagnostic and Imaging Center (Dhanmondi 9A),,http://www.ibnsinatrust.com/,23.74513,90.3723,House 48 Rd No 9A,Private hospital,Diagnostic,Diagnostic,0,,,4.2,,,,,,,,,,,
344,Maa Medical Hall,,,23.74533,90.3656,VC85+43H Farid Market Middle Azampur Uttara Near Baitul Falah Jame Mosque,Private hospital,Clinic,all,0,,,5,,,,,,,,,,,
345,Al Mubasher Medical Diagnostic Services,02222-227583,_,23.7454,90.3954,tower 1st floor Padma Life Tower 115 ???? ????? ????? ???? ???? 1000 Bangladesh,Private hospital,Diagnostic,Diagnostic,0,,2.8,3,0,0,0,0,1,1,1,0,0,0,
346,Green Life Hospital Ltd.,,https://www.greenlifehospital.com.bd/,23.74541,90.3852,Bir Uttam 32 Green Road KM Shafiullah Sarak,Private hospital,Hospital,all,0,,,5,,,,,,,,,,,
347,BACC Women’s & Children Hospital (Pvt.) Ltd.,,,23.74543,90.372,69/R Panthapath,Private hospital,Hospital,all,0,,,1.7,,,,,,,,,,,
348,Women's And Children's General Hospital,,https://www.facebook.com/wcgh.Hospital,23.74543,90.372,House-48/6 Road-9/A Satmasjid Road Dhanmondi R/A Satmasjid Road,Private hospital,Hospital,all,0,,,3.8,,,,,,,,,,,
349,N N Lab,01752-411373,_,23.74546,90.3849,C4 House 2 7 Rupayan Prime ????? ??? ???? 1205 Bangladesh,Private hospital,Diagnostic,Diagnostic,0,,3,3.4,0,0,0,0,1,1,1,0,0,0,
350,Saaol Heart Center (BD) Ltd.,01777-780851,http://saaol.com.bd/,23.74556,90.3965,Behind Navi HeadQuarters H 26 Eskaton Garden Rd Dhaka 1000 Bangladesh,Private hospital,Diagnostic,Heart,0,,3.7,4.5,1,0,0,1,1,1,1,0,0,0,http://saaol.com.bd/
351,Stemz Health Care (BD) Ltd.,01784-755076,https://stemzhealthcarebd.com/,23.74562,90.3953,114 ???? ????? ????? ???? Rupayan Trade Centre 11th Floor Dhaka 1205 Bangladesh,Private hospital,Diagnostic,all,0,,3.2,3.6,0,0,0,0,1,1,1,0,0,0,https://stemzhealthcarebd.com/
352,MIST Medical centre,,,23.74583,90.4356,R9Q5+GWG,Private hospital,Clinic,all,0,,,3.4,,,,,,,,,,,
353,Sankar hospital,,,23.74601,90.3624,P9WF+FP6,Private hospital,Hospital,all,0,,,,,,,,,,,,,,
354,Ad-Din Medical College Hospital,,,23.74611,90.3952,2 Bara Maghbazar Outer Circular Rd,Private hospital,Medical college hospital,all,1,,,4,,,,,,,,,,,
355,Holy Family Red Crescent Medical College Hospital,,http://www.hfrcmc.edu.bd/,23.74611,90.3952,1 Eskaton Garden Rd,Private hospital,Medical college hospital,all,1,,,4.1,,,,,,,,,,,
356,Green Life Medical College Hospital,,http://greenlife.edu.bd/,23.74611,90.3952,MAK Khan Tower 31 and 31/1 Bir Uttam Shafiullah Sarak Green Rd,Private hospital,Medical college hospital,all,1,,,3.8,,,,,,,,,,,
357,Dhaka Central International Medical College & Hospital (DCIMCH),,http://dcimch.com/,23.74611,90.3952,2 1 Ring Rd,Private hospital,Medical college hospital,all,1,,,3.9,,,,,,,,,,,
358,Ashiyan Medical College Hospital,,http://www.ashiyanhospital.com/,23.74611,90.3952,RFP3+992,Government hospital,Medical college hospital,all,1,,,4,,,,,,,,,,,
359,Universal Medical College Hospital Ltd.,,https://umchltd.com/,23.74611,90.3952,74G/75 Pea-cock Square New Airport Road,Private hospital,Medical college hospital,all,1,,,3.8,,,,,,,,,,,
360,Unani And Ayurvedic Medical College & Hospital,,,23.74611,90.3952,1221 Mirpur Rd,Private hospital,Medical college hospital,all,1,,,3,,,,,,,,,,,
361,Shahabuddin Medical College Hospital,,https://www.gstatic.com/images/icons/material/system_gm/1x/public_gm_blue_24dp.png,23.74611,90.3952,Yes,Private hospital,Medical college hospital,all,1,,,3.9,,,,,,,,,,,
362,Eye Bank 305 & 306 no wordDhaka Medical College Hospital,,,23.74611,90.3952,QCQ9+QQ9 Shahabuddin Medical College Hospital Rd,Private hospital,Medical college hospital,Eye,1,,,,,,,,,,,,,,
363,Royal Dutch Medical College Hospital,,,23.74611,90.3952,North Manda Last Side of Manda Road (Opposite to Ethical Garments) Mugda DAG 369/1468 Dhaka,Private hospital,Medical college hospital,all,1,,,,,,,,,,,,,,
364,CCU Dhaka Medical College Hospital,,,23.74611,90.3952,P9FX+X4W Nazimuddin Rd,Private hospital,Medical college hospital,all,1,,,5,,,,,,,,,,,
365,Green road bakhtiar kamal skin center,,,23.74614,90.3854,22 Indira Rd,Private hospital,Clinic,all,0,,,,,,,,,,,,,,
366,Medinova Medical Services Ltd. (Dhanmondi Head Office &,01750-557722,www.medinovamedicalbd.com,23.74615,90.3742,Dhanmondi Dhaka 1205 Bangladesh,Private hospital,Diagnostic,all,0,,3,4,0,0,0,0,1,1,1,0,0,0,www.medinovamedicalbd.com
367,Deshbangla Hospital & Diagnostic Center Limited.,,https://ssl.gstatic.com/local/servicebusiness/default_user.png,23.74619,90.3652,26 Shonir Akhra - Dania Rd,Private hospital,Diagnostic,Diagnostic,0,,,4.2,,,,,,,,,,,
368,Modern Dental Center,,https://maps.gstatic.com/consumer/images/icons/1x/ic_directions_gm_blue_24px.png,23.74642,90.4404,·,Private hospital,Clinic,Dental,0,,,5,,,,,,,,,,,
369,Medinova diagonostic center,,,23.74648,90.3961,V9FX+P92,Private hospital,Diagnostic,all,0,,,,,,,,,,,,,,
370,Labaid Ltd (Diagnostic) Malibagh,10606,https://labaid.com.bd/,23.74656,90.4128,Malibagh ???? Bangladesh,Private hospital,Diagnostic,Diagnostic,0,,4,4.5,0,0,0,0,1,1,1,0,0,0,https://labaid.com.bd/
371,Galib Health Care Ltd.,,,23.74676,90.3858,Anser camp Karail,Private hospital,Clinic,all,0,,,,,,,,,,,,,,
372,New national heart Foundation,,,23.74681,90.3982,01883-237932,Private hospital,Diagnostic,Heart,0,,,,,,,,,,,,,,
373,Life & Care Hospital Ltd.,,http://www.lifeandcarehospitals.com/,23.74704,90.3808,P9J5+67G Sadarghat - Gabtoli Rd,Private hospital,Hospital,all,0,,,3.5,,,,,,,,,,,
374,Ibrahim General Hospital Mirpur.,,_,23.74707,90.373,House 42 Rd 10/A Dhaka 1205 Bangladesh,Private hospital,Hospital,all,0,,_,_,0,0,0,0,1,1,1,0,0,0,
375,Eden Multi-Care Hospital,,,23.74719,90.3706,753 Satmasjid Road,Private hospital,Hospital,Dental,0,,,3.6,,,,,,,,,,,
376,Hitech Multicare Hospital ltd,,https://hitech-hospital.com/,23.74719,90.3706,164 E Kafrul Rd,Private hospital,Hospital,all,0,,,3.8,,,,,,,,,,,
377,Dr. Sirajul Islam Medical College & Hospital Ltd.,,_,23.74729,90.4104,12/3 New Circular Road Malibagh 1217. Dhaka Dhaka Dhaka 1217 Bangladesh,Private hospital,Medical college hospital,all,1,,_,_,0,0,0,0,1,1,1,0,0,0,
378,S. P. R. C. & Neurology Hospital,,http://www.sprcnh.com/,23.74763,90.4011,135 New Eskaton Road,Private hospital,Hospital,all,0,,,3.7,,,,,,,,,,,
379,National Chest Department,,http://www.nidch.gov.bd/,23.7477,90.386,·,Government hospital,Diagnostic,Heart,0,,,4.6,,,,,,,,,,,
380,FERA Narcotics Medicare,,,23.74777,90.4012,V9JQ+339,Private hospital,Hospital,all,0,,,,,,,,,,,,,,
381,Unicare Medical Services,01968-877240,https://unicaremedicalbd.com/,23.74792,90.4021,13 1 New Eskaton Road Dhaka Bangladesh,Private hospital,Hospital,all,0,,3,3.4,0,0,0,0,1,1,1,0,0,0,https://unicaremedicalbd.com/
382,National Institute of Neuro Sciences & Hospital,,,23.74796,90.4092,·,Government hospital,Hospital,neorology,0,,,4.4,,,,,,,,,,,
383,American Hospital,,https://maps.gstatic.com/consumer/images/icons/1x/ic_directions_gm_blue_24px.png,23.74804,90.4089,G-2Main RoadSouth,Private hospital,Hospital,all,0,,,3.4,,,,,,,,,,,
384,BGMEA HEALTH CENTER,,,23.74807,90.3625,Niketan G64,Private hospital,Hospital,all,0,,,5,,,,,,,,,,,
385,BRAC MATERNITY CENTER (BMC) MOGHBAZAR DHAKA,,http://brac.net/,23.74811,90.4022,QC85+8V5,Private hospital,Hospital,mother and chield,0,,,,,,,,,,,,,,
386,GK Pharma LTD.,,,23.74818,90.3915,103 Rahman Vaban,Private hospital,Diagnostic,all,0,,,4,,,,,,,,,,,
387,Ad-din Womens Medical College Hospital,09612-345666,ad-din.org/addin-women-medical-college-awmc-dhaka/about-awmc,23.74837,90.4055,2 Bara Maghbazar Outer Circular Rd Dhaka 1217 Bangladesh,Private hospital,Medical college hospital,all,1,,3.2,4,0,0,0,1,1,1,1,0,0,0,ad-din.org/addin-women-medical-college-awmc-dhaka/about-awmc/
388,Medi Home Hospital,,,23.74871,90.4367,38 Kamal Soroni Rd,Private hospital,Hospital,all,0,,,4.2,,,,,,,,,,,
389,Satata Diagnostic And Consultation Center,,,23.74883,90.4209,P9FP+MQ8,Private hospital,Diagnostic,Diagnostic,0,,,4,,,,,,,,,,,
390,Dhanmondi Clinic (PVT) LTD. (PATHOLOGY),01970-476626,_,23.74887,90.3864,61 Green Rd Dhaka 1205 Bangladesh,Private hospital,Clinic,all,0,,2.5,3.5,0,0,0,0,1,1,1,0,0,0,
391,Computerized Homeopathy Research Center,,,23.74898,90.3638,GP cha 43 gazi monjil Wireless Gate Rd,Private hospital,Clinic,all,0,,,5,,,,,,,,,,,
392,Khidmah Hospital Pvt. Ltd.,,https://www.khidmahhospital.com/,23.74902,90.4203,C-287/2-3 Bisswa Road,Private hospital,Hospital,all,0,,,3.9,,,,,,,,,,,
393,Urban Health Center,,https://maps.gstatic.com/consumer/images/icons/1x/ic_directions_gm_blue_24px.png,23.74909,90.4033,298 Shadhinota Shoroni North,Private hospital,Hospital,mother and chield,0,,,5,,,,,,,,,,,
394,Dhanmondi Hospital (PVT) Ltd,,,23.7491,90.3865,17 Green Rd,Private hospital,Hospital,all,0,,,3.3,,,,,,,,,,,
395,PARADYNE MEDICAL CENTRE,02 48321127,http://www.paradynebd.com/,23.74912,90.4127,107 DIT Rd Dhaka 1217 Bangladesh,Private hospital,Diagnostic,all,0,,3,3.7,0,0,0,0,1,1,1,0,0,0,http://www.paradynebd.com/
396,Popular ct&mri department,,,23.74913,90.4068,A.N.M.Nuruzzaman sorak shyamoli Opposite to kidney hospital shyamoli,Private hospital,Diagnostic,all,0,,,5,,,,,,,,,,,
397,COMFORT DIAGNOSTIC CENTRE (PVT.) LIMITED,01731-956033,https://www.comfortbd.com/,23.74919,90.3862,Comfort Tower 167/B Green Rd Dhaka 1205 Bangladesh,Private hospital,Diagnostic,Diagnostic,0,,3.2,4,0,0,0,0,1,1,1,0,0,0,https://www.comfortbd.com/
398,Comfort Diagnostic Centre (Pvt) Ltd.,,_,23.74919,90.3862,Comfort Tower 167/B Green Rd Dhaka 1205 Bangladesh,Private hospital,Diagnostic,Diagnostic,0,,_,_,0,0,0,0,1,1,1,0,0,0,
399,Emergency Department (NITOR),,https://maps.gstatic.com/consumer/images/icons/1x/ic_directions_gm_blue_24px.png,23.74942,90.412,Sayed Mahbub Morshed Rd,Private hospital,Hospital,children,0,,,4,,,,,,,,,,,
400,DHAKA COMMUNITY MEDICAL COLLEGE & HOSPITAL-,,_,23.74968,90.4078,190/1 Baro Moghbazar Wireless Railgate Bara Moghbazar Dhaka 1217 Bangladesh,Private hospital,Medical college hospital,all,1,,_,_,0,0,0,0,1,1,1,0,0,0,
401,Unihealth Specialized Hospital Ltd,,_,23.75013,90.3879,68/69 Green Rd Dhaka 1205 Bangladesh,Private hospital,Hospital,all,0,,_,_,0,0,0,0,1,1,1,0,0,0,
402,ORION RENAL & GENERAL HOSPITAL,01783-614515,https://www.orion-group.net/index.php/concern/21/43/orion-renal-and-general-hospital,23.75015,90.3793,1st floor Mirpur Rd Dhaka 1205 Bangladesh,Private hospital,Hospital,all,0,,3.3,4,0,0,0,0,1,1,1,0,0,0,https://www.orion-group.net/index.php/concern/21/43/orion-renal-and-general-hospital
403,Insaf Barakah Kidney and General Hospital,#ERROR!,www.ibhospital.com,23.75025,90.4025,11 ???? ????????? ????? ???? Dhaka 1217 Bangladesh,Private hospital,Hospital,Kidny,0,300,3,4.2,0,0,0,0,1,1,1,0,0,0,www.ibhospital.com
404,Lab Science Diagnostic,,_,23.75035,90.3866,153/1 Green Road Signal ??????? ???? 1205 Bangladesh,Private hospital,Diagnostic,Diagnostic,0,,_,_,0,0,0,0,1,1,1,0,0,0,
405,Bangladesh Medical College Hospital,,_,23.7504,90.3698,Rd No. 14A Dhaka 1209 Bangladesh,Private hospital,Medical college hospital,all,1,,_,_,0,0,0,0,1,1,1,0,0,0,
406,City Hospital & Diagnostic Center,,http://www.cityhospitalbd.com/,23.75045,90.3677,House No#1 8 Satmasjid Road,Private hospital,Diagnostic,Diagnostic,0,,,3.8,,,,,,,,,,,
407,Dr. Amanat Khan Hospital and Diagnostic Center,,,23.75045,90.3677,Amanat Khan Hospital and Diagnostic Center 1 Dr Amanat Khan Hospital Rd,Private hospital,Diagnostic,Diagnostic,0,,,3.7,,,,,,,,,,,
408,M General Hospital and Diagnostic Center,,,23.75045,90.3677,House- 1216 35 Rd No. 8,Private hospital,Diagnostic,Diagnostic,0,,,,,,,,,,,,,,
409,Marks Medical College and Hospital,,,23.75047,90.3698,R9C8+W5M,Private hospital,Medical college hospital,all,1,,,4.1,,,,,,,,,,,
410,Bangladesh Community General Hospital,,,23.75048,90.3677,Dhaka - Demra Highway,Government hospital,Hospital,all,0,,,4.2,,,,,,,,,,,
411,Capital General Hospital,,https://ssl.gstatic.com/local/servicebusiness/default_user.png,23.75048,90.3677,Mojumder Villa 23/1 Keshab Benarjee Rd,Government hospital,Hospital,all,0,,,4.1,,,,,,,,,,,
412,The DNA Lab Limited,01706-319181,_,23.7505,90.3884,K 69 Panthapath Dhaka 1205 Bangladesh,Private hospital,Diagnostic,Diagnostic,0,,3.2,3.2,0,0,0,0,1,1,1,0,0,0,
413,SIBL FOUNDATION HOSPITAL & DIAGNOSTIC CENTRE,,_,23.75066,90.3871,??????? Fattah Plaza 70 Green Rd Dhaka 1205 Bangladesh,Private hospital,Diagnostic,Diagnostic,0,,_,_,0,0,0,0,1,1,1,0,0,0,
414,Medi-Path Hospital,,,23.75069,90.3787,31 Nawab Eusuf Rd,Private hospital,Hospital,all,0,,,5,,,,,,,,,,,
415,Ahmed Medical Centre(PVT)Ltd,,_,23.75071,90.3686,71/1 Satmasjid Road Sankar Bus Stand er Kache Dhaka 1205 Bangladesh,Private hospital,Hospital,all,0,,_,_,0,0,0,0,1,1,1,0,0,0,
416,Health and Hope Hospital,,http://www.healthandhopebd.net/,23.75073,90.387,152/2/G Green Road Panthapath,Private hospital,Hospital,all,0,,,3.9,,,,,,,,,,,
417,amiodoctor,,,23.75073,90.4249,2 1 Ring Rd,Private hospital,Clinic,all,0,,,,,,,,,,,,,,
418,Nasima Medical and Diagnostic Center,#ERROR!,https://www.nasimamedical.com/,23.75118,90.4138,70/B Azad Tower D.I.. Road Malibagh Chowdhury Para Rd Dhaka 1219 Bangladesh,Private hospital,Diagnostic,Diagnostic,0,,3,3,0,0,0,0,1,1,1,0,0,0,https://www.nasimamedical.com/
419,Amena Clinic,,,23.75151,90.363,Uttar Pata Dhamrai Holding no: F-18 Ward no: 04 Dhaka,Private hospital,Clinic,mother and chield,0,,,,,,,,,,,,,,
420,Mukti Drug Helpline Ltd,,http://www.muktidrughelpline.com/,23.75199,90.3826,237 রাজধানী কমপ্লেক্স 2 নিউ এলিফ্যান্ট রোড,Private hospital,Clinic,all,0,,,4.9,,,,,,,,,,,
421,Dhanmondi General & Kindey Hospital Ltd.,,_,23.75214,90.385,City Tower 44/7 Panthapath Dhaka 1205 Bangladesh,Private hospital,Hospital,all,0,,_,_,0,0,0,0,1,1,1,0,0,0,
422,Dhanmondi General And Kidney Hospital Limited,,https://dhanmondigeneralhospital.com/,23.75244,90.3863,City Tower 44/7 Panthapath,Private hospital,Hospital,Kidny,0,,,3.6,,,,,,,,,,,
423,Bangladesh Spain and orthopedic Hospital Ltd,,,23.75247,90.3849,Q9H6+754 Mirpur Rd,Private hospital,Hospital,Orthopedic,0,,,5,,,,,,,,,,,
424,Bangladesh Spine & Orthopaedic Hospital -BSOH,,,23.75247,90.3849,10 Mirpur Rd,Government hospital,Hospital,Orthopedic,0,,,4,,,,,,,,,,,
425,Samorita Hospital Ltd.,02-4811761910674,https://www.samoritahospital.org/,23.75262,90.3852,?? 89 Panthapath Dhaka 1215 Bangladesh,Private hospital,Hospital,all,0,250,3.2,4,1,1,1,1,1,1,1,1,1,1,https://www.samoritahospital.org/
426,Square Hospitals Ltd.,,https://www.squarehospital.com/,23.75276,90.3819,18 Bir Uttam Qazi Nuruzzaman Sarak West Panthapath,Private hospital,Hospital,all,0,,,4.1,,,,,,,,,,,
427,Platinum Hospital Limited PanthapathDhaka,,,23.75276,90.3819,Panthapath,Private hospital,Hospital,all,0,,,4.6,,,,,,,,,,,
428,Square Hospitals Limited | Corporate Office,,,23.75276,90.3819,48 Square Centre Bir Uttam AK Khandakar Rd,Private hospital,Hospital,all,0,,,5,,,,,,,,,,,
429,Square Hospital Extension Building,,,23.75276,90.3819,Q92P+M76 Bir Uttam Kazi Nuruzzaman Rd,Private hospital,Hospital,all,0,,,3,,,,,,,,,,,
430,Square Hospital Consultation Center Mirpur,,,23.75276,90.3819,Madhuri Bhaban (3rd Floor) Holding- 2 Road No- 3 Section- 7 Bus Stand,Private hospital,Hospital,all,0,,,4,,,,,,,,,,,
431,SQUARE HOSPITALS LIMITED (Lab & Path.),10616,https://www.squarehospital.com/page/12/square-hospital-laboratory-&-pathology-medicine,23.75284,90.3816,18 Bir Uttam Qazi Nuruzzaman Sarak West Panthapath Dhaka 1205 Bangladesh,Private hospital,Hospital,all,0,500,4,4.5,1,1,1,1,1,1,1,1,1,1,https://www.squarehospital.com/page/12/square-hospital-laboratory-&-pathology-medicine
432,Nazirabazar Matrisadan,,,23.75361,90.4077,PC95+623,Private hospital,Diagnostic,all,0,,,3.9,,,,,,,,,,,
433,Al Noor Eye Hospital,,http://www.alnooreyehospital.com/,23.75379,90.3655,1 9 Satmasjid Road,Private hospital,Hospital,Eye,0,,,4.1,,,,,,,,,,,
434,City Hospital Ltd & Diagnostic Centre,,_,23.75401,90.3655,House No#1 8 Satmasjid Road Dhaka 1207 Bangladesh,Private hospital,Diagnostic,Diagnostic,0,,_,_,0,0,0,0,1,1,1,0,0,0,
435,City Hospital Ltd.,,_,23.75401,90.3655,House No#1 8 Satmasjid Road Dhaka 1207 Bangladesh,Private hospital,Hospital,all,0,,_,_,0,0,0,0,1,1,1,0,0,0,
436,Zain Diagnostic Center,01306-681688,_,23.75435,90.3885,139 40 Green Rd Dhaka 1215 Bangladesh,Private hospital,Diagnostic,Diagnostic,0,,3,3.7,0,0,0,0,1,1,1,0,0,0,
437,Zain Medical Center,01715-301543,_,23.75437,90.3889,RH home Center (1st Floor 74/B 1 Green Rd Dhaka 1215 Bangladesh,Private hospital,Hospital,all,0,,3,3.2,0,0,0,0,1,1,1,0,0,0,
438,Bangladesh Premium Hospital,,https://maps.gstatic.com/consumer/images/icons/1x/ic_directions_gm_blue_24px.png,23.75534,90.3691,P8PQ+7MX Laboni Point Basilla Road Ghatarchar Rd,Private hospital,Hospital,all,0,,,4,,,,,,,,,,,
439,MOMTAJ TRAUMA CENTRE,01844-080671,_,23.75536,90.36,Sadek Khan Rd Dhaka Bangladesh,Private hospital,Diagnostic,all,0,,3,3,0,0,0,0,1,1,1,0,0,0,
440,DMFR Molecular Lab BD Limited,,_,23.75546,90.3762,Navana Newbury place 4/1/A (7th Floor) Sobhanbag ?????? ??? ???? 1207 Bangladesh,Private hospital,Diagnostic,all,0,,_,_,0,0,0,0,1,1,1,0,0,0,
441,Shikder Medical Check Up Center,,,23.75558,90.3883,102/8 New Airport Road Banani Near the Kakoli Over Bridge,Private hospital,Clinic,all,0,,,,,,,,,,,,,,
442,Al-Manar Hospital Ltd.,02-58150197,https://specialistdoctorsbd.com/al-manar-hospital-mohammadpur/,23.75586,90.3632,Plot No:Umo(?) Block No:Rossoi(? ???????? ???? ???? 1207 Bangladesh,Private hospital,Hospital,all,0,350,3.2,4.1,1,1,1,1,1,1,1,1,1,1,https://specialistdoctorsbd.com/al-manar-hospital-mohammadpur/
443,Pancare Hospital Ltd,,https://www.youtube.com/watch?v=G8oKfOI7mtU,23.75608,90.3747,Rd 27,Private hospital,Hospital,all,0,,,4.2,,,,,,,,,,,
444,Pancare Hospital Ltd.,01844-001030,_,23.75615,90.3746,Rd 27 Dhaka 1205 Bangladesh,Private hospital,Hospital,all,0,,3.5,3.6,0,0,0,0,1,1,1,0,0,0,
445,Bangladesh Cosmetic Surgery,,http://www.cosmeticsurgery.com.bd/,23.75622,90.375,House 8 Road 14 Sobhanbag Rd,Private hospital,Hospital,all,0,,,1,,,,,,,,,,,
446,USA Bangladesh Cosmetic & Laser Clinic Ltd.,,,23.75622,90.375,House 1213 78/E Rd 12,Private hospital,Clinic,all,0,,,5,,,,,,,,,,,
447,OPD Department (ICDDRB),,http://labservices.icddrb.org/,23.75625,90.3753,Q9GX+MJV Shaheed Tajuddin Ahmed Ave,Private hospital,Hospital,all,0,,,4.4,,,,,,,,,,,
448,Oncology Department CPH,,,23.75625,90.3753,PCP8+CJP,Private hospital,Hospital,all,0,,,,,,,,,,,,,,
449,Millennium Heart & General Hospital Ltd.,,,23.75662,90.3662,4 9 Zakir Hossain Road,Government hospital,Diagnostic,Heart,0,,,3.7,,,,,,,,,,,
450,Health Revolution,,https://www.gstatic.com/images/icons/material/system_gm/1x/public_gm_blue_24dp.png,23.75676,90.4168,Closes soon,Private hospital,Hospital,all,0,,,4.6,,,,,,,,,,,
451,Dhaka Diagnostic Centre,,,23.7572,90.3621,Q946+VRF Dhaka Bangladesh,Private hospital,Diagnostic,Diagnostic,0,,,,,,,,,,,,,,
452,Leading Health Check-up,02222-222042,_,23.75734,90.4173,58 East Hazipara ?? ?? ?? ???? ???? 1219 Bangladesh,Private hospital,Clinic,all,0,,_,4.4,0,0,0,0,0,0,0,0,0,0,
453,Dhaka National Medical Institute Hospital,,https://ssl.gstatic.com/local/servicebusiness/default_user.png,23.75734,90.3669,53 1 Johnson Rd,Private hospital,Hospital,all,0,,,3.9,,,,,,,,,,,
454,Bangladesh ENT Hospital,,,23.75741,90.3671,4/1-A Sobhanbag Mirpur Road Navana Newbury place(3rd floor) Opposite to Dhaka,Private hospital,Hospital,ENT,0,,,3.9,,,,,,,,,,,
455,Medix,,https://medix.uhslbd.com/,23.75741,90.39,62 Satmasjid Road,Private hospital,Diagnostic,Diagnostic,0,,,4.8,,,,,,,,,,,
456,C M C Information Counter,,,23.75763,90.3901,Noysorgic Villa 529 South Manda Dhaka Pear Ali Lane,Private hospital,Clinic,all,0,,,,,,,,,,,,,,
457,Bangladesh Eye Foundation & Phaco Center,,https://maps.gstatic.com/consumer/images/icons/1x/ic_directions_gm_blue_24px.png,23.75768,90.3667,2nd 92 Shahid Faroque Rd,Private hospital,Hospital,Eye,0,,,4.7,,,,,,,,,,,
458,MediScan Teleradiology Solutions,,http://www.mediscanbd.com/,23.7581,90.3866,·,Private hospital,Hospital,all,0,,,5,,,,,,,,,,,
459,Institute of Laser Surgery & Hospital Ltd.,,,23.75813,90.3992,Q92P+M76 Panthapath,Private hospital,Hospital,all,0,,,,,,,,,,,,,,
460,Dhaka Islamia Eye Hospital Badda,,https://maps.gstatic.com/consumer/images/icons/1x/ic_directions_gm_blue_24px.png,23.75887,90.386,GA-95 Shoinik Bhaban 5 Gulshan Badda Link Rd,Private hospital,Hospital,Eye,0,,,5,,,,,,,,,,,
461,Al-Raji Hospital Pvt. Ltd.,,http://alrajhihospital.com/,23.75891,90.3899,Shop No- G2 Concord Center Point Kazi Nazrul Islam Ave,Private hospital,Hospital,all,0,,,3.7,,,,,,,,,,,
462,Thyroid Care And Diagnostic Centre,01701-660790,https://tcdcbd.com/,23.75915,90.3561,House No 106 Road No. 7 Dhaka 1207 Bangladesh,Private hospital,Diagnostic,Diagnostic,0,,3,3.6,0,0,0,0,1,1,1,0,0,0,
463,American International Hospital Ltd.,01814-351113,http://www.americanhospital-bd.com/aboutus.php,23.75945,90.4441,7 Rd No. 7 Dhaka 1219 Bangladesh,Private hospital,Hospital,all,0,,3.5,3.5,0,0,0,0,1,1,1,0,0,0,http://www.americanhospital-bd.com/aboutus.php
464,YUKI DIAGNOSTIC & IMAGING CENTRE,,_,23.76136,90.444,Plot-23Road--03Avenue-08Block-H ???? 1219 Bangladesh,Private hospital,Diagnostic,Diagnostic,0,,_,_,0,0,0,0,1,1,1,0,0,0,
465,Shastho Sheba Kendro  Badda,,https://www.gstatic.com/images/icons/material/system_gm/1x/public_gm_blue_24dp.png,23.76168,90.3562,Open,Private hospital,Hospital,all,0,,,4.5,,,,,,,,,,,
466,Al-Amin Medical Check-Up Center,,http://alaminmedicalcheckup.com/,23.76172,90.3934,84/6 1213 Dhaka - Mymensingh Hwy,Private hospital,Clinic,all,0,,,3.7,,,,,,,,,,,
467,BANASREE ADHUNICK DIAGNOSTIC & CONSULTATION,01793-296158,_,23.76194,90.4331,Banasree Dhaka Bangladesh,Private hospital,Diagnostic,Diagnostic,0,,2.7,2.3,0,0,0,0,1,1,1,0,0,0,
468,Bashuti Maa O Shishu Hospital Ltd. Diagnostic Centre,8.80E+12,http://bashutihospital.com/,23.76236,90.439,Block-G House #2 Main Road Dhaka 1219 Bangladesh,Private hospital,Diagnostic,Diagnostic,0,,3,4,0,0,0,0,1,1,1,0,0,0,http://bashutihospital.com/
469,Advance Hospital Ltd,01873-242424,_,23.76248,90.4367,House #1 Main Road Block #F ???? 1219 Bangladesh,Private hospital,Hospital,all,0,,3,3,0,0,0,0,1,1,1,0,0,0,
470,FARAZY MEDICAL CENTER,,_,23.76251,90.4363,House No#15 19 Banasree Main Rd Dhaka 1219 Bangladesh,Private hospital,Diagnostic,all,0,,_,_,0,0,0,0,1,1,1,0,0,0,
471,Broto dental orthodontic,,,23.76293,90.369,Road 7.. house no 71..South Dhaka,Private hospital,Hospital,Dental,0,,,,,,,,,,,,,,
472,Bangladesh Diabetic Samity Uttara Centre.,,http://www.nhn-dab.org.bd/,23.76313,90.3616,House-2 Road-13,Private hospital,Hospital,all,0,,,3.8,,,,,,,,,,,
473,BANGLADESH DIABETIC SHOMITY (Gulshan Healthcare Centre),,,23.76313,90.3616,QCR9+2WG,Private hospital,Clinic,all,0,,,4.5,,,,,,,,,,,
474,Delta Health Care Rampura Ltd,,_,23.76317,90.4203,381/A West Rampura DIT Rd Dhaka 1219 Bangladesh,Private hospital,Hospital,all,0,,_,_,0,0,0,0,1,1,1,0,0,0,
475,SMC Niltara Lab,,_,23.76371,90.3457,30/1 Haji Dil Mohammad Ave Dhaka 1207 Bangladesh,Private hospital,Diagnostic,all,0,,_,_,0,0,0,0,1,1,1,0,0,0,
476,Dhaka Community Medical College and Hospital,,http://dchtrust.org/,23.76423,90.4053,190/1 Baro Moghbazar Wireless Railgate Bara Moghbazar,Private hospital,Medical college hospital,all,1,,,4.2,,,,,,,,,,,
477,Emergency Department Bangladesh Medical Hospital,,,23.76423,90.4053,14/A,Private hospital,Hospital,all,0,,,4.4,,,,,,,,,,,
478,AIMS Hospital Ltd Merul Badda,,https://maps.gstatic.com/consumer/images/icons/1x/ic_directions_gm_blue_24px.png,23.7658,90.4299,House No. 4 Pragoti Sarani Rd No 11,Private hospital,Hospital,all,0,,,3.8,,,,,,,,,,,
479,Nari Maitree PHCC-5 Tetultola Uttor Badda Dhaka,,https://maps.gstatic.com/consumer/images/icons/1x/ic_directions_gm_blue_24px.png,23.7658,90.4299,Sha-72 Sha-72 Tatultola Rd,Private hospital,Hospital,all,0,,,,,,,,,,,,,,
480,Brac Meternity Centre Badda,,https://maps.gstatic.com/consumer/images/icons/1x/ic_directions_gm_blue_24px.png,23.7658,90.4299,QCMH+MW2 298 Shadhinota Sharoni (Jamtola Mor) North Shadhinata Sharani,Private hospital,Hospital,all,0,,,,,,,,,,,,,,
481,BRAC MATERNITY CENTER (BMC)BADDA DHAKA,,https://www.gstatic.com/images/icons/material/system_gm/1x/public_gm_blue_24dp.png,23.76581,90.4299,Yes,Private hospital,Hospital,mother and chield,0,,,,,,,,,,,,,,
482,ADVANCED DIGITAL DIAGNOSTIC CENTRE,01749-624212,_,23.76652,90.3626,3 19 Humayun Rd Dhaka 1207 Bangladesh,Private hospital,Diagnostic,Diagnostic,0,,3,2.8,0,0,0,0,0,0,0,0,0,0,
483,Bangladesh Laser & Cell Surgery Institute & Hospital,01751-931530,_,23.76663,90.438,House #2 Road#2 Block#D Sector#2 Jahurul Islam Ave ???? 1212 Bangladesh,Private hospital,Hospital,EYE,0,,3,4,0,0,0,0,1,1,1,0,0,0,
484,DSPC Bangladesh,,,23.76734,90.3695,house 02 Road-14/A,Private hospital,Hospital,all,0,,,,,,,,,,,,,,
485,SSKS Maternity Clinic & Diagnostic Center,,https://maps.gstatic.com/consumer/images/icons/1x/ic_directions_gm_blue_24px.png,23.76734,90.3695,55 Post Office Rd,Private hospital,Diagnostic,Diagnostic,0,,,,,,,,,,,,,,
486,IndoMedHub Bangladesh,,https://www.gstatic.com/images/icons/material/system_gm/1x/public_gm_blue_24dp.png,23.76734,90.3695,Closed,Private hospital,Clinic,all,0,,,,,,,,,,,,,,
487,Vaccine Bangladesh,,,23.76734,90.3695,Vaccine Bangladesh Room-401 Lift-4 Life Care Medical Centre Haque Tower JA-28/8-D Mohakhali opposite of Brac Tower,Private hospital,Clinic,all,0,,,,,,,,,,,,,,
488,Impulse Hospital,,https://impulsehospital.com/,23.76762,90.3989,304/E Shaheed Tazuddin Avenue,Private hospital,Hospital,all,0,,,3.7,,,,,,,,,,,
489,AL HAYATT MEDICAL CENTRE,01733-777799,https://alhayattdhaka.com/,23.76782,90.399,304 Tejgaon Commercial Area Bhuiyan Shikdar Tower Ground Floor ???? 1208 Bangladesh,Private hospital,Diagnostic,all,0,,3.2,4,0,0,0,0,1,1,1,0,0,0,https://alhayattdhaka.com/
490,BDM Hospital and Diagnostic Centre,1713036170,_,23.76786,90.368,Block-B 5 17 Humaund Road Dhaka 1207 Bangladesh,Private hospital,Diagnostic,Diagnostic,0,,_,3,0,0,0,0,0,0,0,0,0,0,
491,Doctors Chember,,,23.76817,90.362,V9MP+3GQ Sheikh Villa Ranabhola Union: Horirampur Thana: Ranavola Main Rd,Private hospital,Hospital,all,0,,,,,,,,,,,,,,
492,Dhaka Eye Institute,,,23.76831,90.3682,sony hall 01,Private hospital,Hospital,Eye,0,,,4,,,,,,,,,,,
493,CARe Medical College & Hospital Ltd,9677223344,https://caremedicalcollegebd.com/,23.76891,90.3686,1/5 Block-B Mohammadpur Housing Estate College Gate ?????? ??? ???? 1207 Bangladesh,Private hospital,Medical college hospital,all,1,250,3.6,3.5,1,1,1,1,1,1,1,1,1,0,https://caremedicalcollegebd.com/
494,Hasna Hena Pain and Physiotherapy Research Center (HPRC),,https://hasna-hena-pain-and-physiotherapy-research-center-hprc.business.site/?utm_source=gmb&utm_medium=referral,23.76927,90.3549,House no- 07 Shayesta Khan Ave,Private hospital,Hospital,all,0,,,4.5,,,,,,,,,,,
495,The Healthcare Laboratory Ltd.,,_,23.76983,90.3586,77-78 Rahbar Tower ??? ??? ???? 1207 Bangladesh,Private hospital,Diagnostic,all,0,,_,_,0,0,0,0,1,1,1,0,0,0,
496,Ibad Medical Lab,01552-304476,_,23.77001,90.367,Q9C8+2Q4 Babar Rd Dhaka Bangladesh,Private hospital,Diagnostic,Diagnostic,0,,3,3,0,0,0,0,1,1,1,0,0,0,
497,Fair Lab Limited,01557-404027,_,23.77005,90.3649,20/5 Babar Rd Dhaka Bangladesh,Private hospital,Diagnostic,Diagnostic,0,,3,3,0,0,0,0,1,1,1,0,0,0,
498,Royal Multispeciality Hospital,01703-305302,_,23.77015,90.3663,20 3 Babar Rd Dhaka Bangladesh,Private hospital,Hospital,all,0,50,3,3.2,0,0,0,0,1,1,1,0,0,0,
499,Popular Diagnostic Centre Ltd. (Shymoli Branch),09666 78780910636,www.populardiagnostic.com,23.77101,90.3639,Shyamoli Dhaka Bangladesh,Private hospital,Diagnostic,Diagnostic,0,,3.2,3.6,0,0,0,0,1,1,1,0,0,0,www.populardiagnostic.com
500,JANASHEBA NURSING HOME AND DIAGNOSTIC CENTER,01912-074377,_,23.77133,90.3649,16 Block-B 19 C ???? ??? ???? 1207 Bangladesh,Private hospital,Diagnostic,Diagnostic,0,,3.8,3.5,0,0,0,0,0,0,0,0,0,0,
501,TRAUMA CENTER & AO ORTHOPAEDIC HOSPITAL (PVT.),10604,https://www.traumacenter.com.bd/,23.77197,90.3675,22 8/A Mirpur Rd Dhaka 1207 Bangladesh,Private hospital,Hospital,Orthopedic,0,,3.2,3.5,0,0,0,0,1,1,1,0,0,0,https://www.traumacenter.com.bd/
502,SAFEWAY EYE AND DENTAL HOSPITAL,,,23.77273,90.3663,55 Atish Diponkar Road South Mugda Mugda Dhaka,Private hospital,Hospital,all,0,,,4.7,,,,,,,,,,,
503,BGMEA HEALTH CENTER Niketon,,https://maps.gstatic.com/consumer/images/icons/1x/ic_directions_gm_blue_24px.png,23.77292,90.4058,Block G Road 14/A Rd No 3,Private hospital,Hospital,all,0,,,,,,,,,,,,,,
504,PATWARY DIAGNOSTIC & DOCTORS CHAMBER,01728-067306,medicare24.online/h/3630/doctors,23.77297,90.4064,K-105/9 Mahakhali Dakhinpara Niketan Bazar Gate Gulshan Dhaka 1212 Bangladesh,Private hospital,Diagnostic,Diagnostic,0,,3,3,0,0,0,0,1,1,1,0,0,0,medicare24.online/h/3630/doctors
505,Healthcare Diagnostic Center Ltd.,,_,23.77318,90.3668,23/2 Khilji Rd Dhaka 1207 Bangladesh,Private hospital,Diagnostic,Diagnostic,0,,_,_,0,0,0,0,1,1,1,0,0,0,
506,Dhaka Central Diagnostic & Imaging Center,02 58157532-4,dcimch.com/hospital/dcdic,23.77336,90.3617,80 Ring Rd Dhaka Bangladesh,Private hospital,Diagnostic,Diagnostic,0,,3,4,0,0,0,0,1,1,1,0,0,0,dcimch.com/hospital/dcdic
507,D SUN HOSPITAL,,,23.77345,90.3525,Road: 3 House: 3 Shop: 4 (2nd floor) Dhanmondi,Private hospital,Hospital,all,0,,,,,,,,,,,,,,
508,Dhaka Central International Medical College & Hospital,02-9128727,https://dcimch.com/,23.77379,90.3615,2 1 Ring Rd Dhaka 1207 Bangladesh,Private hospital,Medical college hospital,all,1,,3.2,3.9,1,0,0,0,1,1,1,0,0,0,https://dcimch.com/
509,Ramkrishna Mission Medical Service Center,,,23.77395,90.3571,27 Ram Krishna Mission Rd,Private hospital,Hospital,all,0,,,4.7,,,,,,,,,,,
510,Metropolitan Medical Centre Ltd.,,http://www.mmclbd.net/,23.77402,90.3984,46 Shaheed Taj Uddin Ahmed Sarani Tangail Bus Stand Er Kache,Private hospital,Clinic,all,0,,,3.7,,,,,,,,,,,
511,National Institute of Traumatology and Orthopaedic Rehabilitation (NITOR),,https://www.gstatic.com/images/icons/material/system_gm/1x/public_gm_blue_24dp.png,23.7741,90.3704,Sayed Mahbub Morshed Rd,Private hospital,Hospital,Orthopedic,0,,,4.3,,,,,,,,,,,
512,National Institute of Opthalmology & Hospital,,,23.7741,90.3704,Opposite National Traumatology Institute Syed Mahbub Sayed Mahbub Morshed Rd,Government hospital,Hospital,Ophthalmology,0,,,4.1,,,,,,,,,,,
513,Gulshan Medicare,,http://www.gulshanmedicalbd.com/,23.77439,90.4217,3rd Floor Lotus Kamal Tower - 2 59 61 Gulshan South Avenue,Private hospital,Hospital,all,0,,,3.4,,,,,,,,,,,
514,Mercy Promy,,,23.77481,90.3659,RC66+4XQ,Private hospital,Hospital,all,0,,,,,,,,,,,,,,
515,DNA Solution Ltd,,_,23.77542,90.3646,Bridge Momtaj Height 2 Mirpur Rd Dhaka Bangladesh,Private hospital,Diagnostic,all,0,,_,_,0,0,0,0,1,1,1,0,0,0,
516,M.R Center,,,23.77544,90.3989,Shorgo Level-10th House # # # E Banani C/A 1213. 49 Rd No 17,Private hospital,Hospital,all,0,,,5,,,,,,,,,,,
517,Fatema Dental Care,,https://www.facebook.com/Fatema-Dental-Care-107065095378815/,23.77569,90.4018,কলেরা হাসপাতালের পিছনে জিপি ক -৬৪ মহাখালী দক্ষিণ পাড়া,Private hospital,Hospital,Dental,0,,,5,,,,,,,,,,,
518,Sami Dental Care,,,23.7757,90.4018,KA-68/2,Private hospital,Hospital,Dental,0,,,4.2,,,,,,,,,,,
519,Universal Medical College & Hospital,10667 09612 808080,umchltd.com,23.77617,90.3957,74G/75 Pea-cock Square New Airport Road Dhaka 1215 Bangladesh,Private hospital,Medical college hospital,all,1,350,4,3.8,1,1,1,1,1,1,1,1,1,1,umchltd.com
520,The ENT and Head Neck Cancer Hospital and Institute,,https://www.gstatic.com/images/icons/material/system_gm/1x/public_gm_blue_24dp.png,23.77623,90.4094,Plot No.-F 12 W Agargaon,Private hospital,Hospital,all,0,,,4.4,,,,,,,,,,,
521,Cancr Hospital,,,23.77623,90.4094,14 Purana Paltan,Private hospital,Hospital,all,0,,,5,,,,,,,,,,,
522,Bangladesh Specialized Hospital Ltd. (BSHL),09666-700100,www.bdspecializedhospital.com,23.77649,90.3629,21 Mirpur Rd Dhaka 1207 Bangladesh,Private hospital,Hospital,all,0,,3.5,3.3,1,1,1,1,1,1,1,1,0,0,www.bdspecializedhospital.com
523,National Institute of Cancer Research & Hospital (NICRH),,http://nicrh.gov.bd/,23.77662,90.4037,TB Gate Rd,Government hospital,Hospital,cancer,0,,,4.3,,,,,,,,,,,
524,National Institute of Cardiovascular Diseases,,,23.77662,90.4037,,Private hospital,Diagnostic,Heart,0,,,4.2,,,,,,,,,,,
525,International Centre for Diarrheal Disease Research Bangladesh,,http://www.icddrb.org/,23.7771,90.3985,Shaheed Tajuddin Ahmed Ave,Private hospital,Hospital,all,0,,,4.6,,,,,,,,,,,
526,National Healthcare Network (NHN),,,23.7771,90.4005,Rajlakshmi Over Bridge,Private hospital,Hospital,all,0,,,4.7,,,,,,,,,,,
527,National Eye Hospital,,,23.77711,90.4258,7 Road-27,Private hospital,Hospital,Eye,0,,,3,,,,,,,,,,,
528,Dhaka New Lions Eye Hospital,,https://maps.gstatic.com/consumer/images/icons/1x/ic_directions_gm_blue_24px.png,23.77711,90.4258,QCGG+R96,Private hospital,Hospital,Eye,0,,,3.8,,,,,,,,,,,
529,FAIRWAYS MEDICAL CENTRE,880-2-9872883 880-2-9872942,https://www.fairwaysmedicalbd.com/,23.77746,90.4163,House:25 Taj Marriot 1st Floor ?????? ?????? ???? 1212 Bangladesh,Private hospital,Diagnostic,Diagnostic,0,,_,_,0,0,0,0,1,1,1,0,0,0,https://www.fairwaysmedicalbd.com/
530,Fairways Medical Centre Ltd.,,http://labaidgroup.com/specialized,23.77753,90.4166,1st Floor House:25 Taj Marriot Gulshan Ave,Private hospital,Hospital,all,0,,,4.5,,,,,,,,,,,
531,National Center for Hearing and Speech for Children (SAHIC),,http://sahic.org/,23.77769,90.3997,Mohakhali Health Complex Unnamed Road,Private hospital,Hospital,all,0,,,4.2,,,,,,,,,,,
532,DNCC Dedicated Covid-19 Hospital Mohakhali Dhaka-1212,,http://www.dncc-dch.gov.bd/,23.77781,90.397,Shaheed Tajuddin Ahmed Ave,Private hospital,Hospital,all,0,,,4.1,,,,,,,,,,,
533,Aalok Healthcare Ltd.(Mohakhali-SAHIC),,http://www.aalokhealthcare.com/,23.77781,90.397,Q9GX+RR,Private hospital,Diagnostic,Diagnostic,0,,,,,,,,,,,,,,
534,Popular Medical College Hospital,,http://www.pmch-bd.org/,23.77788,90.4111,House # 25 25 Road No. 2,Private hospital,Medical college hospital,all,1,,,3.9,,,,,,,,,,,
535,Rushmono Specialized Hospital,,http://www.rushmono.com/,23.77794,90.3995,Mogbazar Plaza 209 Outer Circular Rd,Private hospital,Hospital,all,0,,,3.5,,,,,,,,,,,
536,Bangladesh Specialized Hospital,,http://www.bdspecializedhospital.com/,23.77794,90.3995,21 Mirpur Rd,Private hospital,Hospital,all,0,,,3.3,,,,,,,,,,,
537,Super Specialized Hospital BSMMU,,http://www.bsmmu.edu.bd/,23.77794,90.3995,P9RW+76P Kazi Nazrul Islam Ave,Private hospital,Hospital,all,0,,,4.8,,,,,,,,,,,
538,ICU Specialized Hospital Ltd.,,,23.77794,90.3995,9/A Nawab Katra Nimtoli Ln,Private hospital,Hospital,all,0,,,4.3,,,,,,,,,,,
539,Uttara Lake View Specialized Hospital (Pvt.) LTD.,,,23.77794,90.3995,House#34 10B Rd # 5A,Private hospital,Hospital,all,0,,,3.8,,,,,,,,,,,
540,Dhaka Specialized Hospital,,http://www.dhakaspecializedhospital.com/,23.77794,90.3995,78 Gausul Azam Ave,Private hospital,Hospital,all,0,,,4.8,,,,,,,,,,,
541,IBN Sina Specialized Hospital,,https://www.ibnsinatrust.com/,23.77794,90.3995,H.No 68 Rd Number 15,Private hospital,Hospital,all,0,,,4.3,,,,,,,,,,,
542,Super Specialized Hospital (2),,,23.77794,90.3995,79 Satmasjid Road,Private hospital,Hospital,all,0,,,1,,,,,,,,,,,
543,Liver Gastric Colorectal Specialized Hospital,,,23.77794,90.3995,P9RF+RG3 Satmasjid Road,Private hospital,Hospital,all,0,,,5,,,,,,,,,,,
544,Famous Specialized Hospital,,https://maps.gstatic.com/consumer/images/icons/1x/ic_directions_gm_blue_24px.png,23.77794,90.3995,House-05 Block-H Main Road,Private hospital,Hospital,all,0,,,4.2,,,,,,,,,,,
545,Banani Clinic Ltd-Specialized Hospital,,https://m.facebook.com/bananihospital/,23.77794,90.3995,Block-C House # 116 Rd No-15,Private hospital,Hospital,all,0,,,4,,,,,,,,,,,
546,CURE Specialized hospital ltd,,,23.77794,90.3995,109 Bir Uttam Ziaur Rahman Rd,Private hospital,Hospital,all,0,,,2.4,,,,,,,,,,,
547,Aurora Specialized Hospital Ltd.,,https://ssl.gstatic.com/local/servicebusiness/default_user.png,23.77794,90.3995,19/1 Khulna Trade Square opposite Karnafuli Garden City Bir Uttam Samsul Alam Sarak Kakrail,Private hospital,Hospital,all,0,,,5,,,,,,,,,,,
548,Millennium Specialized Hospital Ltd.,,https://ssl.gstatic.com/local/servicebusiness/default_user.png,23.77794,90.3995,·,Private hospital,Hospital,all,0,,,4.3,,,,,,,,,,,
549,MEDILIFE SPECIALIZED HOSPITAL LTD,,,23.77794,90.3995,4 Mitford Tower 5 Mitford Rd,Private hospital,Hospital,all,0,,,3.4,,,,,,,,,,,
550,Bangladesh Trauma Specialized Hospital,,⋅ Opens 8 AM Wed,23.77794,90.3995,Q999+V29,Private hospital,Hospital,all,0,,,4.5,,,,,,,,,,,
551,BANGLADESH SPINE & ORTHOPAEDIC GENERAL HOSPITAL,,_,23.77815,90.3605,10 Mirpur Rd Dhaka 1207 Bangladesh,Private hospital,Hospital,Orthopedic,0,,_,_,0,0,0,0,1,1,1,0,0,0,
552,Ibn Sina Medical College Hospital,10615 +88 09610010615,ibnsinatrust.com,23.77833,90.3618,Kallyanpur Dhaka 1216 Bangladesh,Private hospital,Medical college hospital,all,1,,3.2,4.2,1,1,1,1,1,1,1,1,1,1,ibnsinatrust.com
553,Level 5 Doctors,,,23.77849,90.3612,Rd Number 4,Private hospital,Diagnostic,heart,0,,,,,,,,,,,,,,
554,mita clinic,,https://maps.gstatic.com/consumer/images/icons/1x/ic_directions_gm_blue_24px.png,23.77897,90.428,1212 Madhya Badda Bazar Rd,Private hospital,Clinic,all,0,,,,,,,,,,,,,,
555,Japan Medical Center (Middle Badda Branch),,_,23.77981,90.4237,Middle Badda Dhaka 1212 Bangladesh,Private hospital,Clinic,all,0,,_,_,0,0,0,0,1,1,1,0,0,0,
556,Life Aid Family Vaccination,,,23.78014,90.3606,House#25 Road #12 Sector#03 2nd floor Uttara. Dhaka 1230 Dhaka,Private hospital,Clinic,all,0,,,,,,,,,,,,,,
557,Renaissance Hospital & Research Institute Ltd.,,,23.78021,90.3542,4/A Road No. 4A,Private hospital,Hospital,all,0,,,3.6,,,,,,,,,,,
558,Alit daigunesti sentar,,,23.78025,90.4102,Q9CR+F2R Bir Uttam Ziaur Rahman Rd,Private hospital,Hospital,all,0,,,,,,,,,,,,,,
559,RAFA MEDICAL SERVICES,01715-090807,https://dactarachen.com/en/hospital/299/rafa-medical-services-dhaka,23.78043,90.4078,50 Bir Uttam AK Khandakar Rd Dhaka 1212 Bangladesh,Private hospital,Diagnostic,Diagnostic,0,,3.4,4,0,0,0,0,1,1,1,0,0,0,https://dactarachen.com/en/hospital/299/rafa-medical-services-dhaka
560,Doctors support Centre,,,23.78046,90.4055,74 B/A Wierless Gate Mohakhali C/A ঢাকা,Private hospital,Hospital,all,0,,,,,,,,,,,,,,
561,Lab Aid Limited (Badda),01766-660208,https://labaid.com.bd/,23.78055,90.4267,Badda Dhaka Bangladesh,Private hospital,Hospital,all,0,,3.5,4,0,0,0,0,1,1,1,0,0,0,https://labaid.com.bd/
562,Lifeline Medical Service Ltd,,,23.78056,90.4055,Rahman Mansion 75 Wireless Gate,Private hospital,Hospital,all,0,,,3.7,,,,,,,,,,,
563,Bumrungrad International Hospital Bangladesh,,https://www.bumrungradbangladesh.com/,23.78061,90.3994,154 Rd 11,Private hospital,Hospital,all,0,,,5,,,,,,,,,,,
564,Al Sami Hospital,,https://maps.gstatic.com/consumer/images/icons/1x/ic_directions_gm_blue_24px.png,23.78066,90.4263,Adarsh Nagar Rd,Private hospital,Hospital,all,0,,,3.4,,,,,,,,,,,
565,Al-Sami Hospital Collection Booth,,https://maps.gstatic.com/consumer/images/icons/1x/ic_directions_gm_blue_24px.png,23.78066,90.4263,P-2/2 South Badda Badda,Private hospital,Medical college hospital,all,1,,,4,,,,,,,,,,,
566,STS Life Care Center,,,23.78074,90.4053,House No-3 Level-3 Sima Blossom Road No-16 Dhanmondi,Private hospital,Diagnostic,Diagnostic,0,,,5,,,,,,,,,,,
567,BIEDEM (BIHS) Gulshan,,https://maps.gstatic.com/consumer/images/icons/1x/ic_directions_gm_blue_24px.png,23.78074,90.4126,building 19 20 Rd 113,Private hospital,Hospital,all,0,,,5,,,,,,,,,,,
568,Gulshan shasthoseba kendra,,https://maps.gstatic.com/consumer/images/icons/1x/ic_directions_gm_blue_24px.png,23.78074,90.4126,QCR9+2V3 Rd No 113/A,Private hospital,Hospital,all,0,,,5,,,,,,,,,,,
569,Life Care Medical Center,,,23.78074,90.4053,JA 28 8-D Bir Uttam AK Khandakar Rd,Private hospital,Clinic,all,0,,,4.5,,,,,,,,,,,
570,Euro-Bangla Heart Hospital,,,23.75375403757465 90.36749358105313,90.36749,5/7 Lalmatia Girls College Rd,Private hospital,Diagnostic,Heart,0,,,3.6,,,,,,,,,,,
571,Sara Medical Center,,http://sara-medical.com/,23.78143,90.4235,World Business Centrum 76/A 1213 Road No. 11,Private hospital,Clinic,all,0,,,5,,,,,,,,,,,
572,SURECELL MEDICAL (BD) LIMITED,09612-667777,surecellbd.com,23.78151,90.416,Plot 2 Rd 21 Dhaka 1212 Bangladesh,Private hospital,Hospital,all,0,,3,4.3,0,0,0,0,1,1,1,0,0,0,surecellbd.com
573,Bangladesh Thalassemia & Cancer Hospital,,https://maps.gstatic.com/consumer/images/icons/1x/ic_directions_gm_blue_24px.png,23.78173,90.3513,House-6 Banasree Main Rd,Private hospital,Hospital,all,0,,,1,,,,,,,,,,,
574,Bangladesh Eye Hospital Mirpur,,http://mirpur.bdeyehospital.com/,23.78173,90.3513,Sumi Tower 66 Zoo Road,Private hospital,Hospital,Eye,0,,,4.7,,,,,,,,,,,
575,Sahic (Institute of Public Health ),,https://sahic.org/,23.78217,90.407,Institute of Public Health Road,Private hospital,Hospital,all,0,,,4.4,,,,,,,,,,,
576,Bangladesh Institute Of Health Sciences (BIHS) General,01783-917151,_,23.78218,90.3527,125 1 Darus Salam Rd Dhaka 1216 Bangladesh,Government hospital,Hospital,all,0,650,3,4.1,1,1,0,1,1,1,1,1,1,1,
577,Asgar Ali Hospital - Finance Department,,https://ssl.gstatic.com/local/servicebusiness/default_user.png,23.78218,90.4074,PC5F+555 Distilary Rd,Private hospital,Hospital,all,0,,,4.5,,,,,,,,,,,
578,Ibn Sina Diagnostic and Consultation Centre Badda,10615 +88 09610010615,ibnsinatrust.com,23.78319,90.4257,Cha-72/1 Progoti Soroni Dhaka 1212 Bangladesh,Private hospital,Diagnostic,Diagnostic,0,,3.2,4.2,1,1,1,1,1,1,1,1,1,1,ibnsinatrust.com
579,IBN SINA MEDICAL CHECK-UP UNIT,01847-262990,www.ibnsinamedicalbd.com,23.7832,90.4255,A J Heights Bir Uttam Rafiqul Islam Ave Dhaka 1212 Bangladesh,Private hospital,Diagnostic,Diagnostic,0,,3,3,0,0,0,0,1,1,1,0,0,0,www.ibnsinamedicalbd.com
580,AMZ Hospital LTD,1847331047,wp.amzhospitalbd.com,23.78427,90.426,Uttar Badda Dhaka 1212 Bangladesh,Private hospital,Hospital,all,0,,3.2,4.2,0,0,1,1,1,1,1,0,0,0,wp.amzhospitalbd.com
581,Brothers Telecom & Servicing Centre,,https://maps.gstatic.com/consumer/images/icons/1x/ic_directions_gm_blue_24px.png,23.78428,90.4269,,Private hospital,Hospital,all,0,,,,,,,,,,,,,,
582,BADDA GENERAL HOSPITAL.,,_,23.78449,90.4255,107/2 Uttar Badda Progoti Sarani QCHG+MHV Dhaka 1212 Bangladesh,Private hospital,Hospital,all,0,,_,_,0,0,0,0,1,1,1,0,0,0,
583,Badda General Hospital Pvt. Ltd.,,,23.78453,90.4258,QCHG+MHV 107/2 Uttar Badda Progoti Sarani,Private hospital,Hospital,all,0,,,3.8,,,,,,,,,,,
584,Ahsania Mission Cancer and General Hospital - AMCGH,,http://www.amcghbd.org/,23.78453,90.4258,Plot-03  Embankment Drive Way Sector-10  Uttara Model Town,Private hospital,Hospital,all,0,,,4.3,,,,,,,,,,,
585,T&T Colony Clinic,,,23.78514,90.3568,,Government hospital,Clinic,all,0,,,,,,,,,,,,,,
586,Dr Rokeya's Clinic,,https://maps.gstatic.com/consumer/images/icons/1x/ic_directions_gm_blue_24px.png,23.7856,90.4237,QCJH+7PG,Private hospital,Clinic,all,0,,,,,,,,,,,,,,
587,napa medical hall,,https://maps.gstatic.com/consumer/images/icons/1x/ic_directions_gm_blue_24px.png,23.78684,90.4294,222alir mour Satarkul Rd,Private hospital,Hospital,all,0,,,5,,,,,,,,,,,
588,Sultan General Hospital,,http://sultangeneralhospital.com/,23.78703,90.3478,84 Dhaka - Mymensingh Hwy,Government hospital,Hospital,all,0,,,4,,,,,,,,,,,
589,National Healthcare Network Ibrahim General Hospital Birdem Mirpur,,http://www.nhn-dab.org.bd/,23.78703,90.3478,Commercial Plot No: 27-28 Main Road 01 mirpur,Private hospital,Hospital,all,0,,,4.1,,,,,,,,,,,
590,Sebika General Hospital,,,23.78703,90.3478,Q9F8+442 Pisciculture Housing Society,Private hospital,Hospital,all,0,,,3.4,,,,,,,,,,,
591,Dhaka Crown Medical Centre,02-8832224,http://www.dhakacrownmedicalbd.com/,23.78705,90.4256,Fuji Tower (1st Floor) Cha-87/C North Badda Dhaka-1212 ???? 1212 Bangladesh,Private hospital,Diagnostic,all,0,,3,3.2,0,0,0,0,1,1,1,0,0,0,http://www.dhakacrownmedicalbd.com/
592,Dogma Hospital Ltd,01921-088076,http://www.dogmahospital.com/,23.78758,90.4256,88/1 Cha Dhaka 1212 Bangladesh,Private hospital,Hospital,all,0,,_,_,0,0,0,0,1,1,1,0,0,0,http://www.dogmahospital.com/
593,Shaheed Suhrawardy Medical College and Hospital,,http://www.shsmc.gov.bd/,23.78825,90.3539,,Government hospital,Medical college hospital,all,1,,,4.2,,,,,,,,,,,
594,MH Samorita Hospital & Medical College,,http://www.mhsamorita.edu.bd/,23.78825,90.3539,117 Love Rd,Private hospital,Medical college hospital,all,1,,,4.1,,,,,,,,,,,
595,Shaheed Monsur Ali Medical College and Hospital,,http://www.smamedicalcollege-bd.com/,23.78825,90.3539,House 26 & 26A Road No. 10A,Private hospital,Medical college hospital,all,1,,,4.1,,,,,,,,,,,
596,Anwer Khan Modern Medical College Hospital,,http://akmmch.com/,23.78825,90.3539,house-17 Rd No. 8,Private hospital,Medical college hospital,all,1,,,3.9,,,,,,,,,,,
597,Essence Homoeopathy Medical Center,01817-014540,_,23.78866,90.4088,House#74 House#74 7 Rd No 7 Dhaka 1212 Bangladesh,Private hospital,Diagnostic,all,0,,3,3,0,0,0,0,1,1,1,0,0,0,
598,LABAID GULSHAN,,http://labaidgroup.com/specialized,23.78943,90.4163,House # 13/A(4th Floor Road#35,Private hospital,Hospital,all,0,,,3.7,,,,,,,,,,,
599,Mohaimid Medical Center,,https://maps.gstatic.com/consumer/images/icons/1x/ic_directions_gm_blue_24px.png,23.7896,90.3874,মাদানী সরণি,Private hospital,Hospital,all,0,,,2.7,,,,,,,,,,,
600,Dr. A R Khan Hospital Pathology Unit,1977255680,_,23.78969,90.3416,45 Harirampur Darussalam Mirpur Dhaka 1216 Bangladesh,Private hospital,Hospital,all,0,,3,3.1,0,0,0,0,1,1,1,0,0,0,
601,Dr. A R Khan Hospital Dental Unit,1977255680,_,23.78969,90.3416,45 Harirampur Darussalam Mirpur Dhaka 1216 Bangladesh,Private hospital,Hospital,Dental,0,,3,3.1,0,0,0,0,1,1,1,0,0,0,
602,Cure Medical Center,,,23.79008,90.4249,16 Rd No 16 Dhaka 1212 Rd 16,Private hospital,Hospital,all,0,,,4.5,,,,,,,,,,,
603,CONFIDENCE DIAGNOSTIC LTD,,_,23.79056,90.3754,820 Mamun Tower Shewrapara Bus Stand (West Side) ???? Bangladesh,Private hospital,Diagnostic,Dental,0,,_,_,0,0,0,0,1,1,1,0,0,0,
604,Parkway Health DMRC,,,23.79057,90.407,Suit B-3 Level 4 House 10 Rd 53,Private hospital,Hospital,all,0,,,4,,,,,,,,,,,
605,Aalo Clinic Karail,,,23.79108,90.3754,South of Banani Ansar Camp Karail Jamai Bazar,Private hospital,Clinic,all,0,,,5,,,,,,,,,,,
606,Prescription Point Ltd. Badda Branch,,_,23.79115,90.4082,Block-E ???? 1212 Bangladesh,Private hospital,Diagnostic,all,0,,_,_,0,0,0,0,1,1,1,0,0,0,
607,H.A.F General Hospital,,https://maps.gstatic.com/consumer/images/icons/1x/ic_directions_gm_blue_24px.png,23.79119,90.4285,QCQG+575,Private hospital,Hospital,all,0,,,3.2,,,,,,,,,,,
608,Sunnah Prescription Point,,https://maps.gstatic.com/consumer/images/icons/1x/ic_directions_gm_blue_24px.png,23.79138,90.4081,QCQF+WV3,Private hospital,Hospital,all,0,,,5,,,,,,,,,,,
609,ZAINUL HAQUE SIKDER WOMEN'S MEDICAL COLLEGE & HOSPITAL (PVT.) LTD.,,http://www.sikderhospital.net/,23.7915,90.4204,ZAINUL HAQUE SIKDER WOMEN'S MEDICAL COLLEGE & HOSPITAL (PVT.) LTD House # 5 Rd 104,Private hospital,Medical college hospital,all,1,,,4.1,,,,,,,,,,,
610,NAFA MEDICAL CENTRE,09612-441155,https://www.nafamedicalbd.com/,23.79189,90.4014,House # 30 Road # 4 Block # C Banani Dhaka 1213 Bangladesh,Private hospital,Diagnostic,Diagnostic,0,,3,3.4,0,0,0,0,1,1,1,0,0,0,https://www.nafamedicalbd.com/
611,Gulshan Clinic Ltd.,,_,23.7919,90.4249,13/ GA Progoti Sarani Dhaka 1212 Bangladesh,Private hospital,Clinic,all,0,,_,_,0,0,0,0,1,1,1,0,0,0,
612,Al Ghofily Medical centre,,_,23.7921,90.4087,17/A Road No. 17A Dhaka 1213 Bangladesh,Private hospital,Diagnostic,all,0,,_,_,0,0,0,0,1,1,1,0,0,0,
613,Thyrocare Bangladesh Limited,,_,23.79259,90.4242,Confidence Centre (12th floor) Kha-9 Pragoti Prof. Abdullah Sarani Dhaka 1212 Bangladesh,Private hospital,Diagnostic,all,0,,_,_,0,0,0,0,1,1,1,0,0,0,
614,Rahman Diagnostic & Consultation Center,01918-737979,_,23.79276,90.2708,Q7VC+485 Hemayetpur Bangladesh,Private hospital,Diagnostic,Diagnostic,0,,_,3,0,0,0,0,1,1,1,0,0,0,
615,GULF MEDICAL CENTRE LTD.,02 222276324,https://www.gulfmedicalbd.com/,23.79282,90.4056,House # 17 Road # 17 Block # D) Banani Dhaka-1213 Bangladesh Tel: 880-2-9894653 Dhaka ???? 1212 Bangladesh,Private hospital,Diagnostic,all,0,,3,3.5,0,0,0,0,1,1,1,0,0,0,https://www.gulfmedicalbd.com/
616,Aalok Healthcare Ltd,10672,https://www.aalokhealthcare.com/,23.79306,90.3883,4th & 5th Floor Rajanigandha Tower Kachukhet Rd Dhaka 1206 Bangladesh,Private hospital,Diagnostic,Diagnostic,0,,3.2,3.6,0,0,0,0,1,1,1,0,0,0,https://www.aalokhealthcare.com/
617,Praava Health Bangladesh Ltd.,,_,23.79335,90.4024,Plot 9 Rd No 17 Dhaka 1212 Bangladesh,Private hospital,Hospital,all,0,,_,_,0,0,0,0,1,1,1,0,0,0,
618,Praava Health Bangladesh Ltd,,_,23.79335,90.4024,Plot 9 Rd No 17 Dhaka 1212 Bangladesh,Private hospital,Hospital,all,0,,_,_,0,0,0,0,1,1,1,0,0,0,
619,Al-Falah Medicom Clinic (Pvt.) Ltd.,02 9881107 9894462,https://www.alfalahmedicalbd.com/,23.79337,90.4005,Kakoli Foot-Overbridge Dhaka 1212 Bangladesh,Private hospital,Clinic,all,0,,3.2,3.7,0,0,0,0,1,1,1,0,0,0,https://www.alfalahmedicalbd.com/
620,Medison Medical Services Limited.,,_,23.7934,90.4035,Rangs Paramount 2 1st Floor House - 11 Road - 17 Block - K ???? 1213 Bangladesh,Private hospital,Hospital,all,0,,_,_,0,0,0,0,1,1,1,0,0,0,
621,twelve rivers trust,,https://maps.gstatic.com/consumer/images/icons/1x/ic_directions_gm_blue_24px.png,23.79341,90.4085,Flat-6C H-7 Rd 33,Private hospital,Hospital,all,0,,,,,,,,,,,,,,
622,Pushpo Clinic(Medical Check-up Center),01711-484819,www.pushpomedicalbd.com,23.79372,90.4007,H/101 Kakoli Dhaka - Mymensingh Hwy Mymensingh Hwy Dhaka 1212 Dhaka 1212 Bangladesh,Private hospital,Clinic,all,0,,3,3.5,0,0,0,0,1,1,1,0,0,0,www.pushpomedicalbd.com
623,Lab Aid Hospital,,,23.79427,90.4129,PC89+W4G,Private hospital,Hospital,all,0,,,3.5,,,,,,,,,,,
624,The Labaid Hospital,,,23.79427,90.4129,PC8H+52P MollaTowar Soy Tala Bus stand Jamghora Ashulia,Private hospital,Hospital,all,0,,,5,,,,,,,,,,,
625,Chandshi Medical Centre Ltd,1918129245,_,23.79439,90.4091,Block � k House # 16 Rd No.28 Dhaka 1213 Bangladesh,Private hospital,Diagnostic,all,0,,3,2.8,0,0,0,0,1,1,1,0,0,0,
626,Combined Hospital Ltd,01704-741633,_,23.79448,90.3856,1090 1 Ibrahimpur Bazar Rd Dhaka Bangladesh,Private hospital,Hospital,all,0,,3.5,3.5,0,0,0,0,1,1,1,0,0,0,
627,Aalok Healthcare Ltd (Mirpur-1),10672,https://aalokhealthcare.com/branch_two.php,23.79458,90.3534,21 Darus Salam Rd Dhaka 1216 Bangladesh,Private hospital,Diagnostic,all,0,,3.5,3.5,0,0,0,0,1,1,1,0,0,0,https://aalokhealthcare.com/branch_two.php
628,AL- Humayra Health Centre Ltd.,2222294532,https://www.al-humyramedicalbd.com/,23.79535,90.4246,H.No 6 1st And 2nd Floor Block J 2/B Road Baridhara Batara Dhaka 1212 Bangladesh,Private hospital,Diagnostic,all,0,,3,4,1,0,0,1,1,1,1,0,0,0,https://www.al-humyramedicalbd.com/
629,Diabari Health Center,,,23.79548,90.3417,·,Private hospital,Hospital,all,0,,,4.8,,,,,,,,,,,
630,Upasham Health Point (Pvt.) Ltd.,01932-200200,https://upashamdhaka.com/,23.79551,90.4255,H-14 R-2/B J Block Baridhara Vatara Dhaka-1212 Dhaka Dhaka 1212 Bangladesh,Private hospital,Hospital,all,0,,3,3.8,0,0,0,0,1,1,1,0,0,0,https://upashamdhaka.com/
631,Banani Clinic Limited,,https://m.facebook.com/bananihospital/,23.79567,90.4011,Block-C House # 116 Rd No-15,Private hospital,Clinic,all,0,,,4,,,,,,,,,,,
632,Banani Clinic Ltd.,,,23.79567,90.4011,QCC4+WQJ Rd No 13C,Private hospital,Clinic,all,0,,,4,,,,,,,,,,,
633,Banani Clinic Ltd,,https://m.facebook.com/bananihospital/,23.79567,90.4011,Block-C House # 116 Rd No-15,Private hospital,Clinic,all,0,,,4,,,,,,,,,,,
634,SAIC DIGITAL DIAGNOSTIC LAB,,_,23.79601,90.3531,10 Chand Plaza ???? 1216 Bangladesh,Private hospital,Diagnostic,Diagnostic,0,,_,_,0,0,0,0,1,1,1,0,0,0,
635,Madani Hospital Ltd.,,https://maps.gstatic.com/consumer/images/icons/1x/ic_directions_gm_blue_24px.png,23.79623,90.4189,1016 Vhatara Rd,Private hospital,Hospital,all,0,,,5,,,,,,,,,,,
636,REMICON HEALTH SERVICES LTD,01978-000730,remicon-health-services-ltd.business.site,23.79657,90.3873,9 14 Kachukhet Rd Dhaka 1206 Bangladesh,Private hospital,Clinic,all,0,,3,3,0,0,0,0,1,1,1,0,0,0,remicon-health-services-ltd.business.site
637,Mirpur Holy Crescent Hospital (Pvt) Ltd.,,_,23.79663,90.3505,195 Mazar Rd Dhaka 1216 Bangladesh,Private hospital,Hospital,all,0,,_,_,0,0,0,0,1,1,1,0,0,0,
638,Crescent Hospital Limited,,,23.79683,90.3521,22/2 Mirpur Rd,Private hospital,Hospital,all,0,,,3.7,,,,,,,,,,,
639,Mirpur Holy Crescent Hospital (Pvt.) Ltd.,,,23.79683,90.3521,195 Mazar Rd,Private hospital,Hospital,all,0,,,3.6,,,,,,,,,,,
640,Gulshan Maa O Shishu Clinic Ltd.,,https://www.gstatic.com/images/icons/material/system_gm/1x/public_gm_blue_24dp.png,23.79696,90.4254,Yes,Private hospital,Clinic,all,0,,,4.5,,,,,,,,,,,
641,Gulshan Maa O Shishu Clinic Limited,,https://maps.gstatic.com/consumer/images/icons/1x/ic_directions_gm_blue_24px.png,23.79696,90.4254,QCWG+R5Q Kolotan School Rd,Private hospital,Clinic,all,0,,,3.6,,,,,,,,,,,
642,Medison Diagnostic Center,01878-051011,https://medison-diagnostic-center.business.site/,23.79714,90.3531,#3 Darus Salam Rd Dhaka Bangladesh,Private hospital,Diagnostic,Diagnostic,0,,3,3.2,0,0,0,0,1,1,1,0,0,0,https://medison-diagnostic-center.business.site/
643,PCOS Centre Bangladesh,,,23.79726,90.3718,Flat 4C House PeriWinkle 12 Rd 126,Private hospital,Clinic,all,0,,,,,,,,,,,,,,
644,Universal Medical Checkup Center,,https://umccbd.com/,23.79734,90.4273,52 (Old Ka 15/6 Shaheed Tajuddin Ahmed Ave,Private hospital,Hospital,all,0,,,,,,,,,,,,,,
645,Shuprovath Family Clinic,,https://maps.gstatic.com/consumer/images/icons/1x/ic_directions_gm_blue_24px.png,23.7975,90.3661,RC59+CJF,Private hospital,Clinic,all,0,,,,,,,,,,,,,,
646,B.M. Hospital,,,23.79764,90.3539,·,Private hospital,Hospital,all,0,,,4,,,,,,,,,,,
647,Mirpur general hospital physiotherapy centre,,,23.798,90.3524,R9C9+97M Kalshi Rd,Private hospital,Hospital,all,0,,,4.8,,,,,,,,,,,
648,FARAZY DIAGNOSTIC & HOSPITAL LTD,02-8832668,https://specialistdoctorsbd.com/farazy-diagnostic-hospital/,23.79802,90.4278,QCXH+644 Dhaka 1212 Bangladesh,Private hospital,Diagnostic,Diagnostic,0,,3.2,4.1,0,0,0,0,1,1,1,0,0,0,https://specialistdoctorsbd.com/farazy-diagnostic-hospital/
649,Farazy Diagonistic & Hospital Ltd Natun Bazar,,https://maps.gstatic.com/consumer/images/icons/1x/ic_directions_gm_blue_24px.png,23.79818,90.4279,QCXH+644,Private hospital,Hospital,all,0,,,4.1,,,,,,,,,,,
650,M RAHMAN MEDICAL & DIAGONISTIC CENTER,01958-527208,https://mrahmanmedicalbd.com/,23.79825,90.426,Dag No- 9132 Dhaka 1229 Bangladesh,Private hospital,Diagnostic,Diagnostic,0,,3,3.2,0,0,0,0,1,1,1,0,0,0,https://mrahmanmedicalbd.com/
651,Delta Health Care Rampura Limited,,https://www.gstatic.com/images/icons/material/system_gm/1x/public_gm_blue_24dp.png,23.79828,90.3855,Yes,Private hospital,Hospital,all,0,,,3.6,,,,,,,,,,,
652,Al-Rajhi Hospital Pvt. Ltd.,,,23.79836,90.354,Concord Center Point Kazi Nazrul Islam Ave,Private hospital,Hospital,all,0,,,4.2,,,,,,,,,,,
653,Mohaimid Medical Centre,1755501555,_,23.79849,90.4359,?????? ???? Dhaka 1212 Bangladesh,Private hospital,Clinic,all,0,,3,3,0,0,0,0,1,1,1,0,0,0,
654,Unique General Hospital,,,23.79856,90.3506,House No.17 Road No.1 Block-F Mirpur-1 Beside Electric Office,Private hospital,Hospital,all,0,,,,,,,,,,,,,,
655,Reliance Medical Services,,,23.79857,90.3868,QCJ5+677,Private hospital,Diagnostic,Diagnostic,0,,,4.2,,,,,,,,,,,
656,Hemayetpur Central Hospital (Diagnostic Unit),01679-304547,_,23.79864,90.268,Hemayetpur Bangladesh,Private hospital,Diagnostic,Diagnostic,0,,3,3.2,0,0,0,0,1,1,1,0,0,0,
657,Labaid Ltd (Diagnostic) Mirpur,10606,https://labaid.com.bd/en/diagnostic/labaid-diagnostic-mirpur,23.79896,90.3541,Rawshan Ara Tower House-06 Block-B Section-01 Kalwalipara Mirpur-01 Dhaka Dhaka 1216 Bangladesh,Private hospital,Diagnostic,Diagnostic,0,,3.5,3.6,0,0,0,0,1,1,1,0,0,0,https://labaid.com.bd/en/diagnostic/labaid-diagnostic-mirpur
658,Labaid Ltd (Diagnostic) Pallabi,10606,https://labaid.com.bd/,23.79896,90.3541,Rawshan Ara Tower House-06 Block-B Section-01 Kalwalipara Mirpur-01 Dhaka Dhaka 1216 Bangladesh,Private hospital,Diagnostic,Diagnostic,0,,4,4.5,1,1,1,1,1,1,1,1,1,1,https://labaid.com.bd/
659,Gopalganj Medical And Diagnostic,,_,23.79916,90.4017,H-102 5 Dhaka - Mymensingh Hwy Dhaka Bangladesh,Private hospital,Diagnostic,Diagnostic,0,,_,_,0,0,0,0,1,1,1,0,0,0,
660,Lions Eye Hospital,,https://www.gstatic.com/images/icons/material/system_gm/1x/public_gm_blue_24dp.png,23.79922,90.3544,Closes soon,Private hospital,Hospital,Eye,0,,,3.8,,,,,,,,,,,
661,Lions Eye Institute & Hospital,,,23.79922,90.3544,Lions Bhaban Begum Rokeya Prof. Abdullah Sarani,Private hospital,Hospital,Eye,0,,,4.3,,,,,,,,,,,
662,Dhaka Hospital,,,23.79928,90.3545,17 D.C RAY Rd,Private hospital,Hospital,all,0,,,3.8,,,,,,,,,,,
663,Hospital,,,23.79928,90.3545,Suite- DI House No: 17/1 Shaptak Mahbuba Grandeur Road No: 6 Dhanmondi R/A Dhaka ঢাকা,Private hospital,Hospital,all,0,,,2.4,,,,,,,,,,,
664,Makka Eye Hospital,,http://www.makkaeyehospitaluttara.com/,23.79928,90.3545,Plot No 6 Rd No. 3,Private hospital,Hospital,Eye,0,,,4.2,,,,,,,,,,,
665,Hospital 27 Plus,,,23.79928,90.3545,House# 16 Road# 16 Old 27/ Genetic Palaza Dhanmondi Dhaka,Private hospital,Hospital,all,0,,,1.9,,,,,,,,,,,
666,AMF Eye Hospital,,https://maps.gstatic.com/consumer/images/icons/1x/ic_directions_gm_blue_24px.png,23.79928,90.3545,Ta - 136 Gulshan Badda Link Rd,Private hospital,Hospital,Eye,0,,,4,,,,,,,,,,,
667,People's Eye Hospital,,https://maps.gstatic.com/consumer/images/icons/1x/ic_directions_gm_blue_24px.png,23.79928,90.3545,Hossain Market,Private hospital,Hospital,Eye,0,,,4.5,,,,,,,,,,,
668,Aalok Healthcare Ltd. (Mirpur-10),,https://www.aalokhealthcare.com/,23.79928,90.3545,House# 1& 2 Road# 2 Block# B Section # 10,Private hospital,Clinic,all,0,,,3.7,,,,,,,,,,,
669,Delta Health Care Mirpur Ltd,,,23.79928,90.3545,11 Central Mosque Bus Stand Mirpur,Private hospital,Hospital,all,0,,,3.9,,,,,,,,,,,
670,Khandker Mahbub Hossain Eye Hospital,,http://www.kmheyehospitaldhaka.com/,23.79928,90.3545,,Private hospital,Hospital,Eye,0,,,3.8,,,,,,,,,,,
671,MEDINET MEDICAL SERVICES (Main Branch),,_,23.7993,90.3549,Commercial Plot No.15 Block-B Main Road Dhaka Bangladesh,Private hospital,Clinic,all,0,,_,_,0,0,0,0,1,1,1,0,0,0,
672,Medinova medical services-Mirpur 10,,,23.7994,90.3547,R948+JXX Mirpur Rd,Private hospital,Hospital,all,0,,,4.1,,,,,,,,,,,
673,Life Aid Specialized Hospital Ltd,01796-262884,https://www.facebook.com/lifeAIDhospital2013,23.80029,90.3718,Begam Rokeya Sarani Avenue Dhaka 1216 Bangladesh,Private hospital,Hospital,all,0,,3,3.2,0,0,0,0,1,1,1,0,0,0,https://www.facebook.com/lifeAIDhospital2013
674,Newton maternity clinic,,,23.80068,90.3596,Q9X3+R2G Rd Number 6,Private hospital,Clinic,all,0,,,3.8,,,,,,,,,,,
675,Index Sales Center,,,23.80161,90.4245,Amtoli Dhaka - Mymensingh Hwy,Private hospital,Clinic,all,0,,,4,,,,,,,,,,,
676,Building-6 ~ SSMC Mitford Hospital,,,23.80195,90.378,PC62+HFH Mitford Rd,Private hospital,Hospital,all,0,,,,,,,,,,,,,,
677,Lake View Poly Clinic,,,23.80228,90.4164,Lake View Poly Clinic House-5 Rd No 79,Private hospital,Clinic,all,0,,,4.2,,,,,,,,,,,
678,Al-Helal Specialized Hospital Limited (Diagnostic Centre),,_,23.80269,90.3707,150 Begum Rokeya Sarani Mirpur-10 Dhaka Bangladesh,Private hospital,Diagnostic,Diagnostic,0,,_,_,0,0,0,0,1,1,1,0,0,0,
679,Al Helal Specialized Hospital Dhaka,,https://alhelalhospitalbd.com/,23.80269,90.3706,150 Begum Rokeya Sarani Mirpur-10,Private hospital,Hospital,all,0,,,3.5,,,,,,,,,,,
680,Meem Medical Center,,_,23.80311,90.442,Plot # 2185/A Block # I Extension Madani Ave ???? 1229 Bangladesh,Private hospital,Clinic,all,0,,_,_,0,0,0,0,1,1,1,0,0,0,
681,Exim Bank Hospital,,https://www.eximbankbd.com/,23.80314,90.3726,840 Begum Rokeya Avenue Sarani,Private hospital,Hospital,all,0,,,3.9,,,,,,,,,,,
682,Green Eye Hospital,,https://www.facebook.com/GreenEyeHospital/,23.8037,90.3616,3rd Floor Rupayan Khan Plaza Rd No. 7,Private hospital,Hospital,Eye,0,,,4.5,,,,,,,,,,,
683,OSB EYE HOSPITAL,,,23.8037,90.3616,Plot-7/2 OSB Bhaban Plot # 7/1 Road # 1 Section # 2 Mirpur Mirpur Rd,Private hospital,Hospital,Eye,0,,,3.8,,,,,,,,,,,
684,United Hospital Limited,,https://www.uhlbd.com/,23.80406,90.4157,Plot 15 Rd No 71,Private hospital,Hospital,all,0,,,4,,,,,,,,,,,
685,Probin Hospital,,,23.80406,90.4157,Q9HG+6HP Sayed Mahbub Morshed Rd,Private hospital,Hospital,all,0,,,4.3,,,,,,,,,,,
686,Lab One Foundation of Thalassemia & Hospital,,,23.8045,90.3471,House 08 রোড নং. ১২,Private hospital,Hospital,all,0,,,5,,,,,,,,,,,
687,Green Crescent Health Services,02-58810486,_,23.80546,90.421,Diplomatic Zone 60 Park Rd Dhaka 1212 Bangladesh,Private hospital,Hospital,all,0,,3,3,0,0,0,0,1,1,1,0,0,0,
688,Step rehabilitation Center,,,23.8059,90.3885,24 14 Khilji Rd,Private hospital,Hospital,all,0,,,4,,,,,,,,,,,
689,Dakterkhana Mirpur-10 Dhaka,,,23.8067,90.3688,Doctor’s Table” House-07 Lane- 03 Block- B Section- 10 Mirpur Opposite to the Mosque of Shaheed Abu Taleb School Dhaka,Private hospital,Clinic,all,0,,,,,,,,,,,,,,
690,Radda MCH-FP Centre (Mirpur-10),,http://www.raddacentre.org/,23.8067,90.3688,Plot # 03 Mirpur Rd,Private hospital,Hospital,all,0,,,4.7,,,,,,,,,,,
691,Mirpur Digital Diagnostic Ltd,,_,23.80677,90.3713,Main Road-1 ?????? ?? ?? ???????? ???? 1216 Bangladesh,Private hospital,Diagnostic,Diagnostic,0,,_,_,0,0,0,0,1,1,1,0,0,0,
692,Mirpur Digital Diagonistic Ltd,,_,23.80677,90.3713,Main Road-1 ?????? ?? ?? ???????? ???? 1216 Bangladesh,Private hospital,Diagnostic,all,0,,_,_,0,0,0,0,1,1,1,0,0,0,
693,Baridhara Genarel Hospital Ltd.,,https://maps.gstatic.com/consumer/images/icons/1x/ic_directions_gm_blue_24px.png,23.80736,90.4177,·,Private hospital,Hospital,all,0,,,3.7,,,,,,,,,,,
694,Al-Shafi Hospital,,http://www.facebook.com/alshafihospitalbd,23.80744,90.3724,House 9 Road 6 Block A Section 10 Mirpur,Private hospital,Hospital,all,0,,,2.8,,,,,,,,,,,
695,M R Dental Care,,https://maps.gstatic.com/consumer/images/icons/1x/ic_directions_gm_blue_24px.png,23.80755,90.4182,QCCG+J5P Merul Bus Stop Bir Uttam Rafiqul Islam Ave,Private hospital,Hospital,Dental,0,,,5,,,,,,,,,,,
696,Directotate Of Nursing Services And Institute,,,23.80763,90.3684,Q99F+W3J,Private hospital,Hospital,all,0,,,5,,,,,,,,,,,
697,Aalok Hospital,,,23.80782,90.4283,Q9V3+J86,Private hospital,Hospital,all,0,,,3.3,,,,,,,,,,,
698,Specialized Medical Care (SMC) Hospital,,,23.8079,90.4285,Home Tower South Matuail College Rd,Private hospital,Hospital,all,0,,,4.3,,,,,,,,,,,
699,LV Hospital,,,23.80812,90.4288,V9HV+CJH Rd No 10B,Private hospital,Hospital,all,0,,,,,,,,,,,,,,
700,IBN SINA DIAGNOSTIC & CONSULTATION CENTERMIRPUR-2,10615 +88 09610010615,ibnsinatrust.com,23.80819,90.3575,Hazi Road Shiyalbari Moor 2 Avenue 3 ???? 1216 Bangladesh,Private hospital,Diagnostic,Diagnostic,0,,3.2,4.2,1,1,1,1,1,1,1,1,1,1,ibnsinatrust.com
701,AL-MADINA MEDICAL SERVICES,#ERROR!,https://www.al-madinamedicalbd.com/index.php?page=2,23.80825,90.4218,Ka-43 6 JagannathpurProgoti Sharani Dhaka 1229 Bangladesh,Private hospital,Hospital,all,0,,_,_,0,0,0,0,1,1,1,0,0,0,https://www.al-madinamedicalbd.com/index.php?page=2
702,Dhaka Healthcare Systems Hospital,,https://maps.gstatic.com/consumer/images/icons/1x/ic_directions_gm_blue_24px.png,23.80887,90.3683,08 House # 07 Road 100 Feet Madani Ave,Private hospital,Hospital,all,0,,,5,,,,,,,,,,,
703,Dhaka Healthcare Hospital,,https://maps.gstatic.com/consumer/images/icons/1x/ic_directions_gm_blue_24px.png,23.80887,90.3683,Muktijodha Tower 1 Gohnobi Road,Private hospital,Hospital,all,0,,,4.7,,,,,,,,,,,
704,Health Care Hospital,,https://ssl.gstatic.com/local/servicebusiness/default_user.png,23.80887,90.3683,11/1 Rankin St,Private hospital,Hospital,all,0,,,3.2,,,,,,,,,,,
705,Uttara Ma o Shishu Hospital Limited,01761-908008,_,23.80902,90.4216,Dhaka 1212 Bangladesh,Private hospital,Hospital,children,0,,3.2,3.3,1,1,0,0,1,1,1,0,0,0,
706,Baridhara General Hospital Ltd.,1768612835,www.bghbd.com,23.80957,90.4208,Ka-54/1 1212 Progoti Sharani ???? 1212 Bangladesh,Private hospital,Hospital,all,0,140,3.5,4,1,1,1,1,1,1,1,1,1,1,www.bghbd.com
707,Kabiraj Bari,,https://maps.gstatic.com/consumer/images/icons/1x/ic_directions_gm_blue_24px.png,23.80957,90.4214,02 House 28 North 1212 Abdullahbag Masjid Rd,Private hospital,Hospital,all,0,,,5,,,,,,,,,,,
708,OGSB Maternity Hospital,,http://www.ogsb.org/,23.80975,90.3678,Zoo Road,Private hospital,Hospital,all,0,,,4.1,,,,,,,,,,,
709,Surovi Meternity Hospital,,,23.80975,90.3678,72 Zia Colony Road,Private hospital,Hospital,all,0,,,3.5,,,,,,,,,,,
710,B.A.V.S Maternity Hospital,,,23.80975,90.3678,7/5/1 Borobagh Main Road Mirpur-2 Beside Thana,Private hospital,Hospital,mother and chield,0,,,4,,,,,,,,,,,
711,TMSS Maternity Hospital,,,23.80975,90.3678,631/5 West Kazipara,Private hospital,Hospital,mother and chield,0,,,4.4,,,,,,,,,,,
712,Evercare Hospital Dhaka,10678,www.evercarebd.com/dhaka/,23.81027,90.4313,Plot 81 Block-E Bashundhara Rd Dhaka 1229 Bangladesh,Private hospital,Hospital,all,0,425,4.5,4.2,1,1,1,1,1,1,1,1,1,1,www.evercarebd.com/dhaka/
713,APOLLO HOSPITALS DHAKA,,,23.81027,90.4313,Plot 81 Block-E Bashundhara Rd Dhaka 1229 Bangladesh,Private hospital,Hospital,all,0,,,,,,,,,,,,,,
714,Popular Diagnostic Centre (Mirpur Unit-01),09666 78780910636,www.populardiagnostic.com,23.81029,90.3634,House # 67 Avenue # 5 Block # C Section-6 Mirpur ???? 1216 Bangladesh,Private hospital,Diagnostic,Diagnostic,0,,3.2,3.6,0,0,0,0,1,1,1,0,0,0,www.populardiagnostic.com
715,Popular Diagnostic Centre (Mirpur),09666 78780910636,www.populardiagnostic.com,23.81029,90.3634,House # 67 Avenue # 5 Block # C Section-6 Mirpur ???? 1216 Bangladesh,Private hospital,Diagnostic,Diagnostic,0,,3.2,3.6,0,0,0,0,1,1,1,0,0,0,www.populardiagnostic.com
716,Global Medicare Diagonostic Center,,_,23.81033,90.4125,1213 H-82 Tongi Diversion Rd Dhaka 1212 Bangladesh,Private hospital,Diagnostic,all,0,,_,_,0,0,0,0,1,1,1,0,0,0,
717,DHAKA LAB,01747-172655,_,23.81033,90.4125,Dhaka Bangladesh,Private hospital,Hospital,all,0,,3,3.4,0,0,0,0,1,1,1,0,0,0,
718,DHAKA HEALTHCARE SYSTEMS,,_,23.81033,90.4125,Dhaka Bangladesh,Private hospital,Hospital,all,0,,_,_,0,0,0,0,1,1,1,0,0,0,
719,The Dhaka Diagnostic and Consultation Center,,,23.81033,90.4125,Dhaka Bangladesh,Private hospital,Diagnostic,Diagnostic,0,,,,,,,,,,,,,,
720,DHAKA HOSPITAL (General Hospital & Computerized,,,23.81033,90.4125,Dhaka Bangladesh,Private hospital,Hospital,all,0,,,,,,,,,,,,,,
721,LASIK SIGHT CENTER,,,23.81087,90.4213,NIHARIKA CONCORD TOWER Kemal Ataturk Ave,Private hospital,Clinic,all,0,,,5,,,,,,,,,,,
722,The New Hope,,https://maps.gstatic.com/consumer/images/icons/1x/ic_directions_gm_blue_24px.png,23.81116,90.4194,72/7 Lake View Road House 7 Road 3/b,Private hospital,Hospital,all,0,,,5,,,,,,,,,,,
723,Arya Diagnostic and Clinic,,_,23.81227,90.3953,256 East Vhashantek Dhaka Bangladesh,Private hospital,Diagnostic,Diagnostic,0,,_,_,0,0,0,0,1,1,1,0,0,0,
724,Lifeline Consultation And Diagnostic Ltd,#ERROR!,https://lifelinediagnostic.com/,23.81229,90.425,K-3/1-C Adept Amir Complex Basundhara Link Road Jagonathpur Vatara ???? ??????? ??????? 1229 ???? 1229 Bangladesh,Private hospital,Diagnostic,Diagnostic,0,,3.4,3.5,0,0,0,0,1,1,1,0,0,0,https://lifelinediagnostic.com/
725,Comunity Based Health Care Project Bangladesh,,,23.81383,90.3726,Infectious Diseases Hospital Unnamed Road,Private hospital,Clinic,all,0,,,,,,,,,,,,,,
726,Clinic,,,23.81408,90.42,2 Mirpur Rd,Private hospital,Clinic,all,0,,,,,,,,,,,,,,
727,Combined Military Hospital (CMH),,https://www.army.mil.bd/,23.81413,90.3961,R97X+QHJ C.M.H In Road,Government hospital,Hospital,all,0,,,4.5,,,,,,,,,,,
728,Combine Military Hospital,,https://maps.gstatic.com/consumer/images/icons/1x/ic_directions_gm_blue_24px.png,23.81413,90.3961,R9HQ+8H5,Private hospital,Hospital,all,0,,,5,,,,,,,,,,,
729,Dhaka Monorog Clinic,,,23.81512,90.3679,House no 13 Road no 1 Block A,Private hospital,Clinic,Mental Health,0,,,3.8,,,,,,,,,,,
730,Institute Of Leprosy Control Hospital,,,23.81554,90.4212,QCH5+RJQ,Government hospital,Hospital,all,0,,,4.3,,,,,,,,,,,
731,Rowshan Ara Hospital,,,23.81663,90.4256,PCHJ+M5X Kamalapur Manda Rd,Private hospital,Hospital,all,0,,,,,,,,,,,,,,
732,Dhaka Metro Eye Hospital,,https://maps.gstatic.com/consumer/images/icons/1x/ic_directions_gm_blue_24px.png,23.81668,90.4211,ka-51 Pragati Avenue Kuril Chowrasta (Vatara) Dhaka-1229 Pragati Ave,Private hospital,Hospital,Eye,0,,,3.6,,,,,,,,,,,
733,Allied Diagnostics Ltd,28411461,http://www.allieddiagnosticsltd.com/,23.81688,90.4214,1st & 2nd Floor SAR Bhaban Ka-78 Pragati Sarani Dhaka 1229 Bangladesh,Private hospital,Diagnostic,Diagnostic,0,,3,3.2,0,0,0,0,1,1,1,0,0,0,http://www.allieddiagnosticsltd.com/
734,International Health Centre Ltd Kuril Biswha Road,,http://www.ihcmedicalbd.com/,23.81712,90.4211,RC9C+283,Private hospital,Hospital,all,0,,,3.7,,,,,,,,,,,
735,INTERNATIONAL HEALTH CENTRE LTD,02-8418303,https://www.ihcmedicalbd.com/gallery.php?gid=1&gname=IHC%20Medical,23.81752,90.4208,RC9C+283 Dhaka Bangladesh,Private hospital,Diagnostic,Diagnostic,0,,3,3.4,0,0,0,0,1,1,1,0,0,0,https://www.ihcmedicalbd.com/gallery.php?gid=1&gname=IHC%20Medical
736,Transworld Medical Center,02-8410110,_,23.81829,90.4212,Ka 86/1 Kuril Bishwaroad Progoti Shoroni Dhaka ???? 1229 Bangladesh,Private hospital,Diagnostic,Diagnostic,0,,_,2.4,0,0,0,0,1,1,1,0,0,0,
737,Mostafa Health Care,,https://maps.gstatic.com/consumer/images/icons/1x/ic_directions_gm_blue_24px.png,23.81844,90.3688,House-1 Banasree Main Rd,Private hospital,Clinic,all,0,,,5,,,,,,,,,,,
738,CCDC Diagnostic and Doctors Point,,_,23.81846,90.4211,Ka-90 2nd Floor Progati Sarani Rd Kazibari Biswa Road Dhaka 1229 Bangladesh,Private hospital,Diagnostic,Diagnostic,0,,_,_,0,0,0,0,1,1,1,0,0,0,
739,Kurmitola General Hospital,,http://kgh.gov.bd/,23.8186,90.4094,Tongi Diversion Rd,Government hospital,Hospital,all,0,,,4.4,,,,,,,,,,,
740,Siraj-Khaleda Memorial Cantonment Board General Hospital,,http://www.siraj-khaledatrust.org/health/,23.8186,90.4094,1206 Rd No. 04,Private hospital,Hospital,all,0,,,3.8,,,,,,,,,,,
741,Ekuria General Hospital,,https://maps.gstatic.com/consumer/images/icons/1x/ic_directions_gm_blue_24px.png,23.8186,90.4094,Dhaka - Mawa Hwy,Private hospital,Hospital,all,0,,,3.7,,,,,,,,,,,
742,LAB4 General Hospital,,https://maps.gstatic.com/consumer/images/icons/1x/ic_directions_gm_blue_24px.png,23.8186,90.4094,P8JM+5HH Rasel Bhabon Ati Bazar Keranigonj Dhaka,Private hospital,Hospital,all,0,,,,,,,,,,,,,,
743,The Ultima,,,23.81948,90.3654,House 30 11 Rd No 3,Private hospital,Hospital,all,0,,,5,,,,,,,,,,,
744,Mirpur General Hospital & Diagnostic Centre,,,23.8207,90.3676,Plot No-10 Road No. 4,Private hospital,Diagnostic,Diagnostic,0,,,4,,,,,,,,,,,
745,Shebika General Hospital & Diagnostic Center,,,23.8207,90.3676,68/K Sonargaon Bhaban,Private hospital,Diagnostic,Diagnostic,0,,,2,,,,,,,,,,,
746,Care Hospital & Diagnostic Center,,,23.8207,90.3676,PC6R+CG6 Kazlar Par Road,Private hospital,Diagnostic,Diagnostic,0,,,3,,,,,,,,,,,
747,Mirpur General Hospital & Diagnostic Centre Rupnagar Branch,,,23.8207,90.3676,House No 16 Road No 10 Rupnagar R/A Adjacent to Monirpur School,Private hospital,Diagnostic,Diagnostic,0,,,4.3,,,,,,,,,,,
748,Jeise General Hospital & Diagnostic Center,,https://maps.gstatic.com/consumer/images/icons/1x/ic_directions_gm_blue_24px.png,23.8207,90.3676,294/2 South Jatrabari,Private hospital,Diagnostic,Diagnostic,0,,,,,,,,,,,,,,
749,Tauhida General Hospital & Diagnostic Center,,,23.8207,90.3676,PCCH+PHH Atish Deepankar Rd,Private hospital,Diagnostic,Diagnostic,0,,,3.5,,,,,,,,,,,
750,Pulse Healthcare Services,,http://mypulse.com.bd/,23.82131,90.3945,House-33 Road-24/30,Private hospital,Clinic,all,0,,,5,,,,,,,,,,,
751,Nibedita Shishu Hospital Limited,,,23.82149,90.3726,11 1 Hare St,Private hospital,Hospital,children,0,,,4.1,,,,,,,,,,,
753,A Emdad Hospital,,https://maps.gstatic.com/consumer/images/icons/1x/ic_directions_gm_blue_24px.png,23.82149,90.3726,QCJG+6M7,Private hospital,Hospital,all,0,,,,,,,,,,,,,,
754,Dhaka Mahanagar Shishu Hospital,,https://ssl.gstatic.com/local/servicebusiness/default_user.png,23.82149,90.3726,4/1 Gour Sundor Roy Lane,Private hospital,Hospital,all,0,,,3.7,,,,,,,,,,,
755,Block-BAdministration BuildingNICRH,,,23.82175,90.4318,QCH5+7M3 TB Gate Rd,Private hospital,Hospital,all,0,,,4,,,,,,,,,,,
756,CANTT PUBLIC DIAGNOSTIC CENTER,,_,23.8218,90.3933,572/A Choudhury Bari Manikadi Dhaka Cantt Dhaka 1206 Bangladesh,Private hospital,Diagnostic,Diagnostic,0,,_,_,0,0,0,0,1,1,1,0,0,0,
757,Ishtiyaq Medical Center,02-9836829,https://ishtiyaq-medical-center.business.site/,23.82213,90.3931,571 (1st Floor) ECB Chottor South ManikdiDhaka Cantonment DhakaBangladesh Dhaka 1206 Bangladesh,Private hospital,Diagnostic,Diagnostic,0,,3.5,4.2,0,0,1,1,1,1,1,0,0,0,https://ishtiyaq-medical-center.business.site/
758,Jashim Medical & Diagnostic Ltd.,01974-343707,_,23.82274,90.3625,House- 4 Road- 8 Block- A Sec-11 Nannu Market Pallabi Mirpur-11 Dhaka ???? 1216 Bangladesh,Private hospital,Diagnostic,Diagnostic,0,,_,_,0,0,0,0,0,0,0,0,0,0,
759,Rahima Begum Adhunik HospitalAbdulahpur,,,23.82279,90.3691,V9VP+VGM Abdullahpur Hwy,Private hospital,Hospital,all,0,,,,,,,,,,,,,,
760,Aalok Healthcare Ltd. (pallabi),,https://aalokhealthcare.com/,23.82342,90.3643,1/2 11,Private hospital,Diagnostic,Diagnostic,0,,,3.9,,,,,,,,,,,
761,Nobojatok-Shishu & General Hospital,,,23.82345,90.3554,4/4-A 1207 Block-E,Private hospital,Hospital,children,0,,,,,,,,,,,,,,
762,Aleya Islam General Hospital & Pathology,,,23.82345,90.3554,P98C+VR4 Kholif Ghat Main Road,Private hospital,Hospital,all,0,,,3.7,,,,,,,,,,,
763,Bumrungrad Hospital Dhaka Office,,https://www.gstatic.com/images/icons/material/system_gm/1x/public_gm_blue_24dp.png,23.82377,90.3689,Closed,Private hospital,Diagnostic,Diagnostic,0,,,4.9,,,,,,,,,,,
764,Matribhumi Heart Care,,,23.8243,90.3618,6th Floor Rupayan Taj 1 1/1 1000 Culvert Road,Private hospital,Diagnostic,Heart,0,,,5,,,,,,,,,,,
765,Aalok Healthcare Ltd (Pallabi),10672,https://aalokhealthcare.com/branch_two.php,23.82431,90.3645,11 1/2 ???? 1216 Bangladesh,Private hospital,Hospital,all,0,,3.5,3.5,0,0,0,0,1,1,1,0,0,0,https://aalokhealthcare.com/branch_two.php
766,pacific diagnostic centre,,https://maps.gstatic.com/consumer/images/icons/1x/ic_directions_gm_blue_24px.png,23.82842,90.3639,1st floor 37 Shahid Faroque Rd,Private hospital,Diagnostic,Diagnostic,0,,,5,,,,,,,,,,,
767,Medi-Tech General Hospital (PVT) Ltd,01732-071985,_,23.82858,90.4189,??? ????? ?? ? ?? ??? Dhaka 1205 Bangladesh,Private hospital,Hospital,all,0,,3,3.3,0,0,0,0,1,1,1,0,0,0,
768,Meditech General Hospital,,,23.82876,90.4188,বীর উত্তম এম এ রব সড়ক,Government hospital,Hospital,all,0,,,3.3,,,,,,,,,,,
769,CPHD General Hospital Ltd.,,,23.82876,90.4188,24 Shaheed Tajuddin Ahmed Ave,Government hospital,Hospital,all,0,,,4,,,,,,,,,,,
770,WAIM Bangladesh Chapter,,,23.83007,90.423,"7th floor subastu ittehad square"" house-11 (6th and রোড-০৫",Private hospital,Clinic,all,0,,,,,,,,,,,,,,
771,Lake City Diagnostic & Consultation Centerr,,_,23.83067,90.4239,Kha-48/A Dhaka 1229 Bangladesh,Private hospital,Diagnostic,Diagnostic,0,,_,_,0,0,0,0,1,1,1,0,0,0,
772,The Concept Home Health Care agency,,https://maps.gstatic.com/consumer/images/icons/1x/ic_directions_gm_blue_24px.png,23.83083,90.4289,88/A Comilla Para Rd,Private hospital,Hospital,all,0,,,5,,,,,,,,,,,
773,Gowal Teak Physiotherapy Centre,,,23.83114,90.4247,Salma Market  Gowal Teak Arafah School Road uttara Alaol Ave,Private hospital,Hospital,all,0,,,5,,,,,,,,,,,
774,BHALUKA Mohammadia model hospital,,,23.83289,90.4202,RC66+4XQ Bhaluka Bangladesh Dhaka highways,Private hospital,Hospital,all,0,,,,,,,,,,,,,,
775,BANGKOK HOSPITAL OFFICE BANGLADESH,,http://www.lifeandhealthbd.com/,23.83471,90.4199,Block G Level 4 House 32 Road 11,Private hospital,Hospital,all,0,,,4.1,,,,,,,,,,,
776,Sapporo Dental College & Hospital,,http://sdch.edu.bd/,23.83543,90.4188,plot no 24 Sapporo Dental College & Hospital 24 Pepar mill Road,Private hospital,Medical college hospital,Dental,1,,,4.4,,,,,,,,,,,
777,Sima General Hospital,,_,23.8364,90.259,R7P5+HH4 Dhaka - Aricha Hwy Genda 1340 Bangladesh,Private hospital,Hospital,all,0,,_,_,0,0,0,0,1,1,1,0,0,0,
778,SAVAR PRIME HOSPITAL,,_,23.8392,90.2557,Thana Rd Bus Stand ????? ??????? 1340 Bangladesh,Private hospital,Hospital,all,0,,_,_,0,0,0,0,1,1,1,0,0,0,
779,Popular Diagnostic Center Ltd. (Savar Branch),09666 78780910636,www.populardiagnostic.com,23.83993,90.2572,Nargis Tower House No. E/22 Talbagh Thana Bus Stand Dhaka - Aricha Hwy Savar Union 1340 Bangladesh,Private hospital,Diagnostic,Diagnostic,0,,3.2,3.6,0,0,0,0,1,1,1,0,0,0,www.populardiagnostic.com
780,Al-Humyra Health Centre Ltd,,https://www.gstatic.com/images/icons/material/system_gm/1x/public_gm_blue_24dp.png,23.84484,90.4208,,Private hospital,Clinic,all,0,,,3.9,,,,,,,,,,,
781,Dogma Diagnostic Center,,https://maps.gstatic.com/consumer/images/icons/1x/ic_directions_gm_blue_24px.png,23.84492,90.4207,QCPG+X6X,Private hospital,Diagnostic,Diagnostic,0,,,4,,,,,,,,,,,
782,Asgar Ali Hospital Parking Area,,,23.84882,90.4059,PC5F+C4G,Private hospital,Hospital,all,0,,,,,,,,,,,,,,
783,BANGLADESH LAB,01747-172655,_,23.84938,90.281,R7XJ+QC3 Bangladesh,Private hospital,Hospital,all,0,,3,3.2,0,0,0,0,1,1,1,0,0,0,
784,Rahman Dental Care,,http://rahmandentalcare.com/,23.85149,90.4123,House: 9 (1st floor) Gareeb-e-Nawaz Ave,Private hospital,Clinic,Dental,0,,,3.8,,,,,,,,,,,
785,Dakhin Khan Paribaric Shastha Seba Hospital (Pvt.),,,23.8515,90.4175,2620 Tamij Uddin Road Noyapara Amtola Dakshin Khan Uttara,Private hospital,Hospital,all,0,,,4.3,,,,,,,,,,,
786,IBN SINA DIAGNOSTIC & CONSULTATION CENTER SAVAR,10615 +88 09610010615,ibnsinatrust.com,23.85237,90.2587,V725+WFW N5 Savar Union 1340 Bangladesh,Private hospital,Diagnostic,Diagnostic,0,,3.2,4.2,1,1,1,1,1,1,1,1,1,1,ibnsinatrust.com
787,Jannah Medical Services,01755-593514,_,23.85298,90.4146,477 Ashkona Medical Road Dhaka 1230 Bangladesh,Private hospital,Hospital,all,0,,_,3.2,0,0,1,0,1,1,1,0,0,0,
788,JAHAN ARA CLINIC (PVT) LIMITED,258950303,www.jahanaraclinic.com,23.8554,90.404,House no 2 & 4 Road no 1 Sector no 1 Uttara model town1230 Dhaka Bangladesh,Private hospital,Clinic,all,0,,_,3,0,0,0,0,0,0,0,0,0,0,www.jahanaraclinic.com
789,JAHAN ARA CLINIC (PVT) LTD.,,_,23.8554,90.404,House 2 & 4 Rd No 1 Dhaka 1230 Bangladesh,Private hospital,Clinic,all,0,,_,_,0,0,0,0,1,1,1,0,0,0,
790,EPI HEadquater,,,23.85569,90.4045,QCH2+F36,Private hospital,Hospital,all,0,,,4.5,,,,,,,,,,,
791,Jahan Ara Clinic Ltd.,,http://www.jahanaraclinic.com/,23.85576,90.4041,House 2 & 4 Rd No 1,Private hospital,Clinic,all,0,,,3.9,,,,,,,,,,,
792,Jahan Ara Clinic Ltd,,http://www.jahanaraclinic.com/,23.85576,90.4041,H 2 & 4 Rd 1 & Sec 1 Dhaka,Private hospital,Clinic,all,0,,,,,,,,,,,,,,
793,Harun Eye Foundation Hospital,,http://www.hefhbd.com/,23.85813,90.4103,on House no 12/A Road No. 5 Mirpur Rd,Private hospital,Hospital,Eye,0,,,4,,,,,,,,,,,
794,Eye Foundation Hospital,,https://maps.gstatic.com/consumer/images/icons/1x/ic_directions_gm_blue_24px.png,23.85813,90.4103,90 Shahid Faroque Rd,Private hospital,Hospital,Eye,0,,,,,,,,,,,,,,
795,National inustituit shamoli,,https://maps.gstatic.com/consumer/images/icons/1x/ic_directions_gm_blue_24px.png,23.85816,90.41,QCCJ+H6H Ananda Nagar Rd,Private hospital,Hospital,all,0,,,,,,,,,,,,,,
796,Safa Dental Care,,,23.8583,90.409,VC55+788 Shahid Latif Rd,Private hospital,Clinic,Dental,0,,,,,,,,,,,,,,
797,Medical College For Women and Hospital,,http://www.medicalcollegeforwomen.edu.bd/,23.85838,90.4004,VC52+87V Plot No 4 Road-8/9 Sector-1,Government hospital,Medical college hospital,all,1,,,4,,,,,,,,,,,
798,KB Diagnostics Center,,,23.85843,90.4023,Road#16 Khairtek Turag,Private hospital,Diagnostic,Diagnostic,0,,,,,,,,,,,,,,
799,Square Hospital Consultation & Diagnostic Center Banani,,,23.8607,90.4247,Classic Tower (2nd Floor) House-1 Road-11 Block-F,Private hospital,Diagnostic,Diagnostic,0,,,3.8,,,,,,,,,,,
800,Square Hospital Consultation & Diagnostic Center Uttara,,,23.8607,90.4247,V9FW+PF8 Sonargaon Janapath,Private hospital,Diagnostic,Diagnostic,0,,,4.3,,,,,,,,,,,
801,Popular Diagnostic Centre Unit 1 Uttara,,https://www.populardiagnostic.com/,23.86103,90.4004,H-21 H-21 Road-7,Private hospital,Diagnostic,Diagnostic,0,,,3.6,,,,,,,,,,,
802,Popular Diagnostics Center Ltd. (Uttara Branch),,http://www.populardiagnostic.com/,23.86103,90.4004,J. U. MOAR HOUSE # 21 Rd 7,Private hospital,Diagnostic,Diagnostic,0,,,3.6,,,,,,,,,,,
803,Millennium Orthopaedic Hospital,,,23.86155,90.4002,House 41 Road-7,Private hospital,Hospital,Orthopedic,0,,,3.6,,,,,,,,,,,
804,Baridhara Mohila Somobay Somity Ltd,,https://maps.gstatic.com/consumer/images/icons/1x/ic_directions_gm_blue_24px.png,23.86291,90.4385,QCWH+3Q9,Private hospital,Hospital,all,0,,,,,,,,,,,,,,
805,National Institute of Ear Nose And Throat (ENT) Bangladesh,,http://www.nient.gov.bd/,23.86308,90.4036,Tejgaon Thana Health Complex Love Rd,Government hospital,Hospital,all,0,,,4.2,,,,,,,,,,,
806,Sheikh Hasina National Institute of Burn & Plastic Surgery,,https://www.gstatic.com/images/icons/material/system_gm/1x/public_gm_blue_24dp.png,23.86309,90.4561,63 A H M Kamruzzaman Sharani,Government hospital,Hospital,all,0,,,4.4,,,,,,,,,,,
807,National Institute of Kidney Diseases & Urology,,https://www.gstatic.com/images/icons/material/system_gm/1x/public_gm_blue_24dp.png,23.86309,90.4561,·,Government hospital,Hospital,Kidny,0,,,4.3,,,,,,,,,,,
808,Beaco Point Ltd.,,http://www.beaconpointbd.com/,23.86361,90.3927,1 Road 23/A,Private hospital,Hospital,all,0,,,,,,,,,,,,,,
809,Labaid Dental Clinic,,http://labaidgroup.com/specialized/dental,23.86408,90.3943,P9RM+J6X Mirpur Rd,Private hospital,Clinic,Dental,0,,,3.2,,,,,,,,,,,
810,Boshir Dental Clinic,,https://maps.gstatic.com/consumer/images/icons/1x/ic_directions_gm_blue_24px.png,23.86408,90.3943,QCGG+8J7,Private hospital,Clinic,Dental,0,,,,,,,,,,,,,,
811,MediScan Online XrayCT ScanMRI Reporting Service Uttora Office,,http://www.mediscanbd.com/,23.8643,90.3998,V9GH+5RH,Private hospital,Hospital,all,0,,,5,,,,,,,,,,,
812,Northern International Medical College,,,23.86475,90.4556,84 Rd 8/A,Private hospital,Medical college hospital,all,1,,,3.9,,,,,,,,,,,
813,RAINBOW HEARTS MEDICAL CENTRE,,_,23.86626,90.3982,75 Road-13/A Dhaka 1230 Bangladesh,Private hospital,Diagnostic,Heart,0,,_,_,0,0,0,0,1,1,1,0,0,0,
814,Care Zone Hospital,,,23.86627,90.3992,24 Gareeb-e-Nawaz Ave,Private hospital,Hospital,all,0,,,3.6,,,,,,,,,,,
815,Shakib 75,,https://www.gstatic.com/images/icons/material/system_gm/1x/public_gm_blue_24dp.png,23.86718,90.4144,Yes,Private hospital,Clinic,all,0,,,5,,,,,,,,,,,
816,UTTARA CRESCENT CLINIC (PVT.) LIMITED,10665,https://www.uchbd.com/,23.86737,90.3974,House# 21 Road# 15 Rabindra Sarani Dhaka 1230 Bangladesh,Private hospital,Clinic,all,0,,3.8,3.5,1,0,0,0,1,1,1,0,0,0,https://www.uchbd.com/
817,Jamuna General Hospital,,https://maps.gstatic.com/consumer/images/icons/1x/ic_directions_gm_blue_24px.png,23.86742,90.3943,Q989+VQ4 College Gate,Private hospital,Hospital,all,0,,,,,,,,,,,,,,
818,Dr.Mahbub General Hospital,,,23.86742,90.3943,74Rany PlazaKonapara Main Road(Near Farmer More)MatuailJatrabariDhaka-1362 Near Farmer More)Matuail Jatrabari,Private hospital,Hospital,all,0,,,,,,,,,,,,,,
819,Dhaka Eye Care Hospital,,https://www.dhakaeyecarehospital.org/,23.86753,90.396,32 Rabindra Sarani,Private hospital,Hospital,Eye,0,,,4.8,,,,,,,,,,,
820,Asian Eye Care Centre,,,23.86753,90.396,V99Q+PCR Gausul Azam Ave,Private hospital,Hospital,Eye,0,,,3.3,,,,,,,,,,,
821,Al-Hakim eye hospital and Phaco Center,,https://maps.gstatic.com/consumer/images/icons/1x/ic_directions_gm_blue_24px.png,23.86753,90.396,249/4 Haque plaza(deffodil South jatrabari Dhaka 1204,Private hospital,Hospital,Eye,0,,,4.9,,,,,,,,,,,
822,Ideal Eye Care Hospital,,,23.86753,90.396,Johori Mohollah Ring Rd Dhaka 1207 Ring Rd,Private hospital,Hospital,Eye,0,,,2.6,,,,,,,,,,,
823,New Welcare Hospital,,⋅ Closes 10 PM,23.86753,90.396,19/1 Block-B Babor Road Mohammadpur,Private hospital,Hospital,all,0,,,3.8,,,,,,,,,,,
824,Comfort Diagnostic Center (Pvt.) Ltd.,,,23.8676,90.3969,22 Rabindra Sarani,Private hospital,Diagnostic,Diagnostic,0,,,3.9,,,,,,,,,,,
825,Comfort Diagnostic Centre Pvt. Ltd.,,http://www.comfortbd.com/,23.8676,90.3969,Comfort Tower 167/B Green Rd,Private hospital,Diagnostic,Diagnostic,0,,,4,,,,,,,,,,,
826,LD Hospital & Daycare Centre Limited,,,23.86766,90.3974,V99W+339 Rabindra Sarani,Private hospital,Hospital,all,0,,,5,,,,,,,,,,,
827,Uttara Crescent Hospital,,http://www.uchbd.com/,23.86768,90.3976,House# 21 Road# 15 Rabindra Sarani,Private hospital,Hospital,all,0,,,3.4,,,,,,,,,,,
828,uttarahospital,,http://uttarahospital.com/,23.86768,90.3976,House-34 Rd No 10B,Private hospital,Hospital,all,0,,,,,,,,,,,,,,
829,Vision community Hospital,,,23.8677,90.4043,Bangladesh Eye Hospital House- 78 Satmasjid Road,Private hospital,Hospital,all,0,,,,,,,,,,,,,,
830,Government Community Hospital,,,23.8677,90.4043,Hospital Zone,Private hospital,Hospital,all,0,,,,,,,,,,,,,,
831,Dr. Muttalib Community Hospital And Park Laboratory,,https://ssl.gstatic.com/local/servicebusiness/default_user.png,23.8677,90.4043,22 Bijoy Nagar Road,Private hospital,Hospital,all,0,,,4.5,,,,,,,,,,,
832,Hamdard Laboratories (Waqf) Bangladesh,,,23.86786,90.3995,V9GV+67C সড়ক নং-০২/এ,Private hospital,Clinic,all,0,,,,,,,,,,,,,,
833,Sobuz Bangla Diagnostics & Consultation Centre,,,23.86801,90.4044,V9RM+HPG Road,Private hospital,Diagnostic,Diagnostic,0,,,,,,,,,,,,,,
834,Uttara Hope Hospital & Diagnostic (Pvt) Ltd.,,,23.86889,90.3803,C Plot 30 Rd No 6,Private hospital,Diagnostic,Diagnostic,0,,,4.3,,,,,,,,,,,
835,RMC Hospital,,,23.86997,90.3995,House No 19 Rd No 5,Private hospital,Hospital,all,0,,,2.8,,,,,,,,,,,
836,Lubana General Hospital & Uttara Cardiac Center,,http://www.lubanahospital.com/,23.87025,90.3909,House no 09 40 Gareeb-e-Nawaz Ave,Government hospital,Hospital,all,0,,,3.5,,,,,,,,,,,
837,Dhaka Kings Hospital,,,23.87096,90.4229,VCV3+CCP Tongi - Ghorashal Hwy,Private hospital,Hospital,all,0,,,5,,,,,,,,,,,
838,Dhaka Sishu Hospital,,,23.87096,90.4229,Q9F9+6FM,Private hospital,Hospital,all,0,,,4.3,,,,,,,,,,,
839,Dhaka Shisu Hospital Dhaka.,,,23.87096,90.4229,Q9F9+4MV,Private hospital,Hospital,all,0,,,3.3,,,,,,,,,,,
840,Saic Medical Institute Tecnology,,,23.87097,90.384,·,Private hospital,Hospital,all,0,,,,,,,,,,,,,,
841,LABAID Diagnostic Uttara-02,,https://labaid.com.bd/en/diagnostic/labaid-diagnostic-uttara-02,23.87157,90.4006,19 Gareeb-e-Nawaz Ave,Private hospital,Diagnostic,Diagnostic,0,,,4,,,,,,,,,,,
842,LABAID Diagnostic Uttara-01,,http://www.labaidgroup.com/diagnostic,23.87157,90.4006,House # 15 Road # 12 Service Rd,Private hospital,Diagnostic,Diagnostic,0,,,3.8,,,,,,,,,,,
843,LABAID Diagnostic Badda,,https://www.gstatic.com/images/icons/material/system_gm/1x/public_gm_blue_24dp.png,23.87157,90.4006,Open,Private hospital,Diagnostic,Diagnostic,0,,,3.8,,,,,,,,,,,
844,SHIP INTERNATIONAL HOSPITAL | Best Hospital in Uttara Dhaka,,https://shiphospitalbd.com/,23.87194,90.3894,Dhaka - Ashulia Hwy,Private hospital,Hospital,all,0,,,4.4,,,,,,,,,,,
845,Ibn Sina Diagnostic & Consultation Centre Uttara,,http://www.ibnsinatrust.com/,23.87338,90.3909,House#52 Gareeb-e-Nawaz Ave,Private hospital,Diagnostic,Diagnostic,0,,,4.3,,,,,,,,,,,
846,Uttara Crescent Diagnostic & Consultation Center (Unit-2),,http://www.uchbd.com/,23.87338,90.3909,H No. 16 Hannan Complex Rabindra Sarani,Private hospital,Diagnostic,Diagnostic,0,,,3.9,,,,,,,,,,,
847,Ibn Sina Diagnostic & Consultation Uttara (Building 3),,https://www.ibnsinatrust.com/Diagnostic_Consultation_Cente_uttara.php,23.87338,90.3909,8 Road No. 12,Private hospital,Diagnostic,Diagnostic,0,,,4.7,,,,,,,,,,,
848,Ibn Sina Diagnostic & Consultation Center (Badda),,https://www.gstatic.com/images/icons/material/system_gm/1x/public_gm_blue_24dp.png,23.87338,90.3909,Open,Private hospital,Diagnostic,Diagnostic,0,,,4.2,,,,,,,,,,,
849,Sultan ambulance service,,,23.874,90.4003,ibn Sina hospitals,Private hospital,Hospital,all,0,,,5,,,,,,,,,,,
850,Dr. Jhumu Khan's Laser Medical Center | Dhanmondi,,http://lasermedicalbd.com/,23.8743,90.3919,Dr. Jhumu Khan's Laser Medical Center Ltd Khan's ABC Tradeplex Road-2,Private hospital,Clinic,all,0,,,4.3,,,,,,,,,,,
851,Medinova Medical Services Ltd. (Uttara Branch),#ERROR!,https://www.daktarbhai.com/hospital/263,23.87431,90.3984,V9FX+P9C Dhaka 1230 Bangladesh,Private hospital,Hospital,all,0,,3.2,3.8,0,0,1,0,1,1,1,0,0,0,https://www.daktarbhai.com/hospital/263
852,Medinova Medical Services Ltd.,,http://www.medinovamedicalbd.com/,23.87449,90.3986,House 71/A Road 5/A Dhanmondi R/A,Private hospital,Hospital,all,0,,,4,,,,,,,,,,,
853,AI- Madina Medical Services,,http://al-madinamedicalbd.com/,23.87449,90.3986,4 Mohakhali Amtoli Mohakhali C/A Dhaka,Private hospital,Clinic,all,0,,,3,,,,,,,,,,,
854,Nostrum Hospital & Diagnostic Center,01786-355355,https://nostrumhospital.com/,23.8745,90.4025,H # 22 Alaol Avenue Road S # 6 ???? 1230 Bangladesh,Private hospital,Diagnostic,Diagnostic,0,,3,3.2,0,0,0,0,1,1,1,0,0,0,
855,Uttara Adhunik Medical College Hospital(BMSRI),,http://uamcedu.org/,23.87451,90.3969,H # 34 R # 4 Sonargaon Janapath,Private hospital,Medical college hospital,all,1,,,3.9,,,,,,,,,,,
856,Nostrum Hospital,,https://www.facebook.com/Nostrum-Hospital-Diagnostic-center-741851929170463/,23.87463,90.4028,House building 24 Alaol Ave,Private hospital,Hospital,all,0,,,3,,,,,,,,,,,
857,Prof Dr Md Ehteshamul Hoque,,https://drehtesham.com/,23.87463,90.4026,Labaid Cancer Hospital And Super Speciality Center 26 Green Rd,Private hospital,Hospital,all,0,,,,,,,,,,,,,,
858,Greenland Hospital Ltd.,,http://general-hospital-uttara.business.site/,23.87514,90.4,House # 112 Rd 13,Private hospital,Hospital,all,0,,,4.1,,,,,,,,,,,
859,Conejo's House,,,23.87552,90.3874,V97M+W46,Private hospital,Hospital,all,0,,,2.5,,,,,,,,,,,
860,Ibn Sina Diagnostic & Consultation Center Uttara,10615 +88 09610010615,ibnsinatrust.com,23.87585,90.3795,Uttara Dhaka Bangladesh,Private hospital,Diagnostic,Diagnostic,0,,3.2,4.2,1,1,1,1,1,1,1,1,1,1,ibnsinatrust.com
861,Lab Aid Limited (Uttara-II),10606,https://labaid.com.bd/,23.87585,90.3795,Uttara Dhaka Bangladesh,Private hospital,Hospital,all,0,,4,4.5,1,1,1,1,1,1,1,1,1,1,https://labaid.com.bd/
862,LABAID LTD DIAGNOSTIC UTTARA-01,10606,https://labaid.com.bd/,23.87585,90.3795,Uttara Dhaka Bangladesh,Private hospital,Diagnostic,Diagnostic,0,,4,4.5,0,0,0,0,1,1,1,0,0,0,https://labaid.com.bd/
863,Popular Diagnostic Centre Ltd. (Uttara),09666 78780910636,https://www.populardiagnostic.com/our-branches/8/Uttara-(U-2),23.87585,90.3795,Uttara Dhaka Bangladesh,Private hospital,Diagnostic,Diagnostic,0,,3.2,3.6,0,0,0,0,1,1,1,0,0,0,https://www.populardiagnostic.com/our-branches/8/Uttara-(U-2)
864,ABRAR DENTAL CARE,,,23.87654,90.4078,House#2 road#10 Sector#14,Private hospital,Hospital,Dental,0,,,5,,,,,,,,,,,
865,Shin Shin Japan Hospital,,https://shinshinhospital.com/,23.87701,90.3908,17 Gareeb-e-Nawaz Ave,Private hospital,Hospital,all,0,,,3.4,,,,,,,,,,,
866,Shin-Shin Japan Hospital Limited,01929-478565,_,23.8772,90.3905,17 Gareeb-e-Nawaz Ave Dhaka 1230 Bangladesh,Private hospital,Hospital,all,0,,3,3.4,0,0,0,0,1,1,1,0,0,0,
867,Dhaka Medical Care,,,23.87756,90.4347,69/B 5th Floor Monowara Plaza Panthapath,Private hospital,Hospital,all,0,,,4,,,,,,,,,,,
868,Surecell Medical Bangladesh Ltd.,,https://www.gstatic.com/images/icons/material/system_gm/1x/public_gm_blue_24dp.png,23.87756,90.4347,Closed,Private hospital,Hospital,all,0,,,4.3,,,,,,,,,,,
869,City Medical,,https://maps.gstatic.com/consumer/images/icons/1x/ic_directions_gm_blue_24px.png,23.87756,90.4347,QCH5+FFM TB Gate Rd,Private hospital,Hospital,all,0,,,,,,,,,,,,,,
870,Rainbo Hart Medical,,,23.87756,90.4347,House no 75 13A রোড নং:- ৪,Private hospital,Hospital,all,0,,,,,,,,,,,,,,
871,Clinical Medical Physicist Forum Bangladesh,,,23.87756,90.4347,01782-519771,Private hospital,Clinic,all,0,,,,,,,,,,,,,,
872,Labking general hospital,,,23.87774,90.4008,V9RM+JP3,Private hospital,Hospital,all,0,,,,,,,,,,,,,,
873,Uttara Al-Asfraf General Hospital,,,23.8778,90.3907,24 Gareeb-e-Nawaz Ave,Private hospital,Hospital,all,0,,,3.8,,,,,,,,,,,
874,New Al Rashid General Hospital,,,23.8778,90.3907,Q9X3+8JF Mirpur Rd,Private hospital,Hospital,all,0,,,5,,,,,,,,,,,
875,Holy Care Diagnostic & Consultation Centre,,_,23.87893,90.4101,330/1 Faidabad Choarirtek Bazar ???? 1230 Bangladesh,Private hospital,Diagnostic,Diagnostic,0,,_,_,0,0,0,0,1,1,1,0,0,0,
876,Medicare Diagnostic & Consultation Center,,https://maps.gstatic.com/consumer/images/icons/1x/ic_directions_gm_blue_24px.png,23.88053,90.4084,QCRG+J3X Bir Uttam Rafiqul Islam Ave,Private hospital,Diagnostic,Diagnostic,0,,,5,,,,,,,,,,,
877,Aichi Hospital Ltd.,02-44891001,findoutadoctor.blogspot.com/2016/07/aichi-hospital-location-address-phone.html,23.88152,90.4042,Plot- 35 & 37 Sector-08 ????????????? ??????? Dhaka 1230 Bangladesh,Private hospital,Hospital,all,0,350,3.5,3.7,1,1,1,1,1,1,1,1,1,1,findoutadoctor.blogspot.com/2016/07/aichi-hospital-location-address-phone.html
878,AHSANIA MISSION CANCER & GENERAL HOSPITAL,(880-2) 9127943 58155869 9123402 9134919,http://www.ahsaniacancer.org.bd/,23.88751,90.3912,Plot-03  Embankment Drive Way Sector-10  Uttara Model Town Dhaka 1230 Bangladesh,Private hospital,Hospital,Cancer,0,42,2.8,4.3,1,0,1,1,1,1,1,0,0,0,http://www.ahsaniacancer.org.bd/
879,East west medical college hospital,,,23.89487,90.3764,V9QM+M6W,Private hospital,Medical college hospital,all,1,,,,,,,,,,,,,,
880,East wast medical hospital,,https://maps.gstatic.com/consumer/images/icons/1x/ic_directions_gm_blue_24px.png,23.89487,90.3764,QCJF+WCR DHasB,Private hospital,Hospital,all,0,,,,,,,,,,,,,,
881,East wast medical collagehospital,,https://maps.gstatic.com/consumer/images/icons/1x/ic_directions_gm_blue_24px.png,23.89487,90.3764,F-120 Matabbar Rd,Private hospital,Medical college hospital,all,1,,,,,,,,,,,,,,
882,East West Medical College & Hospital,,https://www.gstatic.com/images/icons/material/system_gm/1x/public_gm_blue_24dp.png,23.89487,90.3764,Aichi Nagar JBCS Sarani P.O- Khayertek,Private hospital,Medical college hospital,all,1,,,4.2,,,,,,,,,,,
883,PMK HOSPITAL & DIAGNOSTIC CENTRE,,_,23.91402,90.3172,Zirabo 1343 Bangladesh,Private hospital,Diagnostic,Diagnostic,0,,_,_,0,0,0,0,1,1,1,0,0,0,
884,Mohila O Sishu Hospital,,,23.92362,90.5871,VCJ3+GF7,Private hospital,Hospital,all,0,,,3.3,,,,,,,,,,,
885,Sheikh Russel National Gastroliver Institute & Hospital,,,23.92433,90.5913,·,Private hospital,Hospital,all,0,,,4.3,,,,,,,,,,,
886,Moyej Uddin Red Cresent Matrisadan Hospital,,,23.92579,90.5576,PC47+9QJ,Private hospital,Hospital,all,0,,,4,,,,,,,,,,,
887,Harun General Hospital (PVT.) Ltd.,,_,23.93228,90.1508,Kalampur 1351 Bangladesh,Private hospital,Hospital,all,0,,_,_,0,0,0,0,1,1,1,0,0,0,
888,Happy General Hospital & Diagnostic Center,,_,23.93668,90.2725,W7PF+M2 Baipayl Bangladesh,Private hospital,Diagnostic,Diagnostic,0,,_,_,0,0,0,0,1,1,1,0,0,0,
889,NEW SUPER DIAGNOSTIC CENTER,01915-626967,_,23.99368,90.2541,R.S Plaza Zirani ??????? 1349 Bangladesh,Private hospital,Diagnostic,Diagnostic,0,,_,_,0,0,0,0,1,1,1,0,0,0,
890,neeramoy,,http://neeramoy.com/,23.99454,90.3824,L4 34 Kemal Ataturk Ave,Private hospital,Clinic,all,0,,,,,,,,,,,,,,
891,Ark Hospital Limited,,,23.99719,90.4216,241/1 শাহ্‌কবির মাজার রোড Azampur Dakkhin Khan 220 Faidabad Main Rd,Private hospital,Hospital,all,0,,,4,,,,,,,,,,,
892,AMZ Hospital Ltd.,,http://www.amzhospitalbd.com/,23.99719,90.4216,·,Private hospital,Hospital,all,0,,,4.2,,,,,,,,,,,
893,York Hospital,,,23.99719,90.4216,House no.12 & 13 Rd 22 Block#K,Private hospital,Hospital,all,0,,,4.3,,,,,,,,,,,
894,Medilink Hospital,,,23.99719,90.4216,QCJG+7G8,Private hospital,Hospital,all,0,,,4,,,,,,,,,,,
895,Reneca Hospital,,,23.99719,90.4216,4 Road No. 4A,Private hospital,Hospital,all,0,,,4.3,,,,,,,,,,,
896,Kingston Hospital,,http://www.kingstonhospital.com.bd/,23.99719,90.4216,House: 51-54 Road: 01 & 02 Block: D Shahidbag mirpur-12,Private hospital,Hospital,all,0,,,4,,,,,,,,,,,
897,Delta Hospital Ltd.,,https://delta-hospital.com/,23.99719,90.4216,2 Tolarbag 1st Ln,Private hospital,Hospital,all,0,,,3.7,,,,,,,,,,,
898,Anuar Hospital,,,23.99719,90.4216,P9WG+HCJ,Private hospital,Hospital,all,0,,,,,,,,,,,,,,
899,yolk hospital limited,,,23.99719,90.4216,QCW2+J5W,Private hospital,Hospital,all,0,,,,,,,,,,,,,,
900,Amar Hospital Ltd,,https://www.amar-hospital.com/,23.99719,90.4216,4/2 Daffodil Tower Sobhanbag 1207 Mirpur Rd,Private hospital,Hospital,all,0,,,3.4,,,,,,,,,,,
901,Radical Hospitals Ltd.,,,23.99719,90.4216,35 Shah Makhdum Ave,Private hospital,Hospital,all,0,,,3.9,,,,,,,,,,,
902,Urban Hospital,,,23.99719,90.4216,VCC3+GPJ,Private hospital,Hospital,all,0,,,3.4,,,,,,,,,,,
903,Samajik Hospital Site,,,23.99719,90.4216,V9C9+4R8,Private hospital,Hospital,all,0,,,,,,,,,,,,,,
904,Atlas hospital ltd,,,23.99719,90.4216,V9RQ+R39,Private hospital,Hospital,all,0,,,,,,,,,,,,,,
905,Panorama Hospital,,,23.99719,90.4216,House no 16 Rd No. 8,Private hospital,Hospital,all,0,,,3.8,,,,,,,,,,,
906,Manob Hospital,,,23.99719,90.4216,41 1 Green Rd,Private hospital,Hospital,all,0,,,,,,,,,,,,,,
907,Liberty Hospital Ltd.,,,23.99719,90.4216,2/8 Motaleb Tower,Private hospital,Hospital,all,0,,,,,,,,,,,,,,
908,Dogma Hospital Ltd.,,https://www.gstatic.com/images/icons/material/system_gm/1x/public_gm_blue_24dp.png,23.99719,90.4216,Yes,Private hospital,Hospital,all,0,,,3.6,,,,,,,,,,,
909,Proposed Hospital,,https://maps.gstatic.com/consumer/images/icons/1x/ic_directions_gm_blue_24px.png,23.99719,90.4216,MA 33/C Bir Uttam Rafiqul Islam Ave,Private hospital,Hospital,all,0,,,,,,,,,,,,,,
910,Unity Aid Hospital Ltd,,https://maps.gstatic.com/consumer/images/icons/1x/ic_directions_gm_blue_24px.png,23.99719,90.4216,D-12 Main RoadSouth,Private hospital,Hospital,all,0,,,1,,,,,,,,,,,
911,Advance Hospital Ltd.,,https://maps.gstatic.com/consumer/images/icons/1x/ic_directions_gm_blue_24px.png,23.99719,90.4216,House #1 Main Road Block #F,Private hospital,Hospital,all,0,,,3.7,,,,,,,,,,,
912,Farazy Hospital Ltd.,,https://www.gstatic.com/images/icons/material/system_gm/1x/public_gm_blue_24dp.png,23.99719,90.4216,Yes,Private hospital,Hospital,all,0,,,3.7,,,,,,,,,,,
913,BMOS Hospital LTD,,https://maps.gstatic.com/consumer/images/icons/1x/ic_directions_gm_blue_24px.png,23.99719,90.4216,QC6Q+WHG ব্লক # এফ,Private hospital,Hospital,all,0,,,3,,,,,,,,,,,
914,cardihope hospital,,,23.99719,90.4216,2 Gulshan Ave,Private hospital,Hospital,all,0,,,,,,,,,,,,,,
915,shayek hospital,,,23.99719,90.4216,QCH4+259,Private hospital,Hospital,all,0,,,3.3,,,,,,,,,,,
916,Metro Hospital,,,23.99719,90.4216,Bus Terminal,Private hospital,Hospital,all,0,,,3,,,,,,,,,,,
917,Health labs hospital,,,23.99719,90.4216,Health labs hospital,Private hospital,Hospital,all,0,,,3,,,,,,,,,,,
918,Marks Hospital,,https://marksmedicalcollege.edu.bd/marks-hospital/,23.99719,90.4216,A/3 Main road,Private hospital,Hospital,all,0,,,2.7,,,,,,,,,,,
919,BMI Hospital,,,23.99719,90.4216,R956+FWR,Private hospital,Hospital,all,0,,,4.8,,,,,,,,,,,
920,AASTAR Hospital,,https://maps.gstatic.com/consumer/images/icons/1x/ic_directions_gm_blue_24px.png,23.99719,90.4216,VCJV+2RG,Private hospital,Hospital,all,0,,,3.3,,,,,,,,,,,
921,Assurance Hospital,,https://maps.gstatic.com/consumer/images/icons/1x/ic_directions_gm_blue_24px.png,23.99719,90.4216,Q9WF+C63,Private hospital,Hospital,all,0,,,5,,,,,,,,,,,
922,Amader Hospital Ltd.,,https://maps.gstatic.com/consumer/images/icons/1x/ic_directions_gm_blue_24px.png,23.99719,90.4216,105/f W Agargaon,Private hospital,Hospital,all,0,,,2.3,,,,,,,,,,,
923,NTRS Hospital,,,23.99719,90.4216,K.M. Das Ln,Private hospital,Hospital,all,0,,,,,,,,,,,,,,
924,Badhon Hospital,,,23.99719,90.4216,Ahsan Market Mitford Road,Private hospital,Hospital,all,0,,,3.2,,,,,,,,,,,
925,Prime Hospital,,,23.99719,90.4216,Muktijuddha Tower College Gate,Private hospital,Hospital,all,0,,,4,,,,,,,,,,,
926,DSK Hospital,,,23.99719,90.4216,Q9F6+8PF Ring Rd,Private hospital,Hospital,all,0,,,3.8,,,,,,,,,,,
927,Mirpur ICDDRB TB screening centre,,http://www.icddrb.org/,24.00674,90.3367,Road 1 Mirpur 11 House No 2 Block 2 Opposite Standar Chartered Bank,Private hospital,Hospital,all,0,,,4.8,,,,,,,,,,,
928,Mugda Medical College and Hospital,,http://www.mumc.gov.bd/,23.73254,90.4301,Hazi Kadam Ali Rd,Government hospital,Medical college hospital,all,1,,,4.1,,,,,,,,,,,
929,SUFIA DIGITAL HOSPITAL AND DIAGNOSTIC CENTER,,_,24.02554,90.2786,House: 12 Ward: 09 Malek Spining Road Shafipur Bangladesh,Private hospital,Diagnostic,Diagnostic,0,,_,_,0,0,0,0,1,1,1,0,0,0,
930,Kuwait Bangladesh Friendship Govt. Hospital,,,24.04765,90.9928,319 Isakha Ave,Government hospital,Hospital,all,0,,,4.1,,,,,,,,,,,
931,Proposed Mercantile Bank Hospital,,,24.09827,90.1672,Plot#09 Road#4/B Sector#15,Government hospital,Hospital,all,0,,,,,,,,,,,,,,
932,Dandy Specialized Physiotherapy Hospital Ltd.,,,23.87432,90.3951,Khan Tower 51 Sonargaon Janapath,Private hospital,Hospital,all,0,,,5,,,,,,,,,,,
933,SIBL Foundation Hospital,,,23.75095,90.3871,Fattah Plaza পান্থপথ 70 Green Rd,Private hospital,Hospital,all,0,,,3.5,,,,,,,,,,,
934,diabetics hospital,,,23.74874,90.3854,PC79+XGJ Tipu Sultan Rd.,Private hospital,Hospital,all,0,,,4.1,,,,,,,,,,,
935,The Ibn Sina Trust,,http://www.ibnsinatrust.com/,23.74557,90.3723,House# 48 Road# 9/A Satmasjid Road,Private hospital,Clinic,all,0,,,4.4,,,,,,,,,,,
936,ICDDRB Kamalapur Field office,,,23.71912,90.4332,PC8J+6H3 Lichubagan Rd,Private hospital,Hospital,all,0,,,4.1,,,,,,,,,,,
937,Diganta Hospital Project.,,,23.87496,90.3866,V9FP+PHP Sonargaon Janapath,Private hospital,Hospital,all,0,,,5,,,,,,,,,,,
938,Ibn Sina Diagnostic & Consultation Center,,,23.78876,90.4259,New Medical College Road Rikabi Bazar VVX6+FGW Sylhet 3100 Bangladesh,Private hospital,Diagnostic,Diagnostic,0,,,,,,,,,,,,,,
939,CARe Medical College & Hospital,,http://carehospitalbd.com/,23.76912,90.3686,1/5 Block-B Mohammadpur Housing Estate College Gate Mirpur Rd,Private hospital,Medical college hospital,all,1,,,3.5,,,,,,,,,,,
940,Al Hamad Medical Center Ltd,,,23.73378,90.4161,Malik House Waivs/86 Sylhet 3100 Bangladesh,Private hospital,Hospital,all,0,,,,,,,,,,,,,,
941,ARABIAN MEDICAL CENTRE,,,23.79496,90.4262,Buheira Corniche Road - ?????? - ?????? ? - ??????? - United Arab Emirates,Private hospital,Hospital,all,0,,,,,,,,,,,,,,
942,Jahurul Islam Medical College Hospital,,,23.8199,90.4021,9th Floor Delta Dahlia 36 Kemal Ataturk Ave,Private hospital,Medical college hospital,all,1,,,5,,,,,,,,,,,
943,Seba Diagnostic Center,,,23.92241,90.3374,Charubabur More Charubabur More to Chay Rasta More Dinajpur Bangladesh,Private hospital,Diagnostic,Diagnostic,0,,,,,,,,,,,,,,
944,Good Health Diagnostic Centre,,,23.75504,90.379,opposite TRIHMS Naharlagun 791110,Private hospital,Diagnostic,Diagnostic,0,,,,,,,,,,,,,,
945,Pan Pacific HospitalTraining & Research Institute Ltd.,,,23.7386,90.4219,24 Outer Circular Road Motijheel PirJongi Mazer Shajahanpur,Private hospital,Hospital,all,0,,,3.7,,,,,,,,,,,
946,Dr. MR Khan Shishu hospital & Institute of Child Health,,https://mrkich.org/,23.8034,90.3619,6/2 Section-02,Private hospital,Hospital,children,0,,,4,,,,,,,,,,,
947,Obstetrical & Gynaecological Society of Bangladesh Hospital,,http://www.ogsb.org/,23.81234,90.3811,R95J+7RR,Private hospital,Hospital,all,0,,,4.3,,,,,,,,,,,
948,AL HAJ ABDUS SOBHAN MEMORIAL IBRAHIM GENERAL HOSPITALBASUNDHARA,,http://www.nhn-dab.org.bd/,23.81059,90.4125,Plot : 97/A B-l- R-05,Private hospital,Hospital,all,0,,,2.7,,,,,,,,,,,
949,Stroke & Neuro Rehab Clinic | Senior Citizen Hospital,,,23.80169,90.4238,Stroke & Neuro Rehab Clinic Piles Clinic House# 8 Road# 8 Baridhara Block# J Dhaka,Government hospital,Hospital,all,0,,,5,,,,,,,,,,,
950,Cardiac Electrophysiology & Heart Failure Center,,https://heartfailureclinicdhaka.business.site/?utm_source=gmb&utm_medium=referral,23.8105,90.431,OPD L-5 Apollo Hospitals Plot: 81 Block:E Dhaka Dhaka,Private hospital,Hospital,Heart,0,,,,,,,,,,,,,,
951,Haematology Hospital : Lab One Hospital Ltd. & Lab One Foundation,,http://www.labone.org.bd/,23.86843,90.3901,House # 08 Rd -12,Private hospital,Hospital,all,0,,,4.3,,,,,,,,,,,
952,Urban Primary Health Care Services Delivery Project,,,23.91841,90.2999,VCC2+MQ2,Private hospital,Hospital,all,0,,,2.6,,,,,,,,,,,
953,Paedihope Hospital For Sick Children,,,23.87043,90.3993,32A Road-6,Private hospital,Hospital,children,0,,,2.5,,,,,,,,,,,
954,Recovery Foundation drug addicion treatment center,,,23.87751,90.3858,house 76 1230 Rd No 14,Private hospital,Hospital,all,0,,,5,,,,,,,,,,,
955,HR Clinical Research Center and Hospital (Proposed),,,23.74613,90.3719,House 180/A Road 10/A Satmasjid Road,Private hospital,Hospital,all,0,,,,,,,,,,,,,,
956,M.S Endoscopy Centre,,https://ms-endoscopy-centre.business.site/?utm_source=gmb&utm_medium=referral,23.74545,90.3832,১৬১/এ লেক সার্কাস ককলাবাগান ঢাকা -১২০৫,Private hospital,Hospital,all,0,,,,,,,,,,,,,,
957,Bangladesh Retired Govt. Employees Medical Centre & Diagnostic Center,,http://brgewa.com/,23.74579,90.3728,House#75/A Road# 5/A Dhanmondi Satmasjid Road,Private hospital,Diagnostic,Diagnostic,0,,,4.3,,,,,,,,,,,
958,Anwer Khan Modern Hospital - Specialized Mother & Children Unit,,,23.74576,90.3817,House - 22 Road - 8,Private hospital,Hospital,all,0,,,,,,,,,,,,,,
959,Universal Hospital and Medical College,,,23.74667,90.3845,23 Green Rd,Private hospital,Medical college hospital,all,1,,,4.1,,,,,,,,,,,
960,Bumrungrad Hospital Bangladesh | Patient Support Center In Gulshan Dhaka | Book Your Doctor Appointment at Bumrungrad,,https://www.gstatic.com/images/icons/material/system_gm/1x/public_gm_blue_24dp.png,23.78231,90.4175,Yes,Private hospital,Diagnostic,Diagnostic,0,,,4.8,,,,,,,,,,,
961,BRAC MATERNITY CENTER (BMC) Korail,,https://www.gstatic.com/images/icons/material/system_gm/1x/public_gm_blue_24dp.png,23.78536,90.4114,Yes,Private hospital,Hospital,mother and chield,0,,,,,,,,,,,,,,
962,National kalaazar elimination conference room,,,23.78074,90.4013,95 গুলশান বাড্ডা সংযোগ সড়ক,Private hospital,Hospital,all,0,,,,,,,,,,,,,,
963,MediScan Diagnostic & Pharmacy Management Software,,,23.79416,90.4043,QCV3+HPR,Private hospital,Diagnostic,Diagnostic,0,,,5,,,,,,,,,,,
964,Directorate General of Health Services (DGHS),,http://www.dghs.gov.bd/,23.78021,90.409,লিংক রোড,Government hospital,Hospital,all,0,,,4.1,,,,,,,,,,,
965,Centre for the Rehabilitation of the Paralysed (CRP) - Mirpur,,http://www.crp-bangladesh.org/,23.80393,90.3872,Plot A/5 Block A,Private hospital,Hospital,all,0,,,4.3,,,,,,,,,,,
966,Rongdhonu Hospital (Urban Hospital),,https://rongdhonu-hospital-urban-hospital-hospital.business.site/,23.82294,90.3596,1 Rd No. 1,Private hospital,Hospital,all,0,,,5,,,,,,,,,,,
967,O. G. S. B Hospital & Institute of Reproductive & Child Health,,http://www.ogsb.org/,23.80453,90.3542,House: 5 Block: G Rd No. 2,Private hospital,Hospital,all,0,,,4,,,,,,,,,,,
968,Dhaka Trauma Center And Specialised Orthopedic Hospital,,https://www.gstatic.com/images/icons/material/system_gm/1x/public_gm_blue_24dp.png,23.77398,90.3662,23/6 3rd Floor Rupayan Shelford Mirpur Road,Private hospital,Hospital,Orthopedic,0,,,3.6,,,,,,,,,,,
969,Islami Bank Specialized And General Hospital,,https://ssl.gstatic.com/local/servicebusiness/default_user.png,23.73624,90.4145,71 72 VIP Rd,Private hospital,Hospital,all,0,,,4.1,,,,,,,,,,,
970,MonNiramoy Psychiatric Drug Mental Hospital,,MonNiramoy Psychiatric Drug Mental Hospital,23.77829,90.3611,12 South Mirpur Rd,Private hospital,Hospital,all,0,,,,,,,,,,,,,,
971,Sir Salimullah Medical College Mitford Hospital,27319002,www.ssmcbd.net,23.71188,90.4013,sadarghatdhaka,Government hospital,Medical college hospital,all,1,600,2,3,1,1,0,1,1,1,1,1,1,1,www.ssmcbd.net
972,Dhaka Mohanagar General Hospita,257390066,_,23.71412,90.4051,PC74+J45 Dhaka 1100 Bangladesh,Government hospital,Hospital,all,0,,2,2,0,0,0,1,1,1,1,0,0,0,www.dhakadiv.gov.bd
973,Dhaka Shishu Hospital,02 55059051-60,dsh.org.bd,23.72002,90.3924,Sher-e-Bangla Nagar Dhaka,Government hospital,Hospital,children,0,650,2,3,1,1,0,1,1,1,1,1,1,1,dsh.org.bd
974,SHEIKH HASINA NATIONAL INSTITUTE OF BURN AND PLASTIC SURGERY,Emergency Contact 00000000,www.shnibps.gov.bd,23.72432,90.4011,Sher-E-Bangla Nagar Dhaka,Government hospital,Hospital,Burn,0,500,2,4,1,1,0,1,1,1,1,0,1,1,www.shnibps.gov.bd
975,Bangladesh Secretariat Clinic,_,https://app.dghs.gov.bd/localhealthBulletin2016/publish/publish.php?org=10000020&year=2016&lvl=3,23.7298,90.408,Upazila: Paltan District: Dhaka Division: Dhaka,Government hospital,Clinic,all,0,,2,3,0,0,0,0,0,0,0,0,0,0,https://app.dghs.gov.bd/localhealthBulletin2016/publish/publish.php?org=10000020&year=2016&lvl=3
976,Bangladesh Police Hospital Dhaka,02-4832268801796-50011701320225598,cph.police.gov.bd,23.73644,90.4167,Rajarbagh Dhaka Bangladesh,Government hospital,Hospital,all,0,500,0,4,1,1,0,1,1,1,1,1,1,1,cph.police.gov.bd
977,Bardem General Hospital,0241060501-24,birdembd.org,23.73916,90.3965,Shahbag Dhaka,Government hospital,Medical college hospital,Diabetice,1,600,2,3,1,1,0,1,1,1,1,1,1,1,birdembd.org
978,Sayed Abu Bakar Hospital,2222222077,_,23.74807,90.3988,18 New Eskaton Road Dhaka 1000,Government hospital,Hospital,all,0,,2,2,0,0,0,0,0,0,0,0,0,0,https://www.google.com/maps/place/Abeer+General+Hospital/@23.748064890.398485418.98z/data=!4m14!1m7!3m6!1s0x3755b89034489eb7:0x857c84afd0ecf67b!2sAbeer+General+Hospital!8m2!3d23.7480027!4d90.3987694!16s%2Fg%2F11b5ynxsg_!3m5!1s0x3755b89034489eb7:0x857c84afd0ecf67b!8m2!3d23.7480027!4d90.3987694!16s%2Fg%2F11b5ynxsg_?hl=en&entry=ttu
979,Bangladesh Assisted Conception Centre (BACC) Women�s,"0222-3369928
02-58612409",https://www.baccbd.com/,23.75029,90.3889,69/R Panthapath Dhaka 1205,Private hospital,Hospital,Fertility ,0,,3.2,3.8,1,1,1,1,1,1,1,1,1,1,https://www.baccbd.com/
980,Bangladesh Fertility Hospital Ltd | Dhaka,01894-877811,www.bdfertilityhospital.com,23.76292,90.435,V9FX+P9C Dhaka 1230 Bangladesh,Private hospital,Hospital,Fertility ,0,107,3.2,3.8,1,1,1,1,1,1,1,1,1,1,www.bdfertilityhospital.com
981,National Center For Control Of Rheumatic Fever & Heart Disease,_,nccrfhd.org,23.76848,90.3706,Sher-E-Bangla Nagar Dhaka,Government hospital,Hospital,Heart,0,,2,2,0,0,0,0,1,1,1,0,0,0,nccrfhd.org
982,Sher-e-Bangla Medical College hospital,_,_,23.76937,90.3713,Sher-E-Bangla Nagar,Government hospital,Medical college hospital,all,1,1000,2,3,1,1,0,1,1,1,1,1,1,1,en.wikipedia.org/wiki/Sher-e-Bangla_Medical_College
983,Shaheed Suhrawardy Medical,02-8144048,www.shsmc.gov.bd,23.76938,90.3714,Sher-E-Bangla Nagar Dhaka,Government hospital,Medical college hospital,all,1,850,2,3,1,1,0,1,1,1,1,1,1,1,www.shsmc.gov.bd
984,National institute of dentistry and hospital,1817569528,_,23.77005,90.3665,Sher-E-Bangla Nagar Dhaka,Government hospital,Hospital,Dental,0,,2,3,0,0,0,0,0,0,0,0,0,0,www.dentalclinicinfo.com
985,National Institute of Kidney Disease and Urology (NIKDU),248122484,www.nikdu.org.bd,23.77167,90.3686,Sher-E-Bangla Nagar Dhaka,Government hospital,Hospital,Kidny,0,150,2,3,1,0,0,1,1,1,1,0,0,0,www.nikdu.org.bd
986,BANGLADESH INSTITUTE OF CHILD HEALTH,880-2-55059051-61,dsh.org.bd/bangladesh-institute-of-child-health/,23.77314,90.3701,Sher-E-Bangla Nagar Dhaka,Government hospital,Hospital,children,0,650,2,3,1,1,0,1,1,1,1,1,1,1,dsh.org.bd/bangladesh-institute-of-child-health/
987,National Institute of Mental Health,02-9118171,nimh.gov.bd,23.77316,90.368,Sher-E-Bangla Nagar Dhaka,Government hospital,Hospital,Mental Health,0,100,2,3,1,0,0,1,1,1,1,0,0,0,nimh.gov.bd
988,National Orthopedic Hospital,02-55058938,nitorbd.org,23.77392,90.3703,Sher-E-Bangla Nagar Dhaka,Government hospital,Hospital,Orthopedic,0,500,2,3,1,1,0,1,1,1,1,1,1,1,nitorbd.org
989,Shyamoli 250 bed TB Hospital,1969910200,tbhsd.gov.bd,23.7741,90.3685,Sher-E-Bangla Nagar Dhaka,Government hospital,Hospital,TB,0,250,2,3,0,0,0,1,1,1,1,0,0,0,tbhsd.gov.bd
990,National Institute of Ophthalmology,02-58152803 02-9118336,facilityregistry.dghs.gov.bd/org_profile.php?org_code=10000011,23.77457,90.3697,Sher-E-Bangla Nagar Dhaka,Government hospital,Hospital,Ophthalmology,0,250,2,3,0,0,0,1,1,1,1,0,0,0,facilityregistry.dghs.gov.bd/org_profile.php?org_code=10000011
991,National Institute of Neurosciences & Hospital Dhaka Bangladesh,880-2-41024584,www.nins.gov.bd,23.77621,90.3708,Sher-E-Bangla Nagar Dhaka,Government hospital,Medical college hospital,Neorology,1,450,2,3,1,0,0,1,1,1,1,0,1,1,www.nins.gov.bd
992,NATIONAL INSTITUTE OF DISEASES OF THE CHEST AND HOSPITAL,255067131,www.nidch.gov.bd,23.7773,90.41,Mohakhali Dhaka-1212 Bangladesh,Government hospital,Hospital,Heart,0,670,2,3,1,1,0,1,1,1,1,1,1,1,www.nidch.gov.bd
993,National Institute of Laboratory Medicine and Referral Center,8802-44827350,www.nilmrc.gov.bd,23.7774,90.3677,Sher-E-Bangla Nagar Dhaka,Government hospital,Hospital,all,0,,2,2,0,0,0,0,0,0,0,0,0,0,www.nilmrc.gov.bd
994,National Cancer Research Institute,02-22280078,nicrh.gov.bd,23.77845,90.4096,Mohakhali TB Gate Road,Government hospital,Hospital,Cancer,0,300,2,3,1,1,0,1,1,1,1,1,1,1,nicrh.gov.bd
995,Cantonment General Hospital,_,_,23.79971,90.3935,dhakacantroment,Government hospital,Hospital,all,0,100,0,4,1,1,0,1,1,1,1,1,1,1,https://en.wikipedia.org/wiki/Siraj-Khaleda_Memorial_Cantonment_Board_General_Hospital#:~:text=Siraj-Khaleda%20Memorial%20Cantonment%20Board%20General%20Hospital%20is%20a%20large100%20beds%20and%2026%20cabins.
996,Bangladesh Navy Hospital Dhaka,9834650-1,www.navy.mil.bd/navy/contact,23.80034,90.3909,Q9XR+W96 Dhaka,Government hospital,Hospital,all,0,,0,5,1,0,0,1,1,1,1,0,0,0,www.navy.mil.bd/navy/contact
997,Kidney Foundation Bangladesh,02-44807447 02-44807448,www.kidneyfoundationbd.com,23.80298,90.3604,5/2 Road No.-1 Section-2 Mirpur Dhaka,Government hospital,Hospital,Kidny,0,300,2,3,1,1,0,1,1,1,1,1,1,1,www.kidneyfoundationbd.com
998,Government Unani and Ayurvedic Medical,01819-299331,www.guamc.edu.bd,23.80632,90.3781,Mirpur 13 Dhaka,Government hospital,Medical college hospital,all,1,100,2,3,1,1,0,1,1,1,1,1,1,1,guamc.edu.bd
999,National Heart Foundation Hospital & Research Institute,58054696,www.nhf.org.bd,23.80995,90.3616,Plot-7/2 Section-2 Mirpur Dhaka-1216 Bangladesh.,Government hospital,Hospital,Heart,0,330,2,3,1,1,0,1,1,1,1,1,1,1,www.nhf.org.bd
1000,ICDDRB,02-2222-77001-10,www.icddrb.org,23.81432,90.3671,"68 Shaheed Tajuddin Ahmed Sarani
Mohakhali Dhaka.",Government hospital,Medical college hospital,all,1,120,2,3,1,1,0,1,1,1,1,1,1,1,www.icddrb.org
1001,Combined Military Hospital (Dhaka),www.army.mil.bd/Contact-Us,www.army.mil.bd,23.81477,90.3989,R97X+QHJ C.M.H In Road Dhaka 1206,Government hospital,Hospital,all,0,1500,0,5,1,1,0,1,1,1,1,1,1,1,www.army.mil.bd
1002,Kuwait Bangladesh Friendship Government Hospital,1920294419,https://www.mawbiz.com.bd/Kuwait.Bangladesh.Friendship.Government.Hospital,23.87184,90.4048,Isakha Ave Dhaka 1231,Government hospital,Hospital,all,0,200,2,3,1,1,0,1,1,1,1,0,0,0,https://en.wikipedia.org/wiki/Kuwait_Bangladesh_Friendship_Government_Hospital#Location
1003,Shaheed Monsur Ali Medical College Hospital,1915431834,www.smamedicalcollege-bd.com,23.87901,90.3929,House 26 & 26A Rd No 10 Dhaka 1230,Government hospital,Medical college hospital,all,1,200,2,3,1,1,0,1,1,1,1,0,0,0,www.smamedicalcollege-bd.com
